{"type":"FeatureCollection","name":"equipamientos","metadatos":{"titulo":"Equipamientos sensibles mapeados en OpenStreetMap","descripcion":"Colegios, universidades, centros de salud, hogares de cuidado, bomberos, policía y alcaldía mapeados en OpenStreetMap; un punto por equipamiento. Es un inventario incompleto.","fuente":{"nombre":"OpenStreetMap (Overpass, out geom)","url":"https://www.openstreetmap.org/copyright","licencia":"ODbL 1.0","cita":"© colaboradores de OpenStreetMap, ODbL 1.0 (https://www.openstreetmap.org/copyright)","consulta_overpass":"[out:json][timeout:170];(nwr[\"leisure\"~\"^(park|garden|pitch|playground|nature_reserve|recreation_ground)$\"](4.688,-75.985,4.795,-75.855);nwr[\"landuse\"~\"^(grass|recreation_ground|forest|meadow|village_green|cemetery)$\"](4.688,-75.985,4.795,-75.855);nwr[\"natural\"~\"^(wood|wetland|water|scrub|tree_row)$\"](4.688,-75.985,4.795,-75.855);nwr[\"amenity\"~\"^(school|kindergarten|college|university|hospital|clinic|doctors|nursing_home|social_facility|fire_station|police|townhall)$\"](4.688,-75.985,4.795,-75.855););out geom;","consulta_archivo":"fuentes/verdes/osm-verdes-equipamientos.overpassql"},"periodo":"Estado de OpenStreetMap en la marca 2026-10-01T01:50:59Z en UTC (2026-09-30 20:50 hora de Colombia, UTC−5)","crs":"EPSG:4326","criterios":["áreas → centroide (punto representativo si el centroide cae fuera)","duplicados: punto dentro de un área del mismo subtipo; mismo nombre y categoría a < 50 m","dist_verde_publico_05ha_m: distancia en línea recta (UTM 18N) al borde del verde público ≥ 0,5 ha"],"cobertura_frente_a_registros_oficiales":{"nota":"Conteos de OSM (municipio de Cartago, tras deduplicar) frente a registros oficiales. Un punto de OSM no equivale siempre a una sede: la razón es una estimación gruesa de cobertura, no un cruce uno a uno.","educacion_men":{"fuente":"MEN, MEN_ESTABLECIMIENTOS_EDUCATIVOS_PREESCOLAR_BÁSICA_Y_MEDIA (datos.gov.co cfw5-qzt5, CC BY-SA 4.0)","consulta":"https://www.datos.gov.co/resource/cfw5-qzt5.json?%24select=a_o%2Csector%2Ccount%28%2A%29+AS+establecimientos%2Csum%28cantidad_sedes%29+AS+sedes&%24where=cod_dane_municipio%3D%2776147%27&%24group=a_o%2Csector&%24order=a_o","fecha_consulta":"2026-09-30","anio":2025,"por_sector":{"NO_OFICIAL":{"establecimientos":23,"sedes":23},"OFICIAL":{"establecimientos":12,"sedes":42}},"sedes_total_municipio":65,"osm_colegios_y_jardines_municipio":17,"cobertura_osm_pct":26},"educacion_boletin_municipal":{"fuente":"Secretaría de Educación Municipal de Cartago, Boletín Estadístico Sector Educación – Año 2023 (marzo de 2024, código MMDS.600.18.F.125)","url":"https://municipio.cartago.gov.co/wp-content/uploads/2024/04/BOLETIN_ESTADISTICO-SEM_2024-FINAL.pdf","paginas":"p. 16 (tabla: 12 IE oficiales con 29 sedes + 12 principales, 26 no oficiales, 5 CDI, 6 universidades, 1 SENA, 29 ETDH); p. 18 (41 sedes oficiales); p. 19 (29 sedes oficiales urbanas y 12 rurales); p. 27 (25 no oficiales, 24 urbanos). El propio boletín da 26 no oficiales en la tabla y 25 en el texto.","sedes_urbanas_oficiales":29,"establecimientos_urbanos_no_oficiales":24,"total_urbano":53,"osm_colegios_y_jardines_en_cabecera":17,"cobertura_osm_pct":32,"educacion_superior":{"boletin_universidades":6,"boletin_sena":1,"osm_university_y_college":5},"centros_desarrollo_infantil_boletin":5},"salud_reps":{"fuente":"MinSalud, Registro Especial de Prestadores y Sedes de Servicios de Salud (datos.gov.co c36g-9fc2, CC BY-SA 4.0)","consulta":"https://www.datos.gov.co/resource/c36g-9fc2.json?%24select=claseprestador%2Cnaturalezajuridica%2Cfecha_corte_reps%2Ccount%28%2A%29+AS+sedes&%24where=municipiosede%3D%2776147%27&%24group=claseprestador%2Cnaturalezajuridica%2Cfecha_corte_reps","fecha_consulta":"2026-09-30","corte":["Fecha corte REPS: Mar 12 2026  3:11PM"],"sedes_por_clase":{"Instituciones Prestadoras de Servicios de Salud - IPS":63,"Objeto Social Diferente a la Prestación de Servicios de Salud":6,"Profesional Independiente":198,"Transporte Especial de Pacientes":8},"sedes_ips_publicas_ese":11,"osm_salud_municipio":7,"osm_consultorios_municipio":0,"cobertura_osm_ips_pct":11,"profesionales_independientes":198}},"limitaciones":["Cobertura parcial: los conteos son 'mapeados en OSM', no un inventario. Educación: OSM tiene 17 colegios o jardines en el municipio de Cartago frente a 65 sedes de preescolar, básica y media del MEN (2025), una cobertura de ≈ 26 %. En la cabecera, 17 frente a 53 sedes urbanas (29 oficiales y 24 no oficiales, Boletín Estadístico municipal 2023): ≈ 32 %. Salud: OSM tiene 7 puntos de salud en Cartago frente a 63 sedes de IPS habilitadas en el REPS (corte 12-mar-2026), ≈ 11 %, más 198 profesionales independientes (OSM: 0 consultorios).","Un punto por equipamiento (centroide o punto representativo del área): no representa linderos, accesos ni la población atendida; un área OSM puede agrupar varias sedes y una sede puede faltar.","La consulta Overpass no pidió healthcare=*: los consultorios etiquetados solo con healthcare quedan fuera.","La categoría sale de las etiquetas OSM, que a veces son dudosas (p. ej. un puesto de salud etiquetado hospital, una escuela de aviación etiquetada school) y los nombres pueden estar desactualizados (ver vacios_osm en datos/series/verdes.json).","Incluye equipamientos fuera del municipio de Cartago (municipio='otro municipio', p. ej. Puerto Caldas, Pereira).","dist_verde_publico_05ha_m depende de los mismos supuestos de la capa distancia_verde (verde mapeado, acceso supuesto)."]},"features":[{"type":"Feature","geometry":{"type":"Point","coordinates":[-75.930812,4.751714]},"properties":{"categoria":"cuidado","categoria_es":"Cuidado","subtipo":"nursing_home","subtipo_es":"hogar geriátrico","nombre":"Hermanitas de los pobre \"Mi casa\"","osm_id":"way/1425868658","osm_url":"https://www.openstreetmap.org/way/1425868658","geometria_origen":"área","area_m2":23020.8,"operador":null,"municipio":"Cartago","comuna":"Comuna 7","en_cabecera":true,"dist_verde_publico_05ha_m":486,"fusionados":["way/1432134950","way/1425921960","way/1425921961","way/1432134948","way/1425921962","way/1432134949","way/1425921965"],"motivo_fusion":"way/1432134950 dentro del área; way/1425921960 dentro del área; way/1425921961 dentro del área; way/1432134948 dentro del área; way/1425921962 dentro del área; way/1432134949 dentro del área; way/1425921965 dentro del área"}},{"type":"Feature","geometry":{"type":"Point","coordinates":[-75.910983,4.750687]},"properties":{"categoria":"educacion","categoria_es":"Educación","subtipo":"college","subtipo_es":"institución técnica o tecnológica","nombre":"Corporación de estudios Tecnológicos del Norte del Valle","osm_id":"relation/10817733","osm_url":"https://www.openstreetmap.org/relation/10817733","geometria_origen":"área","area_m2":7130.4,"operador":null,"municipio":"Cartago","comuna":"Comuna 5","en_cabecera":true,"dist_verde_publico_05ha_m":94,"fusionados":null,"motivo_fusion":null}},{"type":"Feature","geometry":{"type":"Point","coordinates":[-75.910001,4.744805]},"properties":{"categoria":"educacion","categoria_es":"Educación","subtipo":"college","subtipo_es":"institución técnica o tecnológica","nombre":"Manuel Quintero Penilla","osm_id":"node/1447545029","osm_url":"https://www.openstreetmap.org/node/1447545029","geometria_origen":"nodo","area_m2":null,"operador":null,"municipio":"Cartago","comuna":"Comuna 4","en_cabecera":true,"dist_verde_publico_05ha_m":236,"fusionados":null,"motivo_fusion":null}},{"type":"Feature","geometry":{"type":"Point","coordinates":[-75.900323,4.759037]},"properties":{"categoria":"educacion","categoria_es":"Educación","subtipo":"school","subtipo_es":"colegio o escuela","nombre":"C.E Enrique Millan Rubio","osm_id":"way/1170413416","osm_url":"https://www.openstreetmap.org/way/1170413416","geometria_origen":"área","area_m2":825.1,"operador":null,"municipio":"otro municipio","comuna":null,"en_cabecera":false,"dist_verde_publico_05ha_m":1115,"fusionados":null,"motivo_fusion":null}},{"type":"Feature","geometry":{"type":"Point","coordinates":[-75.915401,4.784055]},"properties":{"categoria":"educacion","categoria_es":"Educación","subtipo":"school","subtipo_es":"colegio o escuela","nombre":"CE Puerto Caldas","osm_id":"way/1273428383","osm_url":"https://www.openstreetmap.org/way/1273428383","geometria_origen":"área","area_m2":662.7,"operador":"Alcaldia de Pereira","municipio":"otro municipio","comuna":null,"en_cabecera":false,"dist_verde_publico_05ha_m":2723,"fusionados":null,"motivo_fusion":null}},{"type":"Feature","geometry":{"type":"Point","coordinates":[-75.897701,4.763064]},"properties":{"categoria":"educacion","categoria_es":"Educación","subtipo":"school","subtipo_es":"colegio o escuela","nombre":"Centro de desarrollo Infantil","osm_id":"way/1273951046","osm_url":"https://www.openstreetmap.org/way/1273951046","geometria_origen":"área","area_m2":3436.7,"operador":null,"municipio":"otro municipio","comuna":null,"en_cabecera":false,"dist_verde_publico_05ha_m":1639,"fusionados":null,"motivo_fusion":null}},{"type":"Feature","geometry":{"type":"Point","coordinates":[-75.918579,4.753297]},"properties":{"categoria":"educacion","categoria_es":"Educación","subtipo":"school","subtipo_es":"colegio o escuela","nombre":"Colegio María Auxiliadora","osm_id":"relation/10817767","osm_url":"https://www.openstreetmap.org/relation/10817767","geometria_origen":"área","area_m2":44069.7,"operador":null,"municipio":"Cartago","comuna":"Comuna 6","en_cabecera":true,"dist_verde_publico_05ha_m":204,"fusionados":null,"motivo_fusion":null}},{"type":"Feature","geometry":{"type":"Point","coordinates":[-75.9175,4.742244]},"properties":{"categoria":"educacion","categoria_es":"Educación","subtipo":"school","subtipo_es":"colegio o escuela","nombre":"Colegio Nacional Académico","osm_id":"way/1345139729","osm_url":"https://www.openstreetmap.org/way/1345139729","geometria_origen":"área","area_m2":40327.0,"operador":null,"municipio":"Cartago","comuna":"Comuna 4","en_cabecera":true,"dist_verde_publico_05ha_m":164,"fusionados":null,"motivo_fusion":null}},{"type":"Feature","geometry":{"type":"Point","coordinates":[-75.924599,4.751233]},"properties":{"categoria":"educacion","categoria_es":"Educación","subtipo":"school","subtipo_es":"colegio o escuela","nombre":"Colegio Tecnico Comercial Dioscesano Santa Maria","osm_id":"way/1303332274","osm_url":"https://www.openstreetmap.org/way/1303332274","geometria_origen":"área","area_m2":17675.9,"operador":null,"municipio":"Cartago","comuna":"Comuna 6","en_cabecera":true,"dist_verde_publico_05ha_m":122,"fusionados":null,"motivo_fusion":null}},{"type":"Feature","geometry":{"type":"Point","coordinates":[-75.916129,4.750981]},"properties":{"categoria":"educacion","categoria_es":"Educación","subtipo":"school","subtipo_es":"colegio o escuela","nombre":"Escuela Caldas - Biblioteca Publica","osm_id":"relation/10824556","osm_url":"https://www.openstreetmap.org/relation/10824556","geometria_origen":"área","area_m2":2573.2,"operador":null,"municipio":"Cartago","comuna":"Comuna 5","en_cabecera":true,"dist_verde_publico_05ha_m":302,"fusionados":null,"motivo_fusion":null}},{"type":"Feature","geometry":{"type":"Point","coordinates":[-75.91221,4.747456]},"properties":{"categoria":"educacion","categoria_es":"Educación","subtipo":"school","subtipo_es":"colegio o escuela","nombre":"I.E Alfonso Lopez Pumarejo","osm_id":"way/1353030543","osm_url":"https://www.openstreetmap.org/way/1353030543","geometria_origen":"área","area_m2":3138.0,"operador":null,"municipio":"Cartago","comuna":"Comuna 5","en_cabecera":true,"dist_verde_publico_05ha_m":213,"fusionados":null,"motivo_fusion":null}},{"type":"Feature","geometry":{"type":"Point","coordinates":[-75.93695,4.751083]},"properties":{"categoria":"educacion","categoria_es":"Educación","subtipo":"school","subtipo_es":"colegio o escuela","nombre":"I.E.  Diocesana Paulo VI","osm_id":"way/1303298073","osm_url":"https://www.openstreetmap.org/way/1303298073","geometria_origen":"área","area_m2":15452.6,"operador":null,"municipio":"Cartago","comuna":"Comuna 7","en_cabecera":true,"dist_verde_publico_05ha_m":1169,"fusionados":null,"motivo_fusion":null}},{"type":"Feature","geometry":{"type":"Point","coordinates":[-75.918599,4.743135]},"properties":{"categoria":"educacion","categoria_es":"Educación","subtipo":"school","subtipo_es":"colegio o escuela","nombre":"I.E. Gabo","osm_id":"node/12855882907","osm_url":"https://www.openstreetmap.org/node/12855882907","geometria_origen":"nodo","area_m2":null,"operador":null,"municipio":"Cartago","comuna":"Comuna 4","en_cabecera":true,"dist_verde_publico_05ha_m":320,"fusionados":null,"motivo_fusion":null}},{"type":"Feature","geometry":{"type":"Point","coordinates":[-75.942412,4.757126]},"properties":{"categoria":"educacion","categoria_es":"Educación","subtipo":"school","subtipo_es":"colegio o escuela","nombre":"I.E Indalecio Penilla","osm_id":"way/1303302303","osm_url":"https://www.openstreetmap.org/way/1303302303","geometria_origen":"área","area_m2":22106.0,"operador":null,"municipio":"Cartago","comuna":"Comuna 7","en_cabecera":true,"dist_verde_publico_05ha_m":926,"fusionados":["node/6517447986"],"motivo_fusion":"node/6517447986 dentro del área"}},{"type":"Feature","geometry":{"type":"Point","coordinates":[-75.905519,4.744138]},"properties":{"categoria":"educacion","categoria_es":"Educación","subtipo":"school","subtipo_es":"colegio o escuela","nombre":"I.E Ramón Martínez Benítez, sede C.D.V","osm_id":"way/1314677269","osm_url":"https://www.openstreetmap.org/way/1314677269","geometria_origen":"área","area_m2":11788.1,"operador":null,"municipio":"Cartago","comuna":"Comuna 1","en_cabecera":true,"dist_verde_publico_05ha_m":270,"fusionados":null,"motivo_fusion":null}},{"type":"Feature","geometry":{"type":"Point","coordinates":[-75.923415,4.748149]},"properties":{"categoria":"educacion","categoria_es":"Educación","subtipo":"school","subtipo_es":"colegio o escuela","nombre":"I.E Sor María Juliana Sede Principal","osm_id":"way/1345120059","osm_url":"https://www.openstreetmap.org/way/1345120059","geometria_origen":"área","area_m2":5601.9,"operador":null,"municipio":"Cartago","comuna":"Comuna 6","en_cabecera":true,"dist_verde_publico_05ha_m":119,"fusionados":null,"motivo_fusion":null}},{"type":"Feature","geometry":{"type":"Point","coordinates":[-75.907468,4.726822]},"properties":{"categoria":"educacion","categoria_es":"Educación","subtipo":"school","subtipo_es":"colegio o escuela","nombre":"IE Lázaro de Gardea","osm_id":"way/1353030236","osm_url":"https://www.openstreetmap.org/way/1353030236","geometria_origen":"área","area_m2":12105.9,"operador":null,"municipio":"Cartago","comuna":"Comuna 3","en_cabecera":true,"dist_verde_publico_05ha_m":1495,"fusionados":null,"motivo_fusion":null}},{"type":"Feature","geometry":{"type":"Point","coordinates":[-75.92527,4.751839]},"properties":{"categoria":"educacion","categoria_es":"Educación","subtipo":"school","subtipo_es":"colegio o escuela","nombre":"IE Sor María Juliana sede Rigoberto Orozco Cardona","osm_id":"way/1345133690","osm_url":"https://www.openstreetmap.org/way/1345133690","geometria_origen":"área","area_m2":1135.6,"operador":"IE Sor María Julian","municipio":"Cartago","comuna":"Comuna 6","en_cabecera":true,"dist_verde_publico_05ha_m":22,"fusionados":null,"motivo_fusion":null}},{"type":"Feature","geometry":{"type":"Point","coordinates":[-75.905972,4.760392]},"properties":{"categoria":"educacion","categoria_es":"Educación","subtipo":"school","subtipo_es":"colegio o escuela","nombre":"Institución Educativa Carlos Castro Saavedra","osm_id":"relation/17538285","osm_url":"https://www.openstreetmap.org/relation/17538285","geometria_origen":"área","area_m2":11460.5,"operador":null,"municipio":"otro municipio","comuna":null,"en_cabecera":false,"dist_verde_publico_05ha_m":953,"fusionados":["way/1274952376"],"motivo_fusion":"way/1274952376 dentro del área"}},{"type":"Feature","geometry":{"type":"Point","coordinates":[-75.92013,4.752903]},"properties":{"categoria":"educacion","categoria_es":"Educación","subtipo":"school","subtipo_es":"colegio o escuela","nombre":"Liceo Cartago","osm_id":"relation/10817768","osm_url":"https://www.openstreetmap.org/relation/10817768","geometria_origen":"área","area_m2":9992.0,"operador":null,"municipio":"Cartago","comuna":"Comuna 6","en_cabecera":true,"dist_verde_publico_05ha_m":96,"fusionados":null,"motivo_fusion":null}},{"type":"Feature","geometry":{"type":"Point","coordinates":[-75.922008,4.747309]},"properties":{"categoria":"educacion","categoria_es":"Educación","subtipo":"school","subtipo_es":"colegio o escuela","nombre":"Sor María Anastasia","osm_id":"way/1345136183","osm_url":"https://www.openstreetmap.org/way/1345136183","geometria_origen":"área","area_m2":365.2,"operador":"IE Sor María Juliana","municipio":"Cartago","comuna":"Comuna 6","en_cabecera":true,"dist_verde_publico_05ha_m":232,"fusionados":null,"motivo_fusion":null}},{"type":"Feature","geometry":{"type":"Point","coordinates":[-75.923059,4.74879]},"properties":{"categoria":"educacion","categoria_es":"Educación","subtipo":"school","subtipo_es":"colegio o escuela","nombre":"Sor María Juliana Sede Lastenia Durán Vernaza","osm_id":"way/1345127785","osm_url":"https://www.openstreetmap.org/way/1345127785","geometria_origen":"área","area_m2":3278.4,"operador":"I.E Sor María Juliana","municipio":"Cartago","comuna":"Comuna 6","en_cabecera":true,"dist_verde_publico_05ha_m":197,"fusionados":null,"motivo_fusion":null}},{"type":"Feature","geometry":{"type":"Point","coordinates":[-75.951687,4.760175]},"properties":{"categoria":"educacion","categoria_es":"Educación","subtipo":"school","subtipo_es":"colegio o escuela","nombre":"The flying cockpits","osm_id":"node/8474141918","osm_url":"https://www.openstreetmap.org/node/8474141918","geometria_origen":"nodo","area_m2":null,"operador":null,"municipio":"Cartago","comuna":"Comuna 7","en_cabecera":true,"dist_verde_publico_05ha_m":301,"fusionados":null,"motivo_fusion":null}},{"type":"Feature","geometry":{"type":"Point","coordinates":[-75.897246,4.753507]},"properties":{"categoria":"educacion","categoria_es":"Educación","subtipo":"school","subtipo_es":"colegio o escuela","nombre":null,"osm_id":"way/1304701491","osm_url":"https://www.openstreetmap.org/way/1304701491","geometria_origen":"área","area_m2":2562.8,"operador":null,"municipio":"Cartago","comuna":"Comuna 1","en_cabecera":true,"dist_verde_publico_05ha_m":1143,"fusionados":null,"motivo_fusion":null}},{"type":"Feature","geometry":{"type":"Point","coordinates":[-75.930023,4.75054]},"properties":{"categoria":"educacion","categoria_es":"Educación","subtipo":"university","subtipo_es":"universidad","nombre":"Uniminuto","osm_id":"way/1425868655","osm_url":"https://www.openstreetmap.org/way/1425868655","geometria_origen":"área","area_m2":7809.4,"operador":null,"municipio":"Cartago","comuna":"Comuna 7","en_cabecera":true,"dist_verde_publico_05ha_m":451,"fusionados":null,"motivo_fusion":null}},{"type":"Feature","geometry":{"type":"Point","coordinates":[-75.909534,4.733943]},"properties":{"categoria":"educacion","categoria_es":"Educación","subtipo":"university","subtipo_es":"universidad","nombre":"Universidad del Valle Sede Cartago","osm_id":"way/1304708111","osm_url":"https://www.openstreetmap.org/way/1304708111","geometria_origen":"área","area_m2":36707.2,"operador":"Univalle","municipio":"Cartago","comuna":"Comuna 2","en_cabecera":true,"dist_verde_publico_05ha_m":693,"fusionados":null,"motivo_fusion":null}},{"type":"Feature","geometry":{"type":"Point","coordinates":[-75.920556,4.748979]},"properties":{"categoria":"educacion","categoria_es":"Educación","subtipo":"university","subtipo_es":"universidad","nombre":"Universidad Remington","osm_id":"node/9962839974","osm_url":"https://www.openstreetmap.org/node/9962839974","geometria_origen":"nodo","area_m2":null,"operador":null,"municipio":"Cartago","comuna":"Comuna 6","en_cabecera":true,"dist_verde_publico_05ha_m":281,"fusionados":null,"motivo_fusion":null}},{"type":"Feature","geometry":{"type":"Point","coordinates":[-75.900794,4.760668]},"properties":{"categoria":"emergencia_gobierno","categoria_es":"Emergencia y gobierno","subtipo":"fire_station","subtipo_es":"estación de bomberos","nombre":"Bomberos Puerto Caldas","osm_id":"way/1273139579","osm_url":"https://www.openstreetmap.org/way/1273139579","geometria_origen":"área","area_m2":1134.1,"operador":"Alcaldia de Pereira","municipio":"otro municipio","comuna":null,"en_cabecera":false,"dist_verde_publico_05ha_m":1217,"fusionados":null,"motivo_fusion":null}},{"type":"Feature","geometry":{"type":"Point","coordinates":[-75.910296,4.75116]},"properties":{"categoria":"emergencia_gobierno","categoria_es":"Emergencia y gobierno","subtipo":"fire_station","subtipo_es":"estación de bomberos","nombre":"Bomberos Voluntarios Cartago","osm_id":"way/108218661","osm_url":"https://www.openstreetmap.org/way/108218661","geometria_origen":"área","area_m2":829.9,"operador":null,"municipio":"Cartago","comuna":"Comuna 5","en_cabecera":true,"dist_verde_publico_05ha_m":27,"fusionados":null,"motivo_fusion":null}},{"type":"Feature","geometry":{"type":"Point","coordinates":[-75.898655,4.757617]},"properties":{"categoria":"emergencia_gobierno","categoria_es":"Emergencia y gobierno","subtipo":"police","subtipo_es":"policía","nombre":"CAI Puente Bolívar","osm_id":"node/5507001594","osm_url":"https://www.openstreetmap.org/node/5507001594","geometria_origen":"nodo","area_m2":null,"operador":null,"municipio":"Cartago","comuna":"Comuna 1","en_cabecera":true,"dist_verde_publico_05ha_m":1160,"fusionados":null,"motivo_fusion":null}},{"type":"Feature","geometry":{"type":"Point","coordinates":[-75.906424,4.741156]},"properties":{"categoria":"emergencia_gobierno","categoria_es":"Emergencia y gobierno","subtipo":"police","subtipo_es":"policía","nombre":"Estacion de policia de Cartago El Berlin","osm_id":"way/1536649934","osm_url":"https://www.openstreetmap.org/way/1536649934","geometria_origen":"área","area_m2":109.7,"operador":"Policía Nacional de Colombia","municipio":"Cartago","comuna":"Comuna 2","en_cabecera":true,"dist_verde_publico_05ha_m":501,"fusionados":null,"motivo_fusion":null}},{"type":"Feature","geometry":{"type":"Point","coordinates":[-75.89932,4.759342]},"properties":{"categoria":"emergencia_gobierno","categoria_es":"Emergencia y gobierno","subtipo":"police","subtipo_es":"policía","nombre":"Estación de Policia Puerto Caldas","osm_id":"way/1319630361","osm_url":"https://www.openstreetmap.org/way/1319630361","geometria_origen":"área","area_m2":185.2,"operador":null,"municipio":"otro municipio","comuna":null,"en_cabecera":false,"dist_verde_publico_05ha_m":1219,"fusionados":["node/4417728218"],"motivo_fusion":"node/4417728218 dentro del área"}},{"type":"Feature","geometry":{"type":"Point","coordinates":[-75.909591,4.747899]},"properties":{"categoria":"emergencia_gobierno","categoria_es":"Emergencia y gobierno","subtipo":"townhall","subtipo_es":"alcaldía","nombre":"Centro Administrativo Municipal Cartago","osm_id":"relation/10670599","osm_url":"https://www.openstreetmap.org/relation/10670599","geometria_origen":"área","area_m2":925.8,"operador":null,"municipio":"Cartago","comuna":"Comuna 4","en_cabecera":true,"dist_verde_publico_05ha_m":272,"fusionados":["node/7184699023"],"motivo_fusion":"node/7184699023 dentro del área"}},{"type":"Feature","geometry":{"type":"Point","coordinates":[-75.925178,4.759799]},"properties":{"categoria":"salud","categoria_es":"Salud","subtipo":"clinic","subtipo_es":"clínica o IPS","nombre":"Clínica Comfandi Cartago","osm_id":"relation/10817821","osm_url":"https://www.openstreetmap.org/relation/10817821","geometria_origen":"área","area_m2":6557.5,"operador":null,"municipio":"Cartago","comuna":"Comuna 6","en_cabecera":true,"dist_verde_publico_05ha_m":680,"fusionados":["way/1304699066"],"motivo_fusion":"way/1304699066 dentro del área"}},{"type":"Feature","geometry":{"type":"Point","coordinates":[-75.917749,4.760226]},"properties":{"categoria":"salud","categoria_es":"Salud","subtipo":"clinic","subtipo_es":"clínica o IPS","nombre":"Clinica Nueva de Cartago SAS","osm_id":"relation/12267309","osm_url":"https://www.openstreetmap.org/relation/12267309","geometria_origen":"área","area_m2":4383.4,"operador":null,"municipio":"Cartago","comuna":"Comuna 6","en_cabecera":true,"dist_verde_publico_05ha_m":107,"fusionados":null,"motivo_fusion":null}},{"type":"Feature","geometry":{"type":"Point","coordinates":[-75.926135,4.754207]},"properties":{"categoria":"salud","categoria_es":"Salud","subtipo":"clinic","subtipo_es":"clínica o IPS","nombre":"Oncologos de Occidente","osm_id":"way/1281449541","osm_url":"https://www.openstreetmap.org/way/1281449541","geometria_origen":"área","area_m2":986.9,"operador":null,"municipio":"Cartago","comuna":"Comuna 6","en_cabecera":true,"dist_verde_publico_05ha_m":131,"fusionados":null,"motivo_fusion":null}},{"type":"Feature","geometry":{"type":"Point","coordinates":[-75.948939,4.762002]},"properties":{"categoria":"salud","categoria_es":"Salud","subtipo":"clinic","subtipo_es":"clínica o IPS","nombre":"PSICO SALUD Y TRANSFORMACIÓN","osm_id":"node/6391724985","osm_url":"https://www.openstreetmap.org/node/6391724985","geometria_origen":"nodo","area_m2":null,"operador":null,"municipio":"Cartago","comuna":"Comuna 7","en_cabecera":true,"dist_verde_publico_05ha_m":27,"fusionados":null,"motivo_fusion":null}},{"type":"Feature","geometry":{"type":"Point","coordinates":[-75.914768,4.751535]},"properties":{"categoria":"salud","categoria_es":"Salud","subtipo":"clinic","subtipo_es":"clínica o IPS","nombre":"Respirar Unidad Pediátrica","osm_id":"node/4245243189","osm_url":"https://www.openstreetmap.org/node/4245243189","geometria_origen":"nodo","area_m2":null,"operador":null,"municipio":"Cartago","comuna":"Comuna 5","en_cabecera":true,"dist_verde_publico_05ha_m":215,"fusionados":null,"motivo_fusion":null}},{"type":"Feature","geometry":{"type":"Point","coordinates":[-75.903182,4.751597]},"properties":{"categoria":"salud","categoria_es":"Salud","subtipo":"hospital","subtipo_es":"hospital","nombre":"Hospital Sagrado Corazón de Jesús","osm_id":"way/575720026","osm_url":"https://www.openstreetmap.org/way/575720026","geometria_origen":"área","area_m2":6321.5,"operador":null,"municipio":"Cartago","comuna":"Comuna 1","en_cabecera":true,"dist_verde_publico_05ha_m":470,"fusionados":null,"motivo_fusion":null}},{"type":"Feature","geometry":{"type":"Point","coordinates":[-75.902416,4.751943]},"properties":{"categoria":"salud","categoria_es":"Salud","subtipo":"hospital","subtipo_es":"hospital","nombre":"IPS Municipal de Cartago","osm_id":"way/108231663","osm_url":"https://www.openstreetmap.org/way/108231663","geometria_origen":"área","area_m2":6913.5,"operador":null,"municipio":"Cartago","comuna":"Comuna 1","en_cabecera":true,"dist_verde_publico_05ha_m":555,"fusionados":null,"motivo_fusion":null}},{"type":"Feature","geometry":{"type":"Point","coordinates":[-75.900518,4.758933]},"properties":{"categoria":"salud","categoria_es":"Salud","subtipo":"hospital","subtipo_es":"hospital","nombre":"Puesto de Salud Puerto Caldas","osm_id":"way/1170413417","osm_url":"https://www.openstreetmap.org/way/1170413417","geometria_origen":"área","area_m2":236.7,"operador":"ESE Salud Pereira","municipio":"otro municipio","comuna":null,"en_cabecera":false,"dist_verde_publico_05ha_m":1091,"fusionados":null,"motivo_fusion":null}}]}