{
 "type": "FeatureCollection",
 "name": "equipamientos_exposicion",
 "metadatos": {
  "titulo": "Exposición ambiental de los equipamientos mapeados en OpenStreetMap",
  "descripcion": "Para cada colegio, centro de salud, hogar de cuidado, estación de bomberos o policía y alcaldía mapeado en OSM: temperatura de superficie de su celda, verdor y arbolado en 100 m, susceptibilidad a inundación, distancia a verde público y exposición al tráfico.",
  "crs": "EPSG:4326",
  "campos": {
   "lst_c": "°C, LST 2022–2025 de la celda (≈ 28 m; resolución térmica nativa 100 m)",
   "calor_extremo": "LST ≥ 42,85 °C (p90 de la cabecera)",
   "ndvi_100m": "NDVI Sentinel-2 2024–2025, media de las celdas con centro a ≤ 100 m",
   "arbolado_100m_pct": "% de área arbolada (WorldCover 2021) en las celdas con centro a ≤ 100 m",
   "susceptibilidad_inundacion_clase": "0–3 de la capa susceptibilidad_inundacion (HAND)",
   "amenaza_ideam_creciente_subita_tr50": "clase de la mancha de amenaza por creciente súbita TR 50 años del IDEAM en el punto (registro oficial; solo corrientes de la cuenca directa del río La Vieja)",
   "area_afectada_nina_ideam": "el punto cae en un área afectada por inundación en algún evento La Niña registrado por el IDEAM (escala no declarada; bordes gruesos)",
   "susceptibilidad_inundacion": "etiqueta corta de la clase HAND (etiqueta_corta de datos/capas/susceptibilidad_inundacion.json); las clases baja y HAND > 15 m no descartan amenaza",
   "susceptibilidad_inundacion_detalle": "etiqueta completa de la clase HAND",
   "periodos_nina_ideam": "eventos La Niña (IDEAM) en que el punto quedó dentro del área afectada",
   "lst_margen_umbral_c": "°C, LST de la celda − umbral de calor extremo",
   "en_umbral_calor": "|lst_margen_umbral_c| < 0,5 °C (supuesto): la clasificación en calor extremo es frágil",
   "nombre_mostrar": "nombre OSM o, si falta, el tipo seguido de «sin nombre en OSM»",
   "dist_verde_publico_05ha_m": "m, distancia en línea recta al borde del verde público ≥ 0,5 ha (vector del producto verdes)",
   "trafico_indice": "índice relativo 0–100 de la celda",
   "trafico_alto": "índice ≥ 60"
  },
  "fuente": {
   "nombre": "OpenStreetMap (equipamientos, verde, vías) + capas BioMap: USGS Landsat (LST), Copernicus Sentinel-2 (NDVI), ESA WorldCover 2021 (arbolado, construido), Copernicus DEM GLO-30 (susceptibilidad HAND) e IDEAM (registros de inundación)",
   "licencia": "ODbL 1.0 para la geometría y atributos OSM; USGS dominio público; Copernicus Sentinel acceso libre y abierto; WorldCover CC BY 4.0; Copernicus WorldDEM-30 libre con atribución y exención de responsabilidad. IDEAM: El servicio ArcGIS Amenaza_Ambiental no declara licencia (copyrightText vacío en el servicio y en sus capas). Las áreas afectadas por La Niña 1988, 2000, 2011 y 2012 las publica también el IDEAM en datos.gov.co con licencia CC BY-SA 4.0 (conjuntos khg6-9h39, 5p6w-58v3, 6eu7-pzc5 y nufr-59j5; licencia verificada en el catálogo de datos.gov.co el 2026-10-01) y la advertencia, verificada en 6eu7-pzc5 (La Niña 2011), de que «no han sido validados por el IDEAM». La amenaza por creciente súbita TR 50 y La Niña 2016 y 2020–2022 no aparecieron en la búsqueda del catálogo de datos.gov.co (2026-10-01). No se copian polígonos del IDEAM: solo se publican estadísticas derivadas, con atribución al IDEAM; las que derivan de las capas CC BY-SA (ideam_nina_observada, ideam_evidencia_oficial y sus variantes) se comparten con la misma licencia CC BY-SA 4.0 (criterio prudente del proyecto).",
   "cita": [
    "© colaboradores de OpenStreetMap, ODbL 1.0",
    "Landsat 8-9 OLI/TIRS Collection 2 Level-2 Science Products courtesy of the U.S. Geological Survey. doi:10.5066/P9OGBGM6",
    "Contiene datos modificados de Copernicus Sentinel [2024–2025], procesados por BioMap Cartago",
    "© ESA WorldCover project 2021 / Contains modified Copernicus Sentinel data (2021) processed by ESA WorldCover consortium",
    "produced using Copernicus WorldDEM-30 © DLR e.V. 2010-2014 and © Airbus Defence and Space GmbH 2014-2018 provided under COPERNICUS by the European Union and ESA; all rights reserved. The organisations in charge of the Copernicus programme by law or by delegation do not incur any liability for any use of the Copernicus WorldDEM-30. DOI: 10.5270/ESA-c5d3d65. Ríos, arroyos y canales: © colaboradores de OpenStreetMap, ODbL 1.0. Tolan, J., Yang, H.-I., Nosarzewski, B., Couairon, G., Vo, H. V., Brandt, J., Spore, J., Majumdar, S., Haziza, D., Vamaraju, J., et al. (2024). Very high resolution canopy height maps from RGB imagery using self-supervised vision transformer and convolutional decoder trained on aerial lidar. Remote Sensing of Environment 300, 113888. doi:10.1016/j.rse.2023.113888",
    "IDEAM – Instituto de Hidrología, Meteorología y Estudios Ambientales, servicio Amenaza_Ambiental (consulta 2026-09-30)"
   ]
  },
  "limitaciones": [
   "Inventario incompleto: OSM tiene ≈ 26 % de las sedes educativas del MEN y ≈ 11 % de las sedes de IPS del REPS (producto verdes).",
   "Un punto por equipamiento (centroide): no representa linderos ni la población atendida.",
   "La LST de una celda de 28 m hereda la resolución térmica de 100 m: es el ambiente de superficie del entorno, no el techo del edificio.",
   "Las clases de susceptibilidad baja y HAND > 15 m no descartan amenaza por inundación (ver limitaciones de susceptibilidad_inundacion); las áreas afectadas por La Niña del IDEAM son de escala no declarada (bordes gruesos) y la creciente súbita TR 50 solo cubre las corrientes de la cuenca directa del río La Vieja.",
   "La parte urbana de la mancha La Niña 2011 no es coherente con el relieve (ver indicadores.json → coherencia_topografica_nina): un equipamiento que solo cae en ella ('periodos_nina_ideam' = ['2011']) debe contrastarse con registros municipales o de la UNGRD.",
   "Un equipamiento a menos de 0,5 °C del umbral de calor extremo ('en_umbral_calor') puede cambiar de grupo con otra escena o resolución: la LST tiene incertidumbre de medición y la del PNG publicado se redondea a 0,01 °C.",
   "Incluye equipamientos fuera de Cartago (Puerto Caldas, Pereira) con zona = null.",
   "Dos etiquetas dudosas de OSM se marcan en 'etiquetado_dudoso'; no se reclasifican aquí."
  ],
  "fecha_proceso": "2026-10-01"
 },
 "features": [
  {
   "type": "Feature",
   "geometry": {
    "type": "Point",
    "coordinates": [
     -75.930812,
     4.751714
    ]
   },
   "properties": {
    "osm_id": "way/1425868658",
    "osm_url": "https://www.openstreetmap.org/way/1425868658",
    "nombre": "Hermanitas de los pobre \"Mi casa\"",
    "nombre_mostrar": "Hermanitas de los pobre \"Mi casa\"",
    "categoria": "cuidado",
    "categoria_es": "Cuidado",
    "subtipo": "nursing_home",
    "subtipo_es": "hogar geriátrico",
    "municipio": "Cartago",
    "zona_id": "c7",
    "zona": "Comuna 7",
    "lst_c": 36.46,
    "calor_extremo": false,
    "lst_margen_umbral_c": -6.39,
    "en_umbral_calor": false,
    "ndvi_100m": 0.64,
    "arbolado_100m_pct": 73.3,
    "construido_100m_pct": 25.8,
    "celdas_en_100m": 40,
    "susceptibilidad_inundacion_clase": 1,
    "susceptibilidad_inundacion": "Baja (no descarta amenaza)",
    "susceptibilidad_inundacion_detalle": "Baja: HAND 6–15 m (no descarta amenaza: consultar la zonificación oficial del IDEAM, la CVC y el POT)",
    "susceptibilidad_alta": false,
    "amenaza_ideam_creciente_subita_tr50": "fuera de la mancha",
    "area_afectada_nina_ideam": false,
    "periodos_nina_ideam": [],
    "dist_verde_publico_05ha_m": 486.0,
    "dist_verde_fuente": "vector (producto verdes)",
    "dist_verde_rejilla_m": 495.0,
    "a_mas_de_300m_de_verde": true,
    "trafico_indice": 13.1,
    "trafico_alto": false
   }
  },
  {
   "type": "Feature",
   "geometry": {
    "type": "Point",
    "coordinates": [
     -75.910983,
     4.750687
    ]
   },
   "properties": {
    "osm_id": "relation/10817733",
    "osm_url": "https://www.openstreetmap.org/relation/10817733",
    "nombre": "Corporación de estudios Tecnológicos del Norte del Valle",
    "nombre_mostrar": "Corporación de estudios Tecnológicos del Norte del Valle",
    "categoria": "educacion",
    "categoria_es": "Educación",
    "subtipo": "college",
    "subtipo_es": "institución técnica o tecnológica",
    "municipio": "Cartago",
    "zona_id": "c5",
    "zona": "Comuna 5",
    "lst_c": 39.9,
    "calor_extremo": false,
    "lst_margen_umbral_c": -2.95,
    "en_umbral_calor": false,
    "ndvi_100m": 0.294,
    "arbolado_100m_pct": 10.8,
    "construido_100m_pct": 89.2,
    "celdas_en_100m": 41,
    "susceptibilidad_inundacion_clase": 0,
    "susceptibilidad_inundacion": "HAND > 15 m (no descarta amenaza)",
    "susceptibilidad_inundacion_detalle": "HAND > 15 m sobre el cauce más cercano (no descarta amenaza: consultar la zonificación oficial del IDEAM, la CVC y el POT)",
    "susceptibilidad_alta": false,
    "amenaza_ideam_creciente_subita_tr50": "fuera de la mancha",
    "area_afectada_nina_ideam": false,
    "periodos_nina_ideam": [],
    "dist_verde_publico_05ha_m": 94.0,
    "dist_verde_fuente": "vector (producto verdes)",
    "dist_verde_rejilla_m": 95.0,
    "a_mas_de_300m_de_verde": false,
    "trafico_indice": 77.1,
    "trafico_alto": true
   }
  },
  {
   "type": "Feature",
   "geometry": {
    "type": "Point",
    "coordinates": [
     -75.910001,
     4.744805
    ]
   },
   "properties": {
    "osm_id": "node/1447545029",
    "osm_url": "https://www.openstreetmap.org/node/1447545029",
    "nombre": "Manuel Quintero Penilla",
    "nombre_mostrar": "Manuel Quintero Penilla",
    "categoria": "educacion",
    "categoria_es": "Educación",
    "subtipo": "college",
    "subtipo_es": "institución técnica o tecnológica",
    "municipio": "Cartago",
    "zona_id": "c4",
    "zona": "Comuna 4",
    "lst_c": 42.49,
    "calor_extremo": false,
    "lst_margen_umbral_c": -0.35,
    "en_umbral_calor": true,
    "ndvi_100m": 0.155,
    "arbolado_100m_pct": 0.0,
    "construido_100m_pct": 100.0,
    "celdas_en_100m": 42,
    "susceptibilidad_inundacion_clase": 1,
    "susceptibilidad_inundacion": "Baja (no descarta amenaza)",
    "susceptibilidad_inundacion_detalle": "Baja: HAND 6–15 m (no descarta amenaza: consultar la zonificación oficial del IDEAM, la CVC y el POT)",
    "susceptibilidad_alta": false,
    "amenaza_ideam_creciente_subita_tr50": "fuera de la mancha",
    "area_afectada_nina_ideam": false,
    "periodos_nina_ideam": [],
    "dist_verde_publico_05ha_m": 236.0,
    "dist_verde_fuente": "vector (producto verdes)",
    "dist_verde_rejilla_m": 247.0,
    "a_mas_de_300m_de_verde": false,
    "trafico_indice": 18.5,
    "trafico_alto": false,
    "etiquetado_dudoso": "Etiquetada amenity=college en OSM; el Boletín estadístico municipal (según la revisión del producto verdes) la lista como Institución Educativa oficial."
   }
  },
  {
   "type": "Feature",
   "geometry": {
    "type": "Point",
    "coordinates": [
     -75.900323,
     4.759037
    ]
   },
   "properties": {
    "osm_id": "way/1170413416",
    "osm_url": "https://www.openstreetmap.org/way/1170413416",
    "nombre": "C.E Enrique Millan Rubio",
    "nombre_mostrar": "C.E Enrique Millan Rubio",
    "categoria": "educacion",
    "categoria_es": "Educación",
    "subtipo": "school",
    "subtipo_es": "colegio o escuela",
    "municipio": "otro municipio",
    "zona_id": null,
    "zona": null,
    "lst_c": 41.62,
    "calor_extremo": false,
    "lst_margen_umbral_c": -1.23,
    "en_umbral_calor": false,
    "ndvi_100m": 0.23,
    "arbolado_100m_pct": 2.7,
    "construido_100m_pct": 95.7,
    "celdas_en_100m": 41,
    "susceptibilidad_inundacion_clase": 0,
    "susceptibilidad_inundacion": "HAND > 15 m (no descarta amenaza)",
    "susceptibilidad_inundacion_detalle": "HAND > 15 m sobre el cauce más cercano (no descarta amenaza: consultar la zonificación oficial del IDEAM, la CVC y el POT)",
    "susceptibilidad_alta": false,
    "amenaza_ideam_creciente_subita_tr50": "fuera de la mancha",
    "area_afectada_nina_ideam": false,
    "periodos_nina_ideam": [],
    "dist_verde_publico_05ha_m": 1115.0,
    "dist_verde_fuente": "vector (producto verdes)",
    "dist_verde_rejilla_m": 1118.0,
    "a_mas_de_300m_de_verde": true,
    "trafico_indice": 32.7,
    "trafico_alto": false
   }
  },
  {
   "type": "Feature",
   "geometry": {
    "type": "Point",
    "coordinates": [
     -75.915401,
     4.784055
    ]
   },
   "properties": {
    "osm_id": "way/1273428383",
    "osm_url": "https://www.openstreetmap.org/way/1273428383",
    "nombre": "CE Puerto Caldas",
    "nombre_mostrar": "CE Puerto Caldas",
    "categoria": "educacion",
    "categoria_es": "Educación",
    "subtipo": "school",
    "subtipo_es": "colegio o escuela",
    "municipio": "otro municipio",
    "zona_id": null,
    "zona": null,
    "lst_c": 33.79,
    "calor_extremo": false,
    "lst_margen_umbral_c": -9.05,
    "en_umbral_calor": false,
    "ndvi_100m": 0.711,
    "arbolado_100m_pct": 29.3,
    "construido_100m_pct": 0.0,
    "celdas_en_100m": 41,
    "susceptibilidad_inundacion_clase": 2,
    "susceptibilidad_inundacion": "Media",
    "susceptibilidad_inundacion_detalle": "Media: ≤ 6 m sobre el cauce más cercano (incluidos arroyos y canales de drenaje), ≤ 3 m sobre La Vieja/Cauca a más de 1,5 km, o franja de ≤ 100 m junto a La Vieja/Cauca (regla de piso)",
    "susceptibilidad_alta": false,
    "amenaza_ideam_creciente_subita_tr50": "fuera de la mancha",
    "area_afectada_nina_ideam": false,
    "periodos_nina_ideam": [],
    "dist_verde_publico_05ha_m": 2723.0,
    "dist_verde_fuente": "vector (producto verdes)",
    "dist_verde_rejilla_m": 2731.0,
    "a_mas_de_300m_de_verde": true,
    "trafico_indice": 17.6,
    "trafico_alto": false
   }
  },
  {
   "type": "Feature",
   "geometry": {
    "type": "Point",
    "coordinates": [
     -75.897701,
     4.763064
    ]
   },
   "properties": {
    "osm_id": "way/1273951046",
    "osm_url": "https://www.openstreetmap.org/way/1273951046",
    "nombre": "Centro de desarrollo Infantil",
    "nombre_mostrar": "Centro de desarrollo Infantil",
    "categoria": "educacion",
    "categoria_es": "Educación",
    "subtipo": "school",
    "subtipo_es": "colegio o escuela",
    "municipio": "otro municipio",
    "zona_id": null,
    "zona": null,
    "lst_c": 37.92,
    "calor_extremo": false,
    "lst_margen_umbral_c": -4.93,
    "en_umbral_calor": false,
    "ndvi_100m": 0.439,
    "arbolado_100m_pct": 27.1,
    "construido_100m_pct": 51.8,
    "celdas_en_100m": 41,
    "susceptibilidad_inundacion_clase": 0,
    "susceptibilidad_inundacion": "HAND > 15 m (no descarta amenaza)",
    "susceptibilidad_inundacion_detalle": "HAND > 15 m sobre el cauce más cercano (no descarta amenaza: consultar la zonificación oficial del IDEAM, la CVC y el POT)",
    "susceptibilidad_alta": false,
    "amenaza_ideam_creciente_subita_tr50": "fuera de la mancha",
    "area_afectada_nina_ideam": false,
    "periodos_nina_ideam": [],
    "dist_verde_publico_05ha_m": 1639.0,
    "dist_verde_fuente": "vector (producto verdes)",
    "dist_verde_rejilla_m": 1650.0,
    "a_mas_de_300m_de_verde": true,
    "trafico_indice": 65.1,
    "trafico_alto": true
   }
  },
  {
   "type": "Feature",
   "geometry": {
    "type": "Point",
    "coordinates": [
     -75.918579,
     4.753297
    ]
   },
   "properties": {
    "osm_id": "relation/10817767",
    "osm_url": "https://www.openstreetmap.org/relation/10817767",
    "nombre": "Colegio María Auxiliadora",
    "nombre_mostrar": "Colegio María Auxiliadora",
    "categoria": "educacion",
    "categoria_es": "Educación",
    "subtipo": "school",
    "subtipo_es": "colegio o escuela",
    "municipio": "Cartago",
    "zona_id": "c6",
    "zona": "Comuna 6",
    "lst_c": 38.85,
    "calor_extremo": false,
    "lst_margen_umbral_c": -4.0,
    "en_umbral_calor": false,
    "ndvi_100m": 0.551,
    "arbolado_100m_pct": 50.4,
    "construido_100m_pct": 40.4,
    "celdas_en_100m": 41,
    "susceptibilidad_inundacion_clase": 1,
    "susceptibilidad_inundacion": "Baja (no descarta amenaza)",
    "susceptibilidad_inundacion_detalle": "Baja: HAND 6–15 m (no descarta amenaza: consultar la zonificación oficial del IDEAM, la CVC y el POT)",
    "susceptibilidad_alta": false,
    "amenaza_ideam_creciente_subita_tr50": "fuera de la mancha",
    "area_afectada_nina_ideam": false,
    "periodos_nina_ideam": [],
    "dist_verde_publico_05ha_m": 204.0,
    "dist_verde_fuente": "vector (producto verdes)",
    "dist_verde_rejilla_m": 204.0,
    "a_mas_de_300m_de_verde": false,
    "trafico_indice": 5.9,
    "trafico_alto": false
   }
  },
  {
   "type": "Feature",
   "geometry": {
    "type": "Point",
    "coordinates": [
     -75.9175,
     4.742244
    ]
   },
   "properties": {
    "osm_id": "way/1345139729",
    "osm_url": "https://www.openstreetmap.org/way/1345139729",
    "nombre": "Colegio Nacional Académico",
    "nombre_mostrar": "Colegio Nacional Académico",
    "categoria": "educacion",
    "categoria_es": "Educación",
    "subtipo": "school",
    "subtipo_es": "colegio o escuela",
    "municipio": "Cartago",
    "zona_id": "c4",
    "zona": "Comuna 4",
    "lst_c": 36.96,
    "calor_extremo": false,
    "lst_margen_umbral_c": -5.88,
    "en_umbral_calor": false,
    "ndvi_100m": 0.594,
    "arbolado_100m_pct": 59.3,
    "construido_100m_pct": 13.9,
    "celdas_en_100m": 44,
    "susceptibilidad_inundacion_clase": 1,
    "susceptibilidad_inundacion": "Baja (no descarta amenaza)",
    "susceptibilidad_inundacion_detalle": "Baja: HAND 6–15 m (no descarta amenaza: consultar la zonificación oficial del IDEAM, la CVC y el POT)",
    "susceptibilidad_alta": false,
    "amenaza_ideam_creciente_subita_tr50": "fuera de la mancha",
    "area_afectada_nina_ideam": false,
    "periodos_nina_ideam": [],
    "dist_verde_publico_05ha_m": 164.0,
    "dist_verde_fuente": "vector (producto verdes)",
    "dist_verde_rejilla_m": 171.0,
    "a_mas_de_300m_de_verde": false,
    "trafico_indice": 5.1,
    "trafico_alto": false
   }
  },
  {
   "type": "Feature",
   "geometry": {
    "type": "Point",
    "coordinates": [
     -75.924599,
     4.751233
    ]
   },
   "properties": {
    "osm_id": "way/1303332274",
    "osm_url": "https://www.openstreetmap.org/way/1303332274",
    "nombre": "Colegio Tecnico Comercial Dioscesano Santa Maria",
    "nombre_mostrar": "Colegio Tecnico Comercial Dioscesano Santa Maria",
    "categoria": "educacion",
    "categoria_es": "Educación",
    "subtipo": "school",
    "subtipo_es": "colegio o escuela",
    "municipio": "Cartago",
    "zona_id": "c6",
    "zona": "Comuna 6",
    "lst_c": 37.94,
    "calor_extremo": false,
    "lst_margen_umbral_c": -4.91,
    "en_umbral_calor": false,
    "ndvi_100m": 0.527,
    "arbolado_100m_pct": 65.1,
    "construido_100m_pct": 34.9,
    "celdas_en_100m": 42,
    "susceptibilidad_inundacion_clase": 0,
    "susceptibilidad_inundacion": "HAND > 15 m (no descarta amenaza)",
    "susceptibilidad_inundacion_detalle": "HAND > 15 m sobre el cauce más cercano (no descarta amenaza: consultar la zonificación oficial del IDEAM, la CVC y el POT)",
    "susceptibilidad_alta": false,
    "amenaza_ideam_creciente_subita_tr50": "fuera de la mancha",
    "area_afectada_nina_ideam": false,
    "periodos_nina_ideam": [],
    "dist_verde_publico_05ha_m": 122.0,
    "dist_verde_fuente": "vector (producto verdes)",
    "dist_verde_rejilla_m": 128.0,
    "a_mas_de_300m_de_verde": false,
    "trafico_indice": 45.1,
    "trafico_alto": false
   }
  },
  {
   "type": "Feature",
   "geometry": {
    "type": "Point",
    "coordinates": [
     -75.916129,
     4.750981
    ]
   },
   "properties": {
    "osm_id": "relation/10824556",
    "osm_url": "https://www.openstreetmap.org/relation/10824556",
    "nombre": "Escuela Caldas - Biblioteca Publica",
    "nombre_mostrar": "Escuela Caldas - Biblioteca Publica",
    "categoria": "educacion",
    "categoria_es": "Educación",
    "subtipo": "school",
    "subtipo_es": "colegio o escuela",
    "municipio": "Cartago",
    "zona_id": "c5",
    "zona": "Comuna 5",
    "lst_c": 42.73,
    "calor_extremo": false,
    "lst_margen_umbral_c": -0.12,
    "en_umbral_calor": true,
    "ndvi_100m": 0.14,
    "arbolado_100m_pct": 0.0,
    "construido_100m_pct": 100.0,
    "celdas_en_100m": 42,
    "susceptibilidad_inundacion_clase": 1,
    "susceptibilidad_inundacion": "Baja (no descarta amenaza)",
    "susceptibilidad_inundacion_detalle": "Baja: HAND 6–15 m (no descarta amenaza: consultar la zonificación oficial del IDEAM, la CVC y el POT)",
    "susceptibilidad_alta": false,
    "amenaza_ideam_creciente_subita_tr50": "fuera de la mancha",
    "area_afectada_nina_ideam": false,
    "periodos_nina_ideam": [],
    "dist_verde_publico_05ha_m": 302.0,
    "dist_verde_fuente": "vector (producto verdes)",
    "dist_verde_rejilla_m": 297.0,
    "a_mas_de_300m_de_verde": true,
    "trafico_indice": 34.0,
    "trafico_alto": false
   }
  },
  {
   "type": "Feature",
   "geometry": {
    "type": "Point",
    "coordinates": [
     -75.91221,
     4.747456
    ]
   },
   "properties": {
    "osm_id": "way/1353030543",
    "osm_url": "https://www.openstreetmap.org/way/1353030543",
    "nombre": "I.E Alfonso Lopez Pumarejo",
    "nombre_mostrar": "I.E Alfonso Lopez Pumarejo",
    "categoria": "educacion",
    "categoria_es": "Educación",
    "subtipo": "school",
    "subtipo_es": "colegio o escuela",
    "municipio": "Cartago",
    "zona_id": "c5",
    "zona": "Comuna 5",
    "lst_c": 42.84,
    "calor_extremo": false,
    "lst_margen_umbral_c": -0.01,
    "en_umbral_calor": true,
    "ndvi_100m": 0.095,
    "arbolado_100m_pct": 0.0,
    "construido_100m_pct": 100.0,
    "celdas_en_100m": 41,
    "susceptibilidad_inundacion_clase": 1,
    "susceptibilidad_inundacion": "Baja (no descarta amenaza)",
    "susceptibilidad_inundacion_detalle": "Baja: HAND 6–15 m (no descarta amenaza: consultar la zonificación oficial del IDEAM, la CVC y el POT)",
    "susceptibilidad_alta": false,
    "amenaza_ideam_creciente_subita_tr50": "fuera de la mancha",
    "area_afectada_nina_ideam": false,
    "periodos_nina_ideam": [],
    "dist_verde_publico_05ha_m": 213.0,
    "dist_verde_fuente": "vector (producto verdes)",
    "dist_verde_rejilla_m": 225.0,
    "a_mas_de_300m_de_verde": false,
    "trafico_indice": 51.9,
    "trafico_alto": false
   }
  },
  {
   "type": "Feature",
   "geometry": {
    "type": "Point",
    "coordinates": [
     -75.93695,
     4.751083
    ]
   },
   "properties": {
    "osm_id": "way/1303298073",
    "osm_url": "https://www.openstreetmap.org/way/1303298073",
    "nombre": "I.E.  Diocesana Paulo VI",
    "nombre_mostrar": "I.E.  Diocesana Paulo VI",
    "categoria": "educacion",
    "categoria_es": "Educación",
    "subtipo": "school",
    "subtipo_es": "colegio o escuela",
    "municipio": "Cartago",
    "zona_id": "c7",
    "zona": "Comuna 7",
    "lst_c": 34.7,
    "calor_extremo": false,
    "lst_margen_umbral_c": -8.15,
    "en_umbral_calor": false,
    "ndvi_100m": 0.719,
    "arbolado_100m_pct": 77.8,
    "construido_100m_pct": 0.3,
    "celdas_en_100m": 41,
    "susceptibilidad_inundacion_clase": 0,
    "susceptibilidad_inundacion": "HAND > 15 m (no descarta amenaza)",
    "susceptibilidad_inundacion_detalle": "HAND > 15 m sobre el cauce más cercano (no descarta amenaza: consultar la zonificación oficial del IDEAM, la CVC y el POT)",
    "susceptibilidad_alta": false,
    "amenaza_ideam_creciente_subita_tr50": "fuera de la mancha",
    "area_afectada_nina_ideam": false,
    "periodos_nina_ideam": [],
    "dist_verde_publico_05ha_m": 1169.0,
    "dist_verde_fuente": "vector (producto verdes)",
    "dist_verde_rejilla_m": 1161.0,
    "a_mas_de_300m_de_verde": true,
    "trafico_indice": 1.2,
    "trafico_alto": false
   }
  },
  {
   "type": "Feature",
   "geometry": {
    "type": "Point",
    "coordinates": [
     -75.918599,
     4.743135
    ]
   },
   "properties": {
    "osm_id": "node/12855882907",
    "osm_url": "https://www.openstreetmap.org/node/12855882907",
    "nombre": "I.E. Gabo",
    "nombre_mostrar": "I.E. Gabo",
    "categoria": "educacion",
    "categoria_es": "Educación",
    "subtipo": "school",
    "subtipo_es": "colegio o escuela",
    "municipio": "Cartago",
    "zona_id": "c4",
    "zona": "Comuna 4",
    "lst_c": 40.55,
    "calor_extremo": false,
    "lst_margen_umbral_c": -2.3,
    "en_umbral_calor": false,
    "ndvi_100m": 0.296,
    "arbolado_100m_pct": 20.9,
    "construido_100m_pct": 78.9,
    "celdas_en_100m": 41,
    "susceptibilidad_inundacion_clase": 1,
    "susceptibilidad_inundacion": "Baja (no descarta amenaza)",
    "susceptibilidad_inundacion_detalle": "Baja: HAND 6–15 m (no descarta amenaza: consultar la zonificación oficial del IDEAM, la CVC y el POT)",
    "susceptibilidad_alta": false,
    "amenaza_ideam_creciente_subita_tr50": "fuera de la mancha",
    "area_afectada_nina_ideam": false,
    "periodos_nina_ideam": [],
    "dist_verde_publico_05ha_m": 320.0,
    "dist_verde_fuente": "vector (producto verdes)",
    "dist_verde_rejilla_m": 322.0,
    "a_mas_de_300m_de_verde": true,
    "trafico_indice": 45.4,
    "trafico_alto": false
   }
  },
  {
   "type": "Feature",
   "geometry": {
    "type": "Point",
    "coordinates": [
     -75.942412,
     4.757126
    ]
   },
   "properties": {
    "osm_id": "way/1303302303",
    "osm_url": "https://www.openstreetmap.org/way/1303302303",
    "nombre": "I.E Indalecio Penilla",
    "nombre_mostrar": "I.E Indalecio Penilla",
    "categoria": "educacion",
    "categoria_es": "Educación",
    "subtipo": "school",
    "subtipo_es": "colegio o escuela",
    "municipio": "Cartago",
    "zona_id": "c7",
    "zona": "Comuna 7",
    "lst_c": 35.69,
    "calor_extremo": false,
    "lst_margen_umbral_c": -7.16,
    "en_umbral_calor": false,
    "ndvi_100m": 0.614,
    "arbolado_100m_pct": 59.6,
    "construido_100m_pct": 23.0,
    "celdas_en_100m": 41,
    "susceptibilidad_inundacion_clase": 1,
    "susceptibilidad_inundacion": "Baja (no descarta amenaza)",
    "susceptibilidad_inundacion_detalle": "Baja: HAND 6–15 m (no descarta amenaza: consultar la zonificación oficial del IDEAM, la CVC y el POT)",
    "susceptibilidad_alta": false,
    "amenaza_ideam_creciente_subita_tr50": "fuera de la mancha",
    "area_afectada_nina_ideam": true,
    "periodos_nina_ideam": [
     "2011"
    ],
    "dist_verde_publico_05ha_m": 926.0,
    "dist_verde_fuente": "vector (producto verdes)",
    "dist_verde_rejilla_m": 930.0,
    "a_mas_de_300m_de_verde": true,
    "trafico_indice": 17.0,
    "trafico_alto": false
   }
  },
  {
   "type": "Feature",
   "geometry": {
    "type": "Point",
    "coordinates": [
     -75.905519,
     4.744138
    ]
   },
   "properties": {
    "osm_id": "way/1314677269",
    "osm_url": "https://www.openstreetmap.org/way/1314677269",
    "nombre": "I.E Ramón Martínez Benítez, sede C.D.V",
    "nombre_mostrar": "I.E Ramón Martínez Benítez, sede C.D.V",
    "categoria": "educacion",
    "categoria_es": "Educación",
    "subtipo": "school",
    "subtipo_es": "colegio o escuela",
    "municipio": "Cartago",
    "zona_id": "c1",
    "zona": "Comuna 1",
    "lst_c": 40.48,
    "calor_extremo": false,
    "lst_margen_umbral_c": -2.37,
    "en_umbral_calor": false,
    "ndvi_100m": 0.211,
    "arbolado_100m_pct": 1.6,
    "construido_100m_pct": 97.1,
    "celdas_en_100m": 42,
    "susceptibilidad_inundacion_clase": 1,
    "susceptibilidad_inundacion": "Baja (no descarta amenaza)",
    "susceptibilidad_inundacion_detalle": "Baja: HAND 6–15 m (no descarta amenaza: consultar la zonificación oficial del IDEAM, la CVC y el POT)",
    "susceptibilidad_alta": false,
    "amenaza_ideam_creciente_subita_tr50": "fuera de la mancha",
    "area_afectada_nina_ideam": false,
    "periodos_nina_ideam": [],
    "dist_verde_publico_05ha_m": 270.0,
    "dist_verde_fuente": "vector (producto verdes)",
    "dist_verde_rejilla_m": 261.0,
    "a_mas_de_300m_de_verde": false,
    "trafico_indice": 19.0,
    "trafico_alto": false
   }
  },
  {
   "type": "Feature",
   "geometry": {
    "type": "Point",
    "coordinates": [
     -75.923415,
     4.748149
    ]
   },
   "properties": {
    "osm_id": "way/1345120059",
    "osm_url": "https://www.openstreetmap.org/way/1345120059",
    "nombre": "I.E Sor María Juliana Sede Principal",
    "nombre_mostrar": "I.E Sor María Juliana Sede Principal",
    "categoria": "educacion",
    "categoria_es": "Educación",
    "subtipo": "school",
    "subtipo_es": "colegio o escuela",
    "municipio": "Cartago",
    "zona_id": "c6",
    "zona": "Comuna 6",
    "lst_c": 42.32,
    "calor_extremo": false,
    "lst_margen_umbral_c": -0.53,
    "en_umbral_calor": false,
    "ndvi_100m": 0.286,
    "arbolado_100m_pct": 5.1,
    "construido_100m_pct": 94.9,
    "celdas_en_100m": 41,
    "susceptibilidad_inundacion_clase": 1,
    "susceptibilidad_inundacion": "Baja (no descarta amenaza)",
    "susceptibilidad_inundacion_detalle": "Baja: HAND 6–15 m (no descarta amenaza: consultar la zonificación oficial del IDEAM, la CVC y el POT)",
    "susceptibilidad_alta": false,
    "amenaza_ideam_creciente_subita_tr50": "fuera de la mancha",
    "area_afectada_nina_ideam": false,
    "periodos_nina_ideam": [],
    "dist_verde_publico_05ha_m": 119.0,
    "dist_verde_fuente": "vector (producto verdes)",
    "dist_verde_rejilla_m": 121.0,
    "a_mas_de_300m_de_verde": false,
    "trafico_indice": 21.8,
    "trafico_alto": false
   }
  },
  {
   "type": "Feature",
   "geometry": {
    "type": "Point",
    "coordinates": [
     -75.907468,
     4.726822
    ]
   },
   "properties": {
    "osm_id": "way/1353030236",
    "osm_url": "https://www.openstreetmap.org/way/1353030236",
    "nombre": "IE Lázaro de Gardea",
    "nombre_mostrar": "IE Lázaro de Gardea",
    "categoria": "educacion",
    "categoria_es": "Educación",
    "subtipo": "school",
    "subtipo_es": "colegio o escuela",
    "municipio": "Cartago",
    "zona_id": "c3",
    "zona": "Comuna 3",
    "lst_c": 38.31,
    "calor_extremo": false,
    "lst_margen_umbral_c": -4.53,
    "en_umbral_calor": false,
    "ndvi_100m": 0.346,
    "arbolado_100m_pct": 27.9,
    "construido_100m_pct": 63.1,
    "celdas_en_100m": 41,
    "susceptibilidad_inundacion_clase": 0,
    "susceptibilidad_inundacion": "HAND > 15 m (no descarta amenaza)",
    "susceptibilidad_inundacion_detalle": "HAND > 15 m sobre el cauce más cercano (no descarta amenaza: consultar la zonificación oficial del IDEAM, la CVC y el POT)",
    "susceptibilidad_alta": false,
    "amenaza_ideam_creciente_subita_tr50": "fuera de la mancha",
    "area_afectada_nina_ideam": false,
    "periodos_nina_ideam": [],
    "dist_verde_publico_05ha_m": 1495.0,
    "dist_verde_fuente": "vector (producto verdes)",
    "dist_verde_rejilla_m": 1494.0,
    "a_mas_de_300m_de_verde": true,
    "trafico_indice": 12.8,
    "trafico_alto": false
   }
  },
  {
   "type": "Feature",
   "geometry": {
    "type": "Point",
    "coordinates": [
     -75.92527,
     4.751839
    ]
   },
   "properties": {
    "osm_id": "way/1345133690",
    "osm_url": "https://www.openstreetmap.org/way/1345133690",
    "nombre": "IE Sor María Juliana sede Rigoberto Orozco Cardona",
    "nombre_mostrar": "IE Sor María Juliana sede Rigoberto Orozco Cardona",
    "categoria": "educacion",
    "categoria_es": "Educación",
    "subtipo": "school",
    "subtipo_es": "colegio o escuela",
    "municipio": "Cartago",
    "zona_id": "c6",
    "zona": "Comuna 6",
    "lst_c": 40.0,
    "calor_extremo": false,
    "lst_margen_umbral_c": -2.85,
    "en_umbral_calor": false,
    "ndvi_100m": 0.409,
    "arbolado_100m_pct": 34.1,
    "construido_100m_pct": 64.6,
    "celdas_en_100m": 42,
    "susceptibilidad_inundacion_clase": 1,
    "susceptibilidad_inundacion": "Baja (no descarta amenaza)",
    "susceptibilidad_inundacion_detalle": "Baja: HAND 6–15 m (no descarta amenaza: consultar la zonificación oficial del IDEAM, la CVC y el POT)",
    "susceptibilidad_alta": false,
    "amenaza_ideam_creciente_subita_tr50": "fuera de la mancha",
    "area_afectada_nina_ideam": false,
    "periodos_nina_ideam": [],
    "dist_verde_publico_05ha_m": 22.0,
    "dist_verde_fuente": "vector (producto verdes)",
    "dist_verde_rejilla_m": 12.0,
    "a_mas_de_300m_de_verde": false,
    "trafico_indice": 27.6,
    "trafico_alto": false
   }
  },
  {
   "type": "Feature",
   "geometry": {
    "type": "Point",
    "coordinates": [
     -75.905972,
     4.760392
    ]
   },
   "properties": {
    "osm_id": "relation/17538285",
    "osm_url": "https://www.openstreetmap.org/relation/17538285",
    "nombre": "Institución Educativa Carlos Castro Saavedra",
    "nombre_mostrar": "Institución Educativa Carlos Castro Saavedra",
    "categoria": "educacion",
    "categoria_es": "Educación",
    "subtipo": "school",
    "subtipo_es": "colegio o escuela",
    "municipio": "otro municipio",
    "zona_id": null,
    "zona": null,
    "lst_c": 39.94,
    "calor_extremo": false,
    "lst_margen_umbral_c": -2.91,
    "en_umbral_calor": false,
    "ndvi_100m": 0.386,
    "arbolado_100m_pct": 33.1,
    "construido_100m_pct": 49.9,
    "celdas_en_100m": 41,
    "susceptibilidad_inundacion_clase": 1,
    "susceptibilidad_inundacion": "Baja (no descarta amenaza)",
    "susceptibilidad_inundacion_detalle": "Baja: HAND 6–15 m (no descarta amenaza: consultar la zonificación oficial del IDEAM, la CVC y el POT)",
    "susceptibilidad_alta": false,
    "amenaza_ideam_creciente_subita_tr50": "fuera de la mancha",
    "area_afectada_nina_ideam": false,
    "periodos_nina_ideam": [],
    "dist_verde_publico_05ha_m": 953.0,
    "dist_verde_fuente": "vector (producto verdes)",
    "dist_verde_rejilla_m": 953.0,
    "a_mas_de_300m_de_verde": true,
    "trafico_indice": 13.1,
    "trafico_alto": false
   }
  },
  {
   "type": "Feature",
   "geometry": {
    "type": "Point",
    "coordinates": [
     -75.92013,
     4.752903
    ]
   },
   "properties": {
    "osm_id": "relation/10817768",
    "osm_url": "https://www.openstreetmap.org/relation/10817768",
    "nombre": "Liceo Cartago",
    "nombre_mostrar": "Liceo Cartago",
    "categoria": "educacion",
    "categoria_es": "Educación",
    "subtipo": "school",
    "subtipo_es": "colegio o escuela",
    "municipio": "Cartago",
    "zona_id": "c6",
    "zona": "Comuna 6",
    "lst_c": 41.19,
    "calor_extremo": false,
    "lst_margen_umbral_c": -1.66,
    "en_umbral_calor": false,
    "ndvi_100m": 0.382,
    "arbolado_100m_pct": 19.2,
    "construido_100m_pct": 76.7,
    "celdas_en_100m": 41,
    "susceptibilidad_inundacion_clase": 1,
    "susceptibilidad_inundacion": "Baja (no descarta amenaza)",
    "susceptibilidad_inundacion_detalle": "Baja: HAND 6–15 m (no descarta amenaza: consultar la zonificación oficial del IDEAM, la CVC y el POT)",
    "susceptibilidad_alta": false,
    "amenaza_ideam_creciente_subita_tr50": "fuera de la mancha",
    "area_afectada_nina_ideam": false,
    "periodos_nina_ideam": [],
    "dist_verde_publico_05ha_m": 96.0,
    "dist_verde_fuente": "vector (producto verdes)",
    "dist_verde_rejilla_m": 93.0,
    "a_mas_de_300m_de_verde": false,
    "trafico_indice": 20.1,
    "trafico_alto": false
   }
  },
  {
   "type": "Feature",
   "geometry": {
    "type": "Point",
    "coordinates": [
     -75.922008,
     4.747309
    ]
   },
   "properties": {
    "osm_id": "way/1345136183",
    "osm_url": "https://www.openstreetmap.org/way/1345136183",
    "nombre": "Sor María Anastasia",
    "nombre_mostrar": "Sor María Anastasia",
    "categoria": "educacion",
    "categoria_es": "Educación",
    "subtipo": "school",
    "subtipo_es": "colegio o escuela",
    "municipio": "Cartago",
    "zona_id": "c6",
    "zona": "Comuna 6",
    "lst_c": 43.04,
    "calor_extremo": true,
    "lst_margen_umbral_c": 0.19,
    "en_umbral_calor": true,
    "ndvi_100m": 0.147,
    "arbolado_100m_pct": 0.0,
    "construido_100m_pct": 100.0,
    "celdas_en_100m": 41,
    "susceptibilidad_inundacion_clase": 1,
    "susceptibilidad_inundacion": "Baja (no descarta amenaza)",
    "susceptibilidad_inundacion_detalle": "Baja: HAND 6–15 m (no descarta amenaza: consultar la zonificación oficial del IDEAM, la CVC y el POT)",
    "susceptibilidad_alta": false,
    "amenaza_ideam_creciente_subita_tr50": "fuera de la mancha",
    "area_afectada_nina_ideam": false,
    "periodos_nina_ideam": [],
    "dist_verde_publico_05ha_m": 232.0,
    "dist_verde_fuente": "vector (producto verdes)",
    "dist_verde_rejilla_m": 221.0,
    "a_mas_de_300m_de_verde": false,
    "trafico_indice": 18.0,
    "trafico_alto": false
   }
  },
  {
   "type": "Feature",
   "geometry": {
    "type": "Point",
    "coordinates": [
     -75.923059,
     4.74879
    ]
   },
   "properties": {
    "osm_id": "way/1345127785",
    "osm_url": "https://www.openstreetmap.org/way/1345127785",
    "nombre": "Sor María Juliana Sede Lastenia Durán Vernaza",
    "nombre_mostrar": "Sor María Juliana Sede Lastenia Durán Vernaza",
    "categoria": "educacion",
    "categoria_es": "Educación",
    "subtipo": "school",
    "subtipo_es": "colegio o escuela",
    "municipio": "Cartago",
    "zona_id": "c6",
    "zona": "Comuna 6",
    "lst_c": 42.56,
    "calor_extremo": false,
    "lst_margen_umbral_c": -0.29,
    "en_umbral_calor": true,
    "ndvi_100m": 0.223,
    "arbolado_100m_pct": 3.5,
    "construido_100m_pct": 96.5,
    "celdas_en_100m": 41,
    "susceptibilidad_inundacion_clase": 1,
    "susceptibilidad_inundacion": "Baja (no descarta amenaza)",
    "susceptibilidad_inundacion_detalle": "Baja: HAND 6–15 m (no descarta amenaza: consultar la zonificación oficial del IDEAM, la CVC y el POT)",
    "susceptibilidad_alta": false,
    "amenaza_ideam_creciente_subita_tr50": "fuera de la mancha",
    "area_afectada_nina_ideam": false,
    "periodos_nina_ideam": [],
    "dist_verde_publico_05ha_m": 197.0,
    "dist_verde_fuente": "vector (producto verdes)",
    "dist_verde_rejilla_m": 199.0,
    "a_mas_de_300m_de_verde": false,
    "trafico_indice": 54.9,
    "trafico_alto": false
   }
  },
  {
   "type": "Feature",
   "geometry": {
    "type": "Point",
    "coordinates": [
     -75.951687,
     4.760175
    ]
   },
   "properties": {
    "osm_id": "node/8474141918",
    "osm_url": "https://www.openstreetmap.org/node/8474141918",
    "nombre": "The flying cockpits",
    "nombre_mostrar": "The flying cockpits",
    "categoria": "educacion",
    "categoria_es": "Educación",
    "subtipo": "school",
    "subtipo_es": "colegio o escuela",
    "municipio": "Cartago",
    "zona_id": "c7",
    "zona": "Comuna 7",
    "lst_c": 35.88,
    "calor_extremo": false,
    "lst_margen_umbral_c": -6.96,
    "en_umbral_calor": false,
    "ndvi_100m": 0.665,
    "arbolado_100m_pct": 17.6,
    "construido_100m_pct": 7.0,
    "celdas_en_100m": 41,
    "susceptibilidad_inundacion_clase": 1,
    "susceptibilidad_inundacion": "Baja (no descarta amenaza)",
    "susceptibilidad_inundacion_detalle": "Baja: HAND 6–15 m (no descarta amenaza: consultar la zonificación oficial del IDEAM, la CVC y el POT)",
    "susceptibilidad_alta": false,
    "amenaza_ideam_creciente_subita_tr50": "fuera de la mancha",
    "area_afectada_nina_ideam": true,
    "periodos_nina_ideam": [
     "1988"
    ],
    "dist_verde_publico_05ha_m": 301.0,
    "dist_verde_fuente": "vector (producto verdes)",
    "dist_verde_rejilla_m": 300.0,
    "a_mas_de_300m_de_verde": true,
    "trafico_indice": 44.1,
    "trafico_alto": false,
    "etiquetado_dudoso": "Escuela de aviación etiquetada amenity=school en OSM; no es preescolar, básica ni media."
   }
  },
  {
   "type": "Feature",
   "geometry": {
    "type": "Point",
    "coordinates": [
     -75.897246,
     4.753507
    ]
   },
   "properties": {
    "osm_id": "way/1304701491",
    "osm_url": "https://www.openstreetmap.org/way/1304701491",
    "nombre": null,
    "nombre_mostrar": "Colegio o escuela sin nombre en OSM",
    "categoria": "educacion",
    "categoria_es": "Educación",
    "subtipo": "school",
    "subtipo_es": "colegio o escuela",
    "municipio": "Cartago",
    "zona_id": "c1",
    "zona": "Comuna 1",
    "lst_c": 34.78,
    "calor_extremo": false,
    "lst_margen_umbral_c": -8.07,
    "en_umbral_calor": false,
    "ndvi_100m": 0.676,
    "arbolado_100m_pct": 75.3,
    "construido_100m_pct": 10.6,
    "celdas_en_100m": 44,
    "susceptibilidad_inundacion_clase": 0,
    "susceptibilidad_inundacion": "HAND > 15 m (no descarta amenaza)",
    "susceptibilidad_inundacion_detalle": "HAND > 15 m sobre el cauce más cercano (no descarta amenaza: consultar la zonificación oficial del IDEAM, la CVC y el POT)",
    "susceptibilidad_alta": false,
    "amenaza_ideam_creciente_subita_tr50": "fuera de la mancha",
    "area_afectada_nina_ideam": false,
    "periodos_nina_ideam": [],
    "dist_verde_publico_05ha_m": 1143.0,
    "dist_verde_fuente": "vector (producto verdes)",
    "dist_verde_rejilla_m": 1158.0,
    "a_mas_de_300m_de_verde": true,
    "trafico_indice": 2.7,
    "trafico_alto": false
   }
  },
  {
   "type": "Feature",
   "geometry": {
    "type": "Point",
    "coordinates": [
     -75.930023,
     4.75054
    ]
   },
   "properties": {
    "osm_id": "way/1425868655",
    "osm_url": "https://www.openstreetmap.org/way/1425868655",
    "nombre": "Uniminuto",
    "nombre_mostrar": "Uniminuto",
    "categoria": "educacion",
    "categoria_es": "Educación",
    "subtipo": "university",
    "subtipo_es": "universidad",
    "municipio": "Cartago",
    "zona_id": "c7",
    "zona": "Comuna 7",
    "lst_c": 33.87,
    "calor_extremo": false,
    "lst_margen_umbral_c": -8.98,
    "en_umbral_calor": false,
    "ndvi_100m": 0.774,
    "arbolado_100m_pct": 85.5,
    "construido_100m_pct": 6.3,
    "celdas_en_100m": 39,
    "susceptibilidad_inundacion_clase": 1,
    "susceptibilidad_inundacion": "Baja (no descarta amenaza)",
    "susceptibilidad_inundacion_detalle": "Baja: HAND 6–15 m (no descarta amenaza: consultar la zonificación oficial del IDEAM, la CVC y el POT)",
    "susceptibilidad_alta": false,
    "amenaza_ideam_creciente_subita_tr50": "fuera de la mancha",
    "area_afectada_nina_ideam": false,
    "periodos_nina_ideam": [],
    "dist_verde_publico_05ha_m": 451.0,
    "dist_verde_fuente": "vector (producto verdes)",
    "dist_verde_rejilla_m": 456.0,
    "a_mas_de_300m_de_verde": true,
    "trafico_indice": 3.3,
    "trafico_alto": false
   }
  },
  {
   "type": "Feature",
   "geometry": {
    "type": "Point",
    "coordinates": [
     -75.909534,
     4.733943
    ]
   },
   "properties": {
    "osm_id": "way/1304708111",
    "osm_url": "https://www.openstreetmap.org/way/1304708111",
    "nombre": "Universidad del Valle Sede Cartago",
    "nombre_mostrar": "Universidad del Valle Sede Cartago",
    "categoria": "educacion",
    "categoria_es": "Educación",
    "subtipo": "university",
    "subtipo_es": "universidad",
    "municipio": "Cartago",
    "zona_id": "c2",
    "zona": "Comuna 2",
    "lst_c": 34.79,
    "calor_extremo": false,
    "lst_margen_umbral_c": -8.05,
    "en_umbral_calor": false,
    "ndvi_100m": 0.596,
    "arbolado_100m_pct": 76.7,
    "construido_100m_pct": 23.3,
    "celdas_en_100m": 41,
    "susceptibilidad_inundacion_clase": 0,
    "susceptibilidad_inundacion": "HAND > 15 m (no descarta amenaza)",
    "susceptibilidad_inundacion_detalle": "HAND > 15 m sobre el cauce más cercano (no descarta amenaza: consultar la zonificación oficial del IDEAM, la CVC y el POT)",
    "susceptibilidad_alta": false,
    "amenaza_ideam_creciente_subita_tr50": "fuera de la mancha",
    "area_afectada_nina_ideam": false,
    "periodos_nina_ideam": [],
    "dist_verde_publico_05ha_m": 693.0,
    "dist_verde_fuente": "vector (producto verdes)",
    "dist_verde_rejilla_m": 694.0,
    "a_mas_de_300m_de_verde": true,
    "trafico_indice": 4.9,
    "trafico_alto": false
   }
  },
  {
   "type": "Feature",
   "geometry": {
    "type": "Point",
    "coordinates": [
     -75.920556,
     4.748979
    ]
   },
   "properties": {
    "osm_id": "node/9962839974",
    "osm_url": "https://www.openstreetmap.org/node/9962839974",
    "nombre": "Universidad Remington",
    "nombre_mostrar": "Universidad Remington",
    "categoria": "educacion",
    "categoria_es": "Educación",
    "subtipo": "university",
    "subtipo_es": "universidad",
    "municipio": "Cartago",
    "zona_id": "c6",
    "zona": "Comuna 6",
    "lst_c": 43.4,
    "calor_extremo": true,
    "lst_margen_umbral_c": 0.56,
    "en_umbral_calor": false,
    "ndvi_100m": 0.168,
    "arbolado_100m_pct": 2.2,
    "construido_100m_pct": 97.8,
    "celdas_en_100m": 40,
    "susceptibilidad_inundacion_clase": 1,
    "susceptibilidad_inundacion": "Baja (no descarta amenaza)",
    "susceptibilidad_inundacion_detalle": "Baja: HAND 6–15 m (no descarta amenaza: consultar la zonificación oficial del IDEAM, la CVC y el POT)",
    "susceptibilidad_alta": false,
    "amenaza_ideam_creciente_subita_tr50": "fuera de la mancha",
    "area_afectada_nina_ideam": false,
    "periodos_nina_ideam": [],
    "dist_verde_publico_05ha_m": 281.0,
    "dist_verde_fuente": "vector (producto verdes)",
    "dist_verde_rejilla_m": 294.0,
    "a_mas_de_300m_de_verde": false,
    "trafico_indice": 45.7,
    "trafico_alto": false
   }
  },
  {
   "type": "Feature",
   "geometry": {
    "type": "Point",
    "coordinates": [
     -75.900794,
     4.760668
    ]
   },
   "properties": {
    "osm_id": "way/1273139579",
    "osm_url": "https://www.openstreetmap.org/way/1273139579",
    "nombre": "Bomberos Puerto Caldas",
    "nombre_mostrar": "Bomberos Puerto Caldas",
    "categoria": "emergencia_gobierno",
    "categoria_es": "Emergencia y gobierno",
    "subtipo": "fire_station",
    "subtipo_es": "estación de bomberos",
    "municipio": "otro municipio",
    "zona_id": null,
    "zona": null,
    "lst_c": 39.75,
    "calor_extremo": false,
    "lst_margen_umbral_c": -3.09,
    "en_umbral_calor": false,
    "ndvi_100m": 0.252,
    "arbolado_100m_pct": 16.8,
    "construido_100m_pct": 75.6,
    "celdas_en_100m": 41,
    "susceptibilidad_inundacion_clase": 0,
    "susceptibilidad_inundacion": "HAND > 15 m (no descarta amenaza)",
    "susceptibilidad_inundacion_detalle": "HAND > 15 m sobre el cauce más cercano (no descarta amenaza: consultar la zonificación oficial del IDEAM, la CVC y el POT)",
    "susceptibilidad_alta": false,
    "amenaza_ideam_creciente_subita_tr50": "fuera de la mancha",
    "area_afectada_nina_ideam": false,
    "periodos_nina_ideam": [],
    "dist_verde_publico_05ha_m": 1217.0,
    "dist_verde_fuente": "vector (producto verdes)",
    "dist_verde_rejilla_m": 1208.0,
    "a_mas_de_300m_de_verde": true,
    "trafico_indice": 28.6,
    "trafico_alto": false
   }
  },
  {
   "type": "Feature",
   "geometry": {
    "type": "Point",
    "coordinates": [
     -75.910296,
     4.75116
    ]
   },
   "properties": {
    "osm_id": "way/108218661",
    "osm_url": "https://www.openstreetmap.org/way/108218661",
    "nombre": "Bomberos Voluntarios Cartago",
    "nombre_mostrar": "Bomberos Voluntarios Cartago",
    "categoria": "emergencia_gobierno",
    "categoria_es": "Emergencia y gobierno",
    "subtipo": "fire_station",
    "subtipo_es": "estación de bomberos",
    "municipio": "Cartago",
    "zona_id": "c5",
    "zona": "Comuna 5",
    "lst_c": 36.96,
    "calor_extremo": false,
    "lst_margen_umbral_c": -5.89,
    "en_umbral_calor": false,
    "ndvi_100m": 0.505,
    "arbolado_100m_pct": 48.8,
    "construido_100m_pct": 51.2,
    "celdas_en_100m": 41,
    "susceptibilidad_inundacion_clase": 1,
    "susceptibilidad_inundacion": "Baja (no descarta amenaza)",
    "susceptibilidad_inundacion_detalle": "Baja: HAND 6–15 m (no descarta amenaza: consultar la zonificación oficial del IDEAM, la CVC y el POT)",
    "susceptibilidad_alta": false,
    "amenaza_ideam_creciente_subita_tr50": "baja",
    "area_afectada_nina_ideam": false,
    "periodos_nina_ideam": [],
    "dist_verde_publico_05ha_m": 27.0,
    "dist_verde_fuente": "vector (producto verdes)",
    "dist_verde_rejilla_m": 30.0,
    "a_mas_de_300m_de_verde": false,
    "trafico_indice": 78.2,
    "trafico_alto": true
   }
  },
  {
   "type": "Feature",
   "geometry": {
    "type": "Point",
    "coordinates": [
     -75.898655,
     4.757617
    ]
   },
   "properties": {
    "osm_id": "node/5507001594",
    "osm_url": "https://www.openstreetmap.org/node/5507001594",
    "nombre": "CAI Puente Bolívar",
    "nombre_mostrar": "CAI Puente Bolívar",
    "categoria": "emergencia_gobierno",
    "categoria_es": "Emergencia y gobierno",
    "subtipo": "police",
    "subtipo_es": "policía",
    "municipio": "Cartago",
    "zona_id": "c1",
    "zona": "Comuna 1",
    "lst_c": 36.87,
    "calor_extremo": false,
    "lst_margen_umbral_c": -5.98,
    "en_umbral_calor": false,
    "ndvi_100m": 0.362,
    "arbolado_100m_pct": 36.9,
    "construido_100m_pct": 52.3,
    "celdas_en_100m": 41,
    "susceptibilidad_inundacion_clase": 2,
    "susceptibilidad_inundacion": "Media",
    "susceptibilidad_inundacion_detalle": "Media: ≤ 6 m sobre el cauce más cercano (incluidos arroyos y canales de drenaje), ≤ 3 m sobre La Vieja/Cauca a más de 1,5 km, o franja de ≤ 100 m junto a La Vieja/Cauca (regla de piso)",
    "susceptibilidad_alta": false,
    "amenaza_ideam_creciente_subita_tr50": "alta",
    "area_afectada_nina_ideam": false,
    "periodos_nina_ideam": [],
    "dist_verde_publico_05ha_m": 1160.0,
    "dist_verde_fuente": "vector (producto verdes)",
    "dist_verde_rejilla_m": 1163.0,
    "a_mas_de_300m_de_verde": true,
    "trafico_indice": 100.0,
    "trafico_alto": true
   }
  },
  {
   "type": "Feature",
   "geometry": {
    "type": "Point",
    "coordinates": [
     -75.906424,
     4.741156
    ]
   },
   "properties": {
    "osm_id": "way/1536649934",
    "osm_url": "https://www.openstreetmap.org/way/1536649934",
    "nombre": "Estacion de policia de Cartago El Berlin",
    "nombre_mostrar": "Estacion de policia de Cartago El Berlin",
    "categoria": "emergencia_gobierno",
    "categoria_es": "Emergencia y gobierno",
    "subtipo": "police",
    "subtipo_es": "policía",
    "municipio": "Cartago",
    "zona_id": "c2",
    "zona": "Comuna 2",
    "lst_c": 42.82,
    "calor_extremo": false,
    "lst_margen_umbral_c": -0.03,
    "en_umbral_calor": true,
    "ndvi_100m": 0.134,
    "arbolado_100m_pct": 2.2,
    "construido_100m_pct": 97.8,
    "celdas_en_100m": 41,
    "susceptibilidad_inundacion_clase": 1,
    "susceptibilidad_inundacion": "Baja (no descarta amenaza)",
    "susceptibilidad_inundacion_detalle": "Baja: HAND 6–15 m (no descarta amenaza: consultar la zonificación oficial del IDEAM, la CVC y el POT)",
    "susceptibilidad_alta": false,
    "amenaza_ideam_creciente_subita_tr50": "fuera de la mancha",
    "area_afectada_nina_ideam": false,
    "periodos_nina_ideam": [],
    "dist_verde_publico_05ha_m": 501.0,
    "dist_verde_fuente": "vector (producto verdes)",
    "dist_verde_rejilla_m": 506.0,
    "a_mas_de_300m_de_verde": true,
    "trafico_indice": 26.4,
    "trafico_alto": false
   }
  },
  {
   "type": "Feature",
   "geometry": {
    "type": "Point",
    "coordinates": [
     -75.89932,
     4.759342
    ]
   },
   "properties": {
    "osm_id": "way/1319630361",
    "osm_url": "https://www.openstreetmap.org/way/1319630361",
    "nombre": "Estación de Policia Puerto Caldas",
    "nombre_mostrar": "Estación de Policia Puerto Caldas",
    "categoria": "emergencia_gobierno",
    "categoria_es": "Emergencia y gobierno",
    "subtipo": "police",
    "subtipo_es": "policía",
    "municipio": "otro municipio",
    "zona_id": null,
    "zona": null,
    "lst_c": 39.11,
    "calor_extremo": false,
    "lst_margen_umbral_c": -3.74,
    "en_umbral_calor": false,
    "ndvi_100m": 0.435,
    "arbolado_100m_pct": 31.4,
    "construido_100m_pct": 59.6,
    "celdas_en_100m": 41,
    "susceptibilidad_inundacion_clase": 1,
    "susceptibilidad_inundacion": "Baja (no descarta amenaza)",
    "susceptibilidad_inundacion_detalle": "Baja: HAND 6–15 m (no descarta amenaza: consultar la zonificación oficial del IDEAM, la CVC y el POT)",
    "susceptibilidad_alta": false,
    "amenaza_ideam_creciente_subita_tr50": "fuera de la mancha",
    "area_afectada_nina_ideam": false,
    "periodos_nina_ideam": [],
    "dist_verde_publico_05ha_m": 1219.0,
    "dist_verde_fuente": "vector (producto verdes)",
    "dist_verde_rejilla_m": 1217.0,
    "a_mas_de_300m_de_verde": true,
    "trafico_indice": 84.8,
    "trafico_alto": true
   }
  },
  {
   "type": "Feature",
   "geometry": {
    "type": "Point",
    "coordinates": [
     -75.909591,
     4.747899
    ]
   },
   "properties": {
    "osm_id": "relation/10670599",
    "osm_url": "https://www.openstreetmap.org/relation/10670599",
    "nombre": "Centro Administrativo Municipal Cartago",
    "nombre_mostrar": "Centro Administrativo Municipal Cartago",
    "categoria": "emergencia_gobierno",
    "categoria_es": "Emergencia y gobierno",
    "subtipo": "townhall",
    "subtipo_es": "alcaldía",
    "municipio": "Cartago",
    "zona_id": "c4",
    "zona": "Comuna 4",
    "lst_c": 42.29,
    "calor_extremo": false,
    "lst_margen_umbral_c": -0.56,
    "en_umbral_calor": false,
    "ndvi_100m": 0.234,
    "arbolado_100m_pct": 7.4,
    "construido_100m_pct": 92.6,
    "celdas_en_100m": 42,
    "susceptibilidad_inundacion_clase": 1,
    "susceptibilidad_inundacion": "Baja (no descarta amenaza)",
    "susceptibilidad_inundacion_detalle": "Baja: HAND 6–15 m (no descarta amenaza: consultar la zonificación oficial del IDEAM, la CVC y el POT)",
    "susceptibilidad_alta": false,
    "amenaza_ideam_creciente_subita_tr50": "fuera de la mancha",
    "area_afectada_nina_ideam": false,
    "periodos_nina_ideam": [],
    "dist_verde_publico_05ha_m": 272.0,
    "dist_verde_fuente": "vector (producto verdes)",
    "dist_verde_rejilla_m": 274.0,
    "a_mas_de_300m_de_verde": false,
    "trafico_indice": 14.8,
    "trafico_alto": false
   }
  },
  {
   "type": "Feature",
   "geometry": {
    "type": "Point",
    "coordinates": [
     -75.925178,
     4.759799
    ]
   },
   "properties": {
    "osm_id": "relation/10817821",
    "osm_url": "https://www.openstreetmap.org/relation/10817821",
    "nombre": "Clínica Comfandi Cartago",
    "nombre_mostrar": "Clínica Comfandi Cartago",
    "categoria": "salud",
    "categoria_es": "Salud",
    "subtipo": "clinic",
    "subtipo_es": "clínica o IPS",
    "municipio": "Cartago",
    "zona_id": "c6",
    "zona": "Comuna 6",
    "lst_c": 39.84,
    "calor_extremo": false,
    "lst_margen_umbral_c": -3.01,
    "en_umbral_calor": false,
    "ndvi_100m": 0.282,
    "arbolado_100m_pct": 3.6,
    "construido_100m_pct": 71.1,
    "celdas_en_100m": 40,
    "susceptibilidad_inundacion_clase": 2,
    "susceptibilidad_inundacion": "Media",
    "susceptibilidad_inundacion_detalle": "Media: ≤ 6 m sobre el cauce más cercano (incluidos arroyos y canales de drenaje), ≤ 3 m sobre La Vieja/Cauca a más de 1,5 km, o franja de ≤ 100 m junto a La Vieja/Cauca (regla de piso)",
    "susceptibilidad_alta": false,
    "amenaza_ideam_creciente_subita_tr50": "baja",
    "area_afectada_nina_ideam": false,
    "periodos_nina_ideam": [],
    "dist_verde_publico_05ha_m": 680.0,
    "dist_verde_fuente": "vector (producto verdes)",
    "dist_verde_rejilla_m": 675.0,
    "a_mas_de_300m_de_verde": true,
    "trafico_indice": 38.4,
    "trafico_alto": false
   }
  },
  {
   "type": "Feature",
   "geometry": {
    "type": "Point",
    "coordinates": [
     -75.917749,
     4.760226
    ]
   },
   "properties": {
    "osm_id": "relation/12267309",
    "osm_url": "https://www.openstreetmap.org/relation/12267309",
    "nombre": "Clinica Nueva de Cartago SAS",
    "nombre_mostrar": "Clinica Nueva de Cartago SAS",
    "categoria": "salud",
    "categoria_es": "Salud",
    "subtipo": "clinic",
    "subtipo_es": "clínica o IPS",
    "municipio": "Cartago",
    "zona_id": "c6",
    "zona": "Comuna 6",
    "lst_c": 41.98,
    "calor_extremo": false,
    "lst_margen_umbral_c": -0.87,
    "en_umbral_calor": false,
    "ndvi_100m": 0.321,
    "arbolado_100m_pct": 29.4,
    "construido_100m_pct": 69.8,
    "celdas_en_100m": 42,
    "susceptibilidad_inundacion_clase": 1,
    "susceptibilidad_inundacion": "Baja (no descarta amenaza)",
    "susceptibilidad_inundacion_detalle": "Baja: HAND 6–15 m (no descarta amenaza: consultar la zonificación oficial del IDEAM, la CVC y el POT)",
    "susceptibilidad_alta": false,
    "amenaza_ideam_creciente_subita_tr50": "media",
    "area_afectada_nina_ideam": false,
    "periodos_nina_ideam": [],
    "dist_verde_publico_05ha_m": 107.0,
    "dist_verde_fuente": "vector (producto verdes)",
    "dist_verde_rejilla_m": 103.0,
    "a_mas_de_300m_de_verde": false,
    "trafico_indice": 33.2,
    "trafico_alto": false
   }
  },
  {
   "type": "Feature",
   "geometry": {
    "type": "Point",
    "coordinates": [
     -75.926135,
     4.754207
    ]
   },
   "properties": {
    "osm_id": "way/1281449541",
    "osm_url": "https://www.openstreetmap.org/way/1281449541",
    "nombre": "Oncologos de Occidente",
    "nombre_mostrar": "Oncologos de Occidente",
    "categoria": "salud",
    "categoria_es": "Salud",
    "subtipo": "clinic",
    "subtipo_es": "clínica o IPS",
    "municipio": "Cartago",
    "zona_id": "c6",
    "zona": "Comuna 6",
    "lst_c": 39.65,
    "calor_extremo": false,
    "lst_margen_umbral_c": -3.2,
    "en_umbral_calor": false,
    "ndvi_100m": 0.354,
    "arbolado_100m_pct": 12.2,
    "construido_100m_pct": 82.4,
    "celdas_en_100m": 41,
    "susceptibilidad_inundacion_clase": 1,
    "susceptibilidad_inundacion": "Baja (no descarta amenaza)",
    "susceptibilidad_inundacion_detalle": "Baja: HAND 6–15 m (no descarta amenaza: consultar la zonificación oficial del IDEAM, la CVC y el POT)",
    "susceptibilidad_alta": false,
    "amenaza_ideam_creciente_subita_tr50": "fuera de la mancha",
    "area_afectada_nina_ideam": true,
    "periodos_nina_ideam": [
     "2011"
    ],
    "dist_verde_publico_05ha_m": 131.0,
    "dist_verde_fuente": "vector (producto verdes)",
    "dist_verde_rejilla_m": 122.0,
    "a_mas_de_300m_de_verde": false,
    "trafico_indice": 55.6,
    "trafico_alto": false
   }
  },
  {
   "type": "Feature",
   "geometry": {
    "type": "Point",
    "coordinates": [
     -75.948939,
     4.762002
    ]
   },
   "properties": {
    "osm_id": "node/6391724985",
    "osm_url": "https://www.openstreetmap.org/node/6391724985",
    "nombre": "PSICO SALUD Y TRANSFORMACIÓN",
    "nombre_mostrar": "PSICO SALUD Y TRANSFORMACIÓN",
    "categoria": "salud",
    "categoria_es": "Salud",
    "subtipo": "clinic",
    "subtipo_es": "clínica o IPS",
    "municipio": "Cartago",
    "zona_id": "c7",
    "zona": "Comuna 7",
    "lst_c": 37.14,
    "calor_extremo": false,
    "lst_margen_umbral_c": -5.7,
    "en_umbral_calor": false,
    "ndvi_100m": 0.427,
    "arbolado_100m_pct": 30.4,
    "construido_100m_pct": 55.0,
    "celdas_en_100m": 42,
    "susceptibilidad_inundacion_clase": 1,
    "susceptibilidad_inundacion": "Baja (no descarta amenaza)",
    "susceptibilidad_inundacion_detalle": "Baja: HAND 6–15 m (no descarta amenaza: consultar la zonificación oficial del IDEAM, la CVC y el POT)",
    "susceptibilidad_alta": false,
    "amenaza_ideam_creciente_subita_tr50": "fuera de la mancha",
    "area_afectada_nina_ideam": false,
    "periodos_nina_ideam": [],
    "dist_verde_publico_05ha_m": 27.0,
    "dist_verde_fuente": "vector (producto verdes)",
    "dist_verde_rejilla_m": 26.0,
    "a_mas_de_300m_de_verde": false,
    "trafico_indice": 17.7,
    "trafico_alto": false
   }
  },
  {
   "type": "Feature",
   "geometry": {
    "type": "Point",
    "coordinates": [
     -75.914768,
     4.751535
    ]
   },
   "properties": {
    "osm_id": "node/4245243189",
    "osm_url": "https://www.openstreetmap.org/node/4245243189",
    "nombre": "Respirar Unidad Pediátrica",
    "nombre_mostrar": "Respirar Unidad Pediátrica",
    "categoria": "salud",
    "categoria_es": "Salud",
    "subtipo": "clinic",
    "subtipo_es": "clínica o IPS",
    "municipio": "Cartago",
    "zona_id": "c5",
    "zona": "Comuna 5",
    "lst_c": 42.99,
    "calor_extremo": true,
    "lst_margen_umbral_c": 0.15,
    "en_umbral_calor": true,
    "ndvi_100m": 0.113,
    "arbolado_100m_pct": 0.0,
    "construido_100m_pct": 100.0,
    "celdas_en_100m": 40,
    "susceptibilidad_inundacion_clase": 1,
    "susceptibilidad_inundacion": "Baja (no descarta amenaza)",
    "susceptibilidad_inundacion_detalle": "Baja: HAND 6–15 m (no descarta amenaza: consultar la zonificación oficial del IDEAM, la CVC y el POT)",
    "susceptibilidad_alta": false,
    "amenaza_ideam_creciente_subita_tr50": "fuera de la mancha",
    "area_afectada_nina_ideam": false,
    "periodos_nina_ideam": [],
    "dist_verde_publico_05ha_m": 215.0,
    "dist_verde_fuente": "vector (producto verdes)",
    "dist_verde_rejilla_m": 231.0,
    "a_mas_de_300m_de_verde": false,
    "trafico_indice": 20.9,
    "trafico_alto": false
   }
  },
  {
   "type": "Feature",
   "geometry": {
    "type": "Point",
    "coordinates": [
     -75.903182,
     4.751597
    ]
   },
   "properties": {
    "osm_id": "way/575720026",
    "osm_url": "https://www.openstreetmap.org/way/575720026",
    "nombre": "Hospital Sagrado Corazón de Jesús",
    "nombre_mostrar": "Hospital Sagrado Corazón de Jesús",
    "categoria": "salud",
    "categoria_es": "Salud",
    "subtipo": "hospital",
    "subtipo_es": "hospital",
    "municipio": "Cartago",
    "zona_id": "c1",
    "zona": "Comuna 1",
    "lst_c": 43.21,
    "calor_extremo": true,
    "lst_margen_umbral_c": 0.36,
    "en_umbral_calor": true,
    "ndvi_100m": 0.19,
    "arbolado_100m_pct": 0.3,
    "construido_100m_pct": 99.7,
    "celdas_en_100m": 41,
    "susceptibilidad_inundacion_clase": 0,
    "susceptibilidad_inundacion": "HAND > 15 m (no descarta amenaza)",
    "susceptibilidad_inundacion_detalle": "HAND > 15 m sobre el cauce más cercano (no descarta amenaza: consultar la zonificación oficial del IDEAM, la CVC y el POT)",
    "susceptibilidad_alta": false,
    "amenaza_ideam_creciente_subita_tr50": "baja",
    "area_afectada_nina_ideam": false,
    "periodos_nina_ideam": [],
    "dist_verde_publico_05ha_m": 470.0,
    "dist_verde_fuente": "vector (producto verdes)",
    "dist_verde_rejilla_m": 476.0,
    "a_mas_de_300m_de_verde": true,
    "trafico_indice": 15.6,
    "trafico_alto": false
   }
  },
  {
   "type": "Feature",
   "geometry": {
    "type": "Point",
    "coordinates": [
     -75.902416,
     4.751943
    ]
   },
   "properties": {
    "osm_id": "way/108231663",
    "osm_url": "https://www.openstreetmap.org/way/108231663",
    "nombre": "IPS Municipal de Cartago",
    "nombre_mostrar": "IPS Municipal de Cartago",
    "categoria": "salud",
    "categoria_es": "Salud",
    "subtipo": "hospital",
    "subtipo_es": "hospital",
    "municipio": "Cartago",
    "zona_id": "c1",
    "zona": "Comuna 1",
    "lst_c": 42.6,
    "calor_extremo": false,
    "lst_margen_umbral_c": -0.25,
    "en_umbral_calor": true,
    "ndvi_100m": 0.252,
    "arbolado_100m_pct": 10.8,
    "construido_100m_pct": 89.2,
    "celdas_en_100m": 41,
    "susceptibilidad_inundacion_clase": 1,
    "susceptibilidad_inundacion": "Baja (no descarta amenaza)",
    "susceptibilidad_inundacion_detalle": "Baja: HAND 6–15 m (no descarta amenaza: consultar la zonificación oficial del IDEAM, la CVC y el POT)",
    "susceptibilidad_alta": false,
    "amenaza_ideam_creciente_subita_tr50": "baja",
    "area_afectada_nina_ideam": false,
    "periodos_nina_ideam": [],
    "dist_verde_publico_05ha_m": 555.0,
    "dist_verde_fuente": "vector (producto verdes)",
    "dist_verde_rejilla_m": 559.0,
    "a_mas_de_300m_de_verde": true,
    "trafico_indice": 27.8,
    "trafico_alto": false
   }
  },
  {
   "type": "Feature",
   "geometry": {
    "type": "Point",
    "coordinates": [
     -75.900518,
     4.758933
    ]
   },
   "properties": {
    "osm_id": "way/1170413417",
    "osm_url": "https://www.openstreetmap.org/way/1170413417",
    "nombre": "Puesto de Salud Puerto Caldas",
    "nombre_mostrar": "Puesto de Salud Puerto Caldas",
    "categoria": "salud",
    "categoria_es": "Salud",
    "subtipo": "hospital",
    "subtipo_es": "hospital",
    "municipio": "otro municipio",
    "zona_id": null,
    "zona": null,
    "lst_c": 40.6,
    "calor_extremo": false,
    "lst_margen_umbral_c": -2.24,
    "en_umbral_calor": false,
    "ndvi_100m": 0.273,
    "arbolado_100m_pct": 8.4,
    "construido_100m_pct": 88.6,
    "celdas_en_100m": 41,
    "susceptibilidad_inundacion_clase": 1,
    "susceptibilidad_inundacion": "Baja (no descarta amenaza)",
    "susceptibilidad_inundacion_detalle": "Baja: HAND 6–15 m (no descarta amenaza: consultar la zonificación oficial del IDEAM, la CVC y el POT)",
    "susceptibilidad_alta": false,
    "amenaza_ideam_creciente_subita_tr50": "fuera de la mancha",
    "area_afectada_nina_ideam": false,
    "periodos_nina_ideam": [],
    "dist_verde_publico_05ha_m": 1091.0,
    "dist_verde_fuente": "vector (producto verdes)",
    "dist_verde_rejilla_m": 1079.0,
    "a_mas_de_300m_de_verde": true,
    "trafico_indice": 22.7,
    "trafico_alto": false
   }
  }
 ]
}