{"type":"FeatureCollection","name":"espacio_verde","metadatos":{"titulo":"Espacio verde de uso público (OpenStreetMap)","descripcion":"Parques, zonas de juego, zonas recreativas y jardines mapeados en OpenStreetMap, con su área y acceso. 'publico' indica si entra en el indicador de acceso al verde.","fuente":{"nombre":"OpenStreetMap (Overpass, out geom)","url":"https://www.openstreetmap.org/copyright","licencia":"ODbL 1.0","cita":"© colaboradores de OpenStreetMap, ODbL 1.0 (https://www.openstreetmap.org/copyright)","consulta_overpass":"[out:json][timeout:170];(nwr[\"leisure\"~\"^(park|garden|pitch|playground|nature_reserve|recreation_ground)$\"](4.688,-75.985,4.795,-75.855);nwr[\"landuse\"~\"^(grass|recreation_ground|forest|meadow|village_green|cemetery)$\"](4.688,-75.985,4.795,-75.855);nwr[\"natural\"~\"^(wood|wetland|water|scrub|tree_row)$\"](4.688,-75.985,4.795,-75.855);nwr[\"amenity\"~\"^(school|kindergarten|college|university|hospital|clinic|doctors|nursing_home|social_facility|fire_station|police|townhall)$\"](4.688,-75.985,4.795,-75.855););out geom;","consulta_archivo":"fuentes/verdes/osm-verdes-equipamientos.overpassql"},"periodo":"Estado de OpenStreetMap en la marca 2026-10-01T01:50:59Z en UTC (2026-09-30 20:50 hora de Colombia, UTC−5)","crs":"EPSG:4326","area_calculada_en":"EPSG:32618 (UTM 18N)","criterios":["leisure=park|playground|recreation_ground|nature_reserve|garden; landuse=recreation_ground|village_green","canchas (leisure=pitch) excluidas; se cuentan en datos/series/verdes.json","publico=false: access=private/no, garden:type privado, ≥50 % dentro de un equipamiento o cementerio, o tarifa verificada externamente (ver 'nota')","publico=false también para separadores viales: ≥ 90 % del borde a ≤ 10 m de vías principales y ancho medio 2·A/P < 10 m (Urban Atlas 14100: ancho mínimo 10 m, uso recreativo; OMS 2016, recuadro 4.1)"],"limitaciones":["Inventario parcial: solo cuenta lo mapeado en OpenStreetMap. WorldCover 2021 muestra 11 manchas de vegetación de 0,5–5 ha rodeadas de ciudad sin ningún polígono OSM (ver datos/series/verdes.json, vacios_osm); un parque sin mapear no aparece.","Acceso supuesto: 53 de 53 polígonos públicos no tienen etiqueta 'access' en OSM y se asumieron públicos; zonas verdes internas de conjuntos cerrados mal etiquetadas se contarían como públicas.","Las exclusiones (institucionales, con tarifa y separadores viales) siguen reglas propias documentadas en 'criterios' y en 'nota'; no son una clasificación oficial.","El área es la del polígono OSM: puede incluir senderos, plazoletas duras y canchas internas no separadas.","No equivale al espacio público efectivo del Decreto 1504 de 1998 ni al inventario municipal (que incluye plazas).","Hay polígonos muy pequeños (jardineras de 13–50 m²) que cuentan como verde de cualquier tamaño, pero no en los indicadores con umbral.","Incluye polígonos fuera del municipio de Cartago (municipio='otro municipio', p. ej. Puerto Caldas, Pereira).","No mide calidad, sombra, seguridad ni dotación de los parques."]},"features":[{"type":"Feature","geometry":{"type":"Polygon","coordinates":[[[-75.913604,4.754013],[-75.913419,4.754384],[-75.913118,4.754167],[-75.912691,4.753947],[-75.912455,4.753826],[-75.91227,4.753709],[-75.912022,4.753602],[-75.911811,4.75346],[-75.911642,4.753331],[-75.911233,4.753145],[-75.910812,4.75303],[-75.910517,4.752915],[-75.910339,4.752823],[-75.910136,4.752717],[-75.909036,4.752228],[-75.908266,4.751963],[-75.908169,4.75192],[-75.908074,4.751887],[-75.907822,4.751878],[-75.907654,4.751876],[-75.907423,4.751898],[-75.907418,4.75179],[-75.907417,4.751753],[-75.908279,4.75159],[-75.909365,4.751488],[-75.910362,4.7514],[-75.910504,4.75141],[-75.910544,4.751413],[-75.910783,4.75156],[-75.910851,4.751623],[-75.910924,4.751681],[-75.911002,4.751731],[-75.911085,4.751774],[-75.911171,4.751809],[-75.91126,4.751836],[-75.911289,4.751843],[-75.911318,4.751849],[-75.911334,4.751861],[-75.911574,4.752041],[-75.911859,4.75251],[-75.911892,4.752564],[-75.912324,4.753223],[-75.912343,4.753251],[-75.912429,4.753337],[-75.912491,4.753399],[-75.913604,4.754013]]]},"properties":{"osm_id":"relation/10817729","osm_url":"https://www.openstreetmap.org/relation/10817729","nombre":"Parque de la Isleta","tipo":"leisure=park","tipo_es":"parque","area_m2":60051.4,"acceso":"no declarado en OSM (se asume público)","access_osm":null,"publico":true,"en_cabecera":true,"comuna":"Comuna 5","municipio":"Cartago","nota":null,"componente":12,"componente_area_m2":60051.4,"componente_ge_05ha":true,"componente_ge_1ha":true}},{"type":"Feature","geometry":{"type":"Polygon","coordinates":[[[-75.912318,4.739798],[-75.912297,4.739655],[-75.912617,4.739659],[-75.912665,4.73968],[-75.91292,4.739865],[-75.913019,4.739844],[-75.913086,4.739839],[-75.913051,4.739312],[-75.913033,4.739138],[-75.913771,4.739043],[-75.913927,4.739027],[-75.914292,4.739102],[-75.914622,4.738995],[-75.914877,4.738869],[-75.915223,4.73961],[-75.914913,4.739744],[-75.914754,4.739959],[-75.914672,4.740437],[-75.914728,4.740771],[-75.914946,4.741041],[-75.915016,4.741228],[-75.915554,4.741098],[-75.915581,4.741259],[-75.916055,4.741162],[-75.916208,4.741516],[-75.915267,4.74158],[-75.915238,4.741748],[-75.915114,4.741743],[-75.915027,4.741589],[-75.914862,4.741477],[-75.914826,4.741477],[-75.914692,4.74148],[-75.914688,4.741391],[-75.914594,4.741293],[-75.913723,4.740622],[-75.913443,4.740406],[-75.913127,4.740265],[-75.912947,4.74015],[-75.912791,4.740002],[-75.912551,4.739817],[-75.912453,4.739799],[-75.912318,4.739798]]]},"properties":{"osm_id":"way/677173687","osm_url":"https://www.openstreetmap.org/way/677173687","nombre":"Parque de la Salud","tipo":"leisure=park","tipo_es":"parque","area_m2":47808.6,"acceso":"no declarado en OSM (se asume público)","access_osm":null,"publico":true,"en_cabecera":true,"comuna":"Comuna 4","municipio":"Cartago","nota":null,"componente":22,"componente_area_m2":47808.6,"componente_ge_05ha":true,"componente_ge_1ha":true}},{"type":"Feature","geometry":{"type":"Polygon","coordinates":[[[-75.915145,4.730333],[-75.91608,4.729079],[-75.915257,4.728348],[-75.915006,4.728125],[-75.914772,4.728199],[-75.914384,4.728097],[-75.914207,4.728004],[-75.913824,4.728935],[-75.914118,4.728976],[-75.914165,4.729028],[-75.914244,4.729167],[-75.914286,4.7294],[-75.9143,4.729679],[-75.914454,4.729856],[-75.914711,4.730052],[-75.915145,4.730333]]]},"properties":{"osm_id":"way/1305319659","osm_url":"https://www.openstreetmap.org/way/1305319659","nombre":"Centro Recreacional Villa Sol","tipo":"landuse=recreation_ground","tipo_es":"zona recreativa","area_m2":35308.2,"acceso":"con tarifa (centro recreacional de caja de compensación)","access_osm":null,"publico":false,"en_cabecera":true,"comuna":null,"municipio":"Cartago","nota":"Hotel y Centro Recreacional Villasol, operado por Comfenalco Valle Delagente; los no afiliados pagan entrada según categoría D. Fuente: https://www.comfenalcovalle.com.co/en/personas/recreacion-y-deportes/nuestros-centros-recreacionales/villasol/","componente":null,"componente_area_m2":null,"componente_ge_05ha":false,"componente_ge_1ha":false}},{"type":"Feature","geometry":{"type":"Polygon","coordinates":[[[-75.951999,4.771789],[-75.952696,4.77069],[-75.951668,4.768412],[-75.951379,4.768995],[-75.951292,4.769356],[-75.951274,4.769695],[-75.951285,4.770396],[-75.95128,4.770521],[-75.951356,4.770692],[-75.951484,4.771016],[-75.95153,4.771322],[-75.951583,4.771406],[-75.95167,4.771529],[-75.95182,4.771735],[-75.951918,4.771861],[-75.951999,4.771789]]]},"properties":{"osm_id":"way/1318891866","osm_url":"https://www.openstreetmap.org/way/1318891866","nombre":"Mister Mojarra","tipo":"landuse=recreation_ground","tipo_es":"zona recreativa","area_m2":33795.4,"acceso":"con tarifa (establecimiento comercial)","access_osm":null,"publico":false,"en_cabecera":true,"comuna":"Comuna 7","municipio":"Cartago","nota":"Centro Turístico Míster Mojarra (Calle 55B # 3N-51, Santa Ana): establecimiento comercial con piscinas, lagos de pesca, restaurante y cabañas; según reseñas de visitantes se paga entrada. Fuente: https://co.fitfit.fitness/es/i/3593-mister-mojarra/","componente":null,"componente_area_m2":null,"componente_ge_05ha":false,"componente_ge_1ha":false}},{"type":"Feature","geometry":{"type":"Polygon","coordinates":[[[-75.922814,4.752409],[-75.92281,4.752052],[-75.921904,4.751852],[-75.920931,4.751605],[-75.919882,4.751451],[-75.919775,4.75146],[-75.919547,4.751547],[-75.919567,4.751635],[-75.920025,4.751748],[-75.920379,4.751831],[-75.920875,4.751949],[-75.921864,4.752209],[-75.922305,4.752306],[-75.922814,4.752409]]]},"properties":{"osm_id":"relation/10817770","osm_url":"https://www.openstreetmap.org/relation/10817770","nombre":"Parque Lineal","tipo":"leisure=park","tipo_es":"parque","area_m2":13105.4,"acceso":"no declarado en OSM (se asume público)","access_osm":null,"publico":true,"en_cabecera":true,"comuna":"Comuna 6","municipio":"Cartago","nota":null,"componente":28,"componente_area_m2":14173.4,"componente_ge_05ha":true,"componente_ge_1ha":true}},{"type":"Feature","geometry":{"type":"Polygon","coordinates":[[[-75.877526,4.775656],[-75.877484,4.775647],[-75.878141,4.775086],[-75.878457,4.774771],[-75.878754,4.774374],[-75.87906,4.77384],[-75.879351,4.773282],[-75.879686,4.772727],[-75.879824,4.772481],[-75.879957,4.77229],[-75.880145,4.772077],[-75.880272,4.771967],[-75.88042,4.771853],[-75.880637,4.771727],[-75.880986,4.77154],[-75.88142,4.771309],[-75.881697,4.771155],[-75.881993,4.770984],[-75.882188,4.770839],[-75.882336,4.770697],[-75.882511,4.7705],[-75.882704,4.770237],[-75.882884,4.769983],[-75.883054,4.769756],[-75.883207,4.769592],[-75.883388,4.769425],[-75.883574,4.769286],[-75.883841,4.769137],[-75.884104,4.769017],[-75.884423,4.768887],[-75.884792,4.768719],[-75.885119,4.768552],[-75.885493,4.768325],[-75.885795,4.768132],[-75.886043,4.76798],[-75.886372,4.76777],[-75.886716,4.767555],[-75.88686,4.767441],[-75.886998,4.767262],[-75.887202,4.766947],[-75.887441,4.766661],[-75.887669,4.766491],[-75.887862,4.766415],[-75.887993,4.766395],[-75.88812,4.766384],[-75.888389,4.766416],[-75.888711,4.766474],[-75.888967,4.766533],[-75.889101,4.766569],[-75.889177,4.766595],[-75.889656,4.76675],[-75.890005,4.766863],[-75.890419,4.766968],[-75.890661,4.767006],[-75.890871,4.76703],[-75.891202,4.767042],[-75.891751,4.766999],[-75.892415,4.766832],[-75.892746,4.766704],[-75.89291,4.766643],[-75.892894,4.766676],[-75.892893,4.766708],[-75.892899,4.766732],[-75.892915,4.766759],[-75.892944,4.76678],[-75.892765,4.766837],[-75.892361,4.766949],[-75.892047,4.76701],[-75.891756,4.767054],[-75.891204,4.767078],[-75.890868,4.767055],[-75.890643,4.767023],[-75.890353,4.766975],[-75.889987,4.766872],[-75.889625,4.766757],[-75.889187,4.766629],[-75.888948,4.76659],[-75.888715,4.76659],[-75.888504,4.766609],[-75.888177,4.766693],[-75.887809,4.766867],[-75.887332,4.767169],[-75.886876,4.767463],[-75.88672,4.767572],[-75.886377,4.767783],[-75.886051,4.767993],[-75.885802,4.768146],[-75.885499,4.768338],[-75.885126,4.768567],[-75.884796,4.768734],[-75.884423,4.768903],[-75.884105,4.769036],[-75.883837,4.769156],[-75.883573,4.769304],[-75.883385,4.769446],[-75.883216,4.769604],[-75.883066,4.769767],[-75.882897,4.769993],[-75.882717,4.770245],[-75.882524,4.77051],[-75.882344,4.770716],[-75.882193,4.770856],[-75.882,4.771],[-75.881696,4.771177],[-75.881426,4.771328],[-75.88099,4.771556],[-75.88064,4.771742],[-75.880427,4.77187],[-75.880282,4.771979],[-75.880153,4.772091],[-75.879967,4.772302],[-75.879833,4.772496],[-75.879697,4.772738],[-75.879368,4.773301],[-75.87907,4.773868],[-75.878915,4.774139],[-75.878773,4.774377],[-75.878453,4.774801],[-75.878149,4.775106],[-75.877526,4.775656]]]},"properties":{"osm_id":"way/575720057","osm_url":"https://www.openstreetmap.org/way/575720057","nombre":null,"tipo":"leisure=garden","tipo_es":"jardín","area_m2":12279.5,"acceso":"separador o franja vial (ancho medio ≈ 5.7 m; 100 % del borde a ≤ 10 m de vías principales); no es espacio recreativo","access_osm":null,"publico":false,"en_cabecera":false,"comuna":null,"municipio":"otro municipio","nota":"vías contiguas: Vía Cerritos Cartago","componente":null,"componente_area_m2":null,"componente_ge_05ha":false,"componente_ge_1ha":false}},{"type":"Feature","geometry":{"type":"Polygon","coordinates":[[[-75.913697,4.74964],[-75.913682,4.74956],[-75.913657,4.749484],[-75.913619,4.749412],[-75.913571,4.749347],[-75.913513,4.749291],[-75.913452,4.749247],[-75.913384,4.749213],[-75.913313,4.749189],[-75.913239,4.749175],[-75.913166,4.749163],[-75.913067,4.749187],[-75.912976,4.74922],[-75.912893,4.749269],[-75.912821,4.749333],[-75.912762,4.749411],[-75.912719,4.749498],[-75.912695,4.749591],[-75.912686,4.749688],[-75.912699,4.749765],[-75.912722,4.74984],[-75.912756,4.74991],[-75.912799,4.749976],[-75.912851,4.750035],[-75.912912,4.750088],[-75.91298,4.750131],[-75.913054,4.750165],[-75.913132,4.750188],[-75.913212,4.750212],[-75.913306,4.750175],[-75.913395,4.750135],[-75.913477,4.750082],[-75.913548,4.750016],[-75.91361,4.749933],[-75.913656,4.749841],[-75.913686,4.749742],[-75.913697,4.74964]]]},"properties":{"osm_id":"relation/10817533","osm_url":"https://www.openstreetmap.org/relation/10817533","nombre":"Parque Bolívar","tipo":"leisure=park","tipo_es":"parque","area_m2":9688.2,"acceso":"no declarado en OSM (se asume público)","access_osm":null,"publico":true,"en_cabecera":true,"comuna":"Comuna 5","municipio":"Cartago","nota":null,"componente":23,"componente_area_m2":9688.2,"componente_ge_05ha":true,"componente_ge_1ha":false}},{"type":"Feature","geometry":{"type":"Polygon","coordinates":[[[-75.91707,4.754359],[-75.916952,4.754698],[-75.916859,4.754969],[-75.91676,4.755255],[-75.916734,4.755299],[-75.916702,4.755339],[-75.916679,4.75537],[-75.916666,4.755385],[-75.916624,4.755406],[-75.916554,4.755451],[-75.91652,4.75546],[-75.916475,4.75547],[-75.916411,4.755476],[-75.916307,4.755468],[-75.916197,4.755428],[-75.916239,4.755143],[-75.916282,4.754855],[-75.916324,4.754552],[-75.91636,4.754289],[-75.916714,4.754324],[-75.91707,4.754359]]]},"properties":{"osm_id":"relation/10817806","osm_url":"https://www.openstreetmap.org/relation/10817806","nombre":null,"tipo":"leisure=park","tipo_es":"parque","area_m2":8384.4,"acceso":"no declarado en OSM (se asume público)","access_osm":null,"publico":true,"en_cabecera":true,"comuna":"Comuna 5","municipio":"Cartago","nota":null,"componente":24,"componente_area_m2":9741.9,"componente_ge_05ha":true,"componente_ge_1ha":false}},{"type":"Feature","geometry":{"type":"Polygon","coordinates":[[[-75.949763,4.762098],[-75.949227,4.761973],[-75.949019,4.762362],[-75.948893,4.762621],[-75.948755,4.762852],[-75.949547,4.763061],[-75.949763,4.762098]]]},"properties":{"osm_id":"way/1303565266","osm_url":"https://www.openstreetmap.org/way/1303565266","nombre":"Parque Santa Ana","tipo":"leisure=park","tipo_es":"parque","area_m2":8157.4,"acceso":"no declarado en OSM (se asume público)","access_osm":null,"publico":true,"en_cabecera":true,"comuna":"Comuna 7","municipio":"Cartago","nota":null,"componente":45,"componente_area_m2":8157.4,"componente_ge_05ha":true,"componente_ge_1ha":false}},{"type":"Feature","geometry":{"type":"Polygon","coordinates":[[[-75.91907,4.759218],[-75.91898,4.759397],[-75.918884,4.759588],[-75.918825,4.759558],[-75.918769,4.75966],[-75.917783,4.759158],[-75.918028,4.758702],[-75.918246,4.75881],[-75.918846,4.759107],[-75.91907,4.759218]]]},"properties":{"osm_id":"relation/12267307","osm_url":"https://www.openstreetmap.org/relation/12267307","nombre":"Parque de Villa Helena","tipo":"leisure=park","tipo_es":"parque","area_m2":7419.4,"acceso":"no declarado en OSM (se asume público)","access_osm":null,"publico":true,"en_cabecera":true,"comuna":"Comuna 6","municipio":"Cartago","nota":null,"componente":26,"componente_area_m2":7419.4,"componente_ge_05ha":true,"componente_ge_1ha":false}},{"type":"Feature","geometry":{"type":"Polygon","coordinates":[[[-75.924487,4.746859],[-75.924124,4.746811],[-75.924078,4.746807],[-75.924068,4.746927],[-75.924116,4.74722],[-75.924158,4.747245],[-75.924192,4.747372],[-75.924242,4.747462],[-75.924291,4.747499],[-75.924367,4.747516],[-75.924452,4.747508],[-75.924533,4.747477],[-75.924599,4.747419],[-75.924657,4.747375],[-75.92474,4.747364],[-75.924806,4.747384],[-75.924866,4.747449],[-75.924858,4.747519],[-75.924869,4.747592],[-75.925185,4.74729],[-75.925038,4.746926],[-75.924487,4.746859]]]},"properties":{"osm_id":"way/1331455448","osm_url":"https://www.openstreetmap.org/way/1331455448","nombre":null,"tipo":"leisure=park","tipo_es":"parque","area_m2":7085.5,"acceso":"no declarado en OSM (se asume público)","access_osm":null,"publico":true,"en_cabecera":true,"comuna":"Comuna 6","municipio":"Cartago","nota":null,"componente":33,"componente_area_m2":7085.5,"componente_ge_05ha":true,"componente_ge_1ha":false}},{"type":"Feature","geometry":{"type":"Polygon","coordinates":[[[-75.917623,4.753185],[-75.917995,4.753231],[-75.917977,4.753538],[-75.917945,4.753679],[-75.917924,4.753862],[-75.918087,4.753904],[-75.918858,4.753968],[-75.919033,4.75399],[-75.919,4.754116],[-75.917318,4.75401],[-75.917623,4.753185]]]},"properties":{"osm_id":"way/1426928057","osm_url":"https://www.openstreetmap.org/way/1426928057","nombre":null,"tipo":"leisure=garden","tipo_es":"jardín","area_m2":6969.4,"acceso":"institucional (dentro de Colegio María Auxiliadora, relation/10817767)","access_osm":null,"publico":false,"en_cabecera":true,"comuna":"Comuna 6","municipio":"Cartago","nota":null,"componente":null,"componente_area_m2":null,"componente_ge_05ha":false,"componente_ge_1ha":false}},{"type":"Feature","geometry":{"type":"Polygon","coordinates":[[[-75.934219,4.763726],[-75.933574,4.763545],[-75.933623,4.763225],[-75.933394,4.763169],[-75.933421,4.762931],[-75.933633,4.762872],[-75.93367,4.762995],[-75.933791,4.762965],[-75.933813,4.763041],[-75.934353,4.762953],[-75.93432,4.763378],[-75.934219,4.763726]]]},"properties":{"osm_id":"way/654745378","osm_url":"https://www.openstreetmap.org/way/654745378","nombre":null,"tipo":"leisure=park","tipo_es":"parque","area_m2":6422.7,"acceso":"no declarado en OSM (se asume público)","access_osm":null,"publico":true,"en_cabecera":true,"comuna":"Comuna 7","municipio":"Cartago","nota":null,"componente":40,"componente_area_m2":6422.7,"componente_ge_05ha":true,"componente_ge_1ha":false}},{"type":"Feature","geometry":{"type":"Polygon","coordinates":[[[-75.925529,4.698506],[-75.925306,4.699244],[-75.924715,4.699046],[-75.924762,4.698784],[-75.924757,4.698591],[-75.924714,4.698346],[-75.925073,4.698395],[-75.925529,4.698506]]]},"properties":{"osm_id":"way/484848114","osm_url":"https://www.openstreetmap.org/way/484848114","nombre":"Parque Zaragoza","tipo":"leisure=park","tipo_es":"parque","area_m2":6303.4,"acceso":"no declarado en OSM (se asume público)","access_osm":null,"publico":true,"en_cabecera":true,"comuna":"Zaragoza (corregimiento)","municipio":"Cartago","nota":null,"componente":35,"componente_area_m2":6303.4,"componente_ge_05ha":true,"componente_ge_1ha":false}},{"type":"Feature","geometry":{"type":"Polygon","coordinates":[[[-75.907991,4.745507],[-75.907519,4.746587],[-75.907263,4.746609],[-75.907236,4.746379],[-75.907249,4.746158],[-75.907266,4.74608],[-75.907274,4.74604],[-75.907317,4.745874],[-75.907432,4.745643],[-75.907586,4.745537],[-75.907991,4.745507]]]},"properties":{"osm_id":"way/1303159843","osm_url":"https://www.openstreetmap.org/way/1303159843","nombre":"Parque Jorge Eliecer Gaitan","tipo":"leisure=park","tipo_es":"parque","area_m2":5747.1,"acceso":"no declarado en OSM (se asume público)","access_osm":null,"publico":true,"en_cabecera":true,"comuna":"Comuna 4","municipio":"Cartago","nota":null,"componente":11,"componente_area_m2":5747.1,"componente_ge_05ha":true,"componente_ge_1ha":false}},{"type":"Feature","geometry":{"type":"Polygon","coordinates":[[[-75.926367,4.753047],[-75.926432,4.752924],[-75.926515,4.752598],[-75.925646,4.752371],[-75.925701,4.752067],[-75.925399,4.751984],[-75.925322,4.75231],[-75.925406,4.752439],[-75.925597,4.752583],[-75.926367,4.753047]]]},"properties":{"osm_id":"way/1303302304","osm_url":"https://www.openstreetmap.org/way/1303302304","nombre":null,"tipo":"leisure=park","tipo_es":"parque","area_m2":5582.3,"acceso":"no declarado en OSM (se asume público)","access_osm":null,"publico":true,"en_cabecera":true,"comuna":"Comuna 6","municipio":"Cartago","nota":null,"componente":37,"componente_area_m2":5582.3,"componente_ge_05ha":true,"componente_ge_1ha":false}},{"type":"Feature","geometry":{"type":"Polygon","coordinates":[[[-75.910488,4.750964],[-75.910487,4.750906],[-75.910431,4.750858],[-75.909696,4.751057],[-75.909345,4.751164],[-75.908368,4.751384],[-75.908295,4.751363],[-75.908283,4.751504],[-75.909355,4.751386],[-75.909698,4.751351],[-75.909692,4.75123],[-75.909899,4.751202],[-75.910195,4.751158],[-75.910199,4.751001],[-75.910488,4.750964]]]},"properties":{"osm_id":"relation/17902441","osm_url":"https://www.openstreetmap.org/relation/17902441","nombre":null,"tipo":"leisure=park","tipo_es":"parque","area_m2":4821.4,"acceso":"no declarado en OSM (se asume público)","access_osm":null,"publico":true,"en_cabecera":true,"comuna":"Comuna 5","municipio":"Cartago","nota":null,"componente":13,"componente_area_m2":4821.4,"componente_ge_05ha":false,"componente_ge_1ha":false}},{"type":"Feature","geometry":{"type":"Polygon","coordinates":[[[-75.921822,4.756228],[-75.921821,4.756184],[-75.920753,4.756185],[-75.920752,4.756205],[-75.921346,4.756543],[-75.921379,4.756517],[-75.921733,4.756705],[-75.921744,4.756666],[-75.92189,4.756744],[-75.921982,4.756244],[-75.921822,4.756228]]]},"properties":{"osm_id":"way/866790358","osm_url":"https://www.openstreetmap.org/way/866790358","nombre":null,"tipo":"leisure=park","tipo_es":"parque","area_m2":4616.8,"acceso":"no declarado en OSM (se asume público)","access_osm":null,"publico":true,"en_cabecera":true,"comuna":"Comuna 6","municipio":"Cartago","nota":null,"componente":30,"componente_area_m2":4616.8,"componente_ge_05ha":false,"componente_ge_1ha":false}},{"type":"Feature","geometry":{"type":"Polygon","coordinates":[[[-75.939569,4.751354],[-75.939932,4.751588],[-75.939548,4.75221],[-75.939326,4.752069],[-75.93929,4.75206],[-75.93926,4.752066],[-75.939236,4.752081],[-75.939202,4.752111],[-75.939124,4.752066],[-75.939274,4.751807],[-75.939569,4.751354]]]},"properties":{"osm_id":"way/1303298071","osm_url":"https://www.openstreetmap.org/way/1303298071","nombre":"Parque Urbanizacion la Arboleda","tipo":"leisure=park","tipo_es":"parque","area_m2":4091.5,"acceso":"no declarado en OSM (se asume público)","access_osm":null,"publico":true,"en_cabecera":true,"comuna":"Comuna 7","municipio":"Cartago","nota":null,"componente":44,"componente_area_m2":4091.5,"componente_ge_05ha":false,"componente_ge_1ha":false}},{"type":"Feature","geometry":{"type":"Polygon","coordinates":[[[-75.893848,4.766426],[-75.893832,4.76642],[-75.893784,4.766291],[-75.893795,4.766277],[-75.894059,4.766165],[-75.894386,4.766015],[-75.894629,4.765899],[-75.894874,4.765741],[-75.895105,4.765573],[-75.895263,4.76543],[-75.895447,4.765231],[-75.895764,4.764835],[-75.896171,4.764306],[-75.896518,4.763872],[-75.896838,4.763416],[-75.897166,4.762932],[-75.897574,4.762381],[-75.897937,4.761902],[-75.898377,4.761335],[-75.898741,4.760867],[-75.899041,4.76048],[-75.89923,4.760211],[-75.899292,4.760109],[-75.899315,4.760131],[-75.899228,4.76025],[-75.899053,4.760489],[-75.89875,4.760879],[-75.898388,4.761346],[-75.897949,4.761912],[-75.897586,4.762392],[-75.897177,4.762943],[-75.896846,4.763428],[-75.896529,4.763882],[-75.896181,4.764322],[-75.895774,4.764847],[-75.895459,4.765244],[-75.895137,4.765616],[-75.89489,4.765852],[-75.894618,4.766031],[-75.894174,4.766265],[-75.893848,4.766426]]]},"properties":{"osm_id":"way/575720059","osm_url":"https://www.openstreetmap.org/way/575720059","nombre":null,"tipo":"leisure=garden","tipo_es":"jardín","area_m2":3587.7,"acceso":"separador o franja vial (ancho medio ≈ 3.8 m; 100 % del borde a ≤ 10 m de vías principales); no es espacio recreativo","access_osm":null,"publico":false,"en_cabecera":false,"comuna":null,"municipio":"otro municipio","nota":"vías contiguas: Vía Cerritos Cartago","componente":null,"componente_area_m2":null,"componente_ge_05ha":false,"componente_ge_1ha":false}},{"type":"Feature","geometry":{"type":"Polygon","coordinates":[[[-75.905995,4.735837],[-75.905531,4.735929],[-75.905303,4.735516],[-75.905396,4.73547],[-75.905899,4.735428],[-75.905995,4.735837]]]},"properties":{"osm_id":"way/1444034662","osm_url":"https://www.openstreetmap.org/way/1444034662","nombre":"Parque San Jeronimo","tipo":"leisure=park","tipo_es":"parque","area_m2":2967.2,"acceso":"no declarado en OSM (se asume público)","access_osm":null,"publico":true,"en_cabecera":true,"comuna":"Comuna 2","municipio":"Cartago","nota":null,"componente":8,"componente_area_m2":2967.2,"componente_ge_05ha":false,"componente_ge_1ha":false}},{"type":"Feature","geometry":{"type":"Polygon","coordinates":[[[-75.939433,4.753439],[-75.939563,4.753211],[-75.939227,4.75299],[-75.938843,4.752755],[-75.938707,4.753029],[-75.939433,4.753439]]]},"properties":{"osm_id":"way/1303298072","osm_url":"https://www.openstreetmap.org/way/1303298072","nombre":null,"tipo":"leisure=park","tipo_es":"parque","area_m2":2963.5,"acceso":"no declarado en OSM (se asume público)","access_osm":null,"publico":true,"en_cabecera":true,"comuna":"Comuna 7","municipio":"Cartago","nota":null,"componente":43,"componente_area_m2":4781.8,"componente_ge_05ha":false,"componente_ge_1ha":false}},{"type":"Feature","geometry":{"type":"Polygon","coordinates":[[[-75.905607,4.74567],[-75.905605,4.745453],[-75.905773,4.745386],[-75.905766,4.745323],[-75.906058,4.745287],[-75.906034,4.745405],[-75.906064,4.745695],[-75.90624,4.745676],[-75.906253,4.745798],[-75.906074,4.745817],[-75.906018,4.745801],[-75.905841,4.745686],[-75.905621,4.745696],[-75.905607,4.74567]]]},"properties":{"osm_id":"way/1425389260","osm_url":"https://www.openstreetmap.org/way/1425389260","nombre":null,"tipo":"leisure=garden","tipo_es":"jardín","area_m2":2312.4,"acceso":"no declarado en OSM (se asume público)","access_osm":null,"publico":true,"en_cabecera":true,"comuna":"Comuna 1","municipio":"Cartago","nota":null,"componente":10,"componente_area_m2":2312.4,"componente_ge_05ha":false,"componente_ge_1ha":false}},{"type":"Feature","geometry":{"type":"Polygon","coordinates":[[[-75.919896,4.744698],[-75.920288,4.744839],[-75.920452,4.744927],[-75.920613,4.74503],[-75.92073,4.745156],[-75.920347,4.745101],[-75.919864,4.745013],[-75.919882,4.744891],[-75.919909,4.744732],[-75.919896,4.744698]]]},"properties":{"osm_id":"way/1303333689","osm_url":"https://www.openstreetmap.org/way/1303333689","nombre":"Parque El Mariscal","tipo":"leisure=park","tipo_es":"parque","area_m2":2228.4,"acceso":"no declarado en OSM (se asume público)","access_osm":null,"publico":true,"en_cabecera":true,"comuna":"Comuna 6","municipio":"Cartago","nota":null,"componente":29,"componente_area_m2":2228.4,"componente_ge_05ha":false,"componente_ge_1ha":false}},{"type":"Feature","geometry":{"type":"Polygon","coordinates":[[[-75.911029,4.751387],[-75.910969,4.75138],[-75.910915,4.751373],[-75.910823,4.751358],[-75.910544,4.751305],[-75.91054,4.751213],[-75.910537,4.751117],[-75.91053,4.750959],[-75.910526,4.750835],[-75.910599,4.750862],[-75.910898,4.751051],[-75.911028,4.751267],[-75.911029,4.751387]]]},"properties":{"osm_id":"relation/10817731","osm_url":"https://www.openstreetmap.org/relation/10817731","nombre":"Parque de los Periodistas","tipo":"leisure=park","tipo_es":"parque","area_m2":2128.5,"acceso":"no declarado en OSM (se asume público)","access_osm":null,"publico":true,"en_cabecera":true,"comuna":"Comuna 5","municipio":"Cartago","nota":null,"componente":20,"componente_area_m2":2128.5,"componente_ge_05ha":false,"componente_ge_1ha":false}},{"type":"Feature","geometry":{"type":"Polygon","coordinates":[[[-75.89985,4.752986],[-75.89984,4.752994],[-75.899784,4.752961],[-75.899731,4.752946],[-75.89969,4.752941],[-75.899689,4.752931],[-75.899775,4.752854],[-75.899843,4.752757],[-75.899864,4.752705],[-75.899987,4.752251],[-75.900068,4.752011],[-75.900111,4.751903],[-75.90019,4.751746],[-75.900448,4.751365],[-75.900803,4.750939],[-75.900978,4.750736],[-75.901128,4.750553],[-75.901235,4.750402],[-75.901281,4.750321],[-75.901322,4.750214],[-75.901342,4.750153],[-75.901362,4.750042],[-75.901363,4.749903],[-75.90133,4.74974],[-75.90123,4.749371],[-75.901069,4.74884],[-75.901017,4.748665],[-75.900982,4.748535],[-75.900948,4.748337],[-75.900945,4.748187],[-75.90096,4.748075],[-75.900973,4.748031],[-75.900984,4.748033],[-75.901026,4.748088],[-75.90108,4.748124],[-75.901131,4.748132],[-75.901193,4.748137],[-75.901213,4.748144],[-75.901137,4.748256],[-75.901096,4.748383],[-75.901084,4.748469],[-75.90107,4.748585],[-75.90108,4.748743],[-75.901092,4.74884],[-75.901241,4.749369],[-75.90134,4.749738],[-75.901373,4.749901],[-75.901372,4.750042],[-75.901352,4.750158],[-75.901333,4.750218],[-75.901286,4.750328],[-75.901241,4.750409],[-75.901134,4.750562],[-75.900985,4.750745],[-75.90081,4.750949],[-75.900454,4.751373],[-75.900197,4.75175],[-75.900119,4.751905],[-75.899997,4.752254],[-75.899871,4.75271],[-75.899855,4.752806],[-75.899846,4.752897],[-75.899846,4.752959],[-75.89985,4.752986]]]},"properties":{"osm_id":"way/575720061","osm_url":"https://www.openstreetmap.org/way/575720061","nombre":null,"tipo":"leisure=garden","tipo_es":"jardín","area_m2":1928.9,"acceso":"separador o franja vial (ancho medio ≈ 3.1 m; 100 % del borde a ≤ 10 m de vías principales); no es espacio recreativo","access_osm":null,"publico":false,"en_cabecera":true,"comuna":"Comuna 1","municipio":"Cartago","nota":"vías contiguas: 25, Carrera 4A, Carrera 5, Variante Cartago","componente":null,"componente_area_m2":null,"componente_ge_05ha":false,"componente_ge_1ha":false}},{"type":"Feature","geometry":{"type":"Polygon","coordinates":[[[-75.899854,4.753075],[-75.899829,4.753045],[-75.899798,4.75302],[-75.899764,4.753001],[-75.899726,4.752989],[-75.899688,4.752982],[-75.899648,4.752983],[-75.89961,4.752991],[-75.899573,4.753005],[-75.899568,4.753008],[-75.89953,4.753033],[-75.899499,4.753064],[-75.899474,4.753102],[-75.899457,4.753144],[-75.899449,4.753188],[-75.899451,4.753236],[-75.899455,4.753259],[-75.899471,4.753302],[-75.899495,4.753341],[-75.899526,4.753374],[-75.899563,4.7534],[-75.899605,4.753418],[-75.89965,4.753427],[-75.899696,4.753427],[-75.899741,4.753418],[-75.899783,4.7534],[-75.89982,4.753373],[-75.899853,4.753338],[-75.89987,4.75331],[-75.899884,4.753279],[-75.899893,4.753247],[-75.899896,4.753215],[-75.899895,4.753181],[-75.899889,4.753149],[-75.899878,4.753117],[-75.899862,4.753086],[-75.899854,4.753075]]]},"properties":{"osm_id":"relation/10843182","osm_url":"https://www.openstreetmap.org/relation/10843182","nombre":null,"tipo":"leisure=garden","tipo_es":"jardín","area_m2":1913.9,"acceso":"no declarado en OSM (se asume público)","access_osm":null,"publico":true,"en_cabecera":true,"comuna":"Comuna 1","municipio":"Cartago","nota":null,"componente":4,"componente_area_m2":1913.9,"componente_ge_05ha":false,"componente_ge_1ha":false}},{"type":"Feature","geometry":{"type":"Polygon","coordinates":[[[-75.93877,4.752864],[-75.93824,4.75254],[-75.938115,4.752743],[-75.938644,4.753067],[-75.93877,4.752864]]]},"properties":{"osm_id":"way/1425929938","osm_url":"https://www.openstreetmap.org/way/1425929938","nombre":null,"tipo":"leisure=park","tipo_es":"parque","area_m2":1818.3,"acceso":"no declarado en OSM (se asume público)","access_osm":null,"publico":true,"en_cabecera":true,"comuna":"Comuna 7","municipio":"Cartago","nota":null,"componente":43,"componente_area_m2":4781.8,"componente_ge_05ha":false,"componente_ge_1ha":false}},{"type":"Feature","geometry":{"type":"Polygon","coordinates":[[[-75.910006,4.740329],[-75.909935,4.740343],[-75.909894,4.740343],[-75.909829,4.740361],[-75.909809,4.740297],[-75.90976,4.740242],[-75.909752,4.740214],[-75.909813,4.740041],[-75.909943,4.73978],[-75.909965,4.739742],[-75.910171,4.740384],[-75.910195,4.740463],[-75.910006,4.740329]]]},"properties":{"osm_id":"way/1303337382","osm_url":"https://www.openstreetmap.org/way/1303337382","nombre":null,"tipo":"leisure=park","tipo_es":"parque","area_m2":1757.3,"acceso":"no declarado en OSM (se asume público)","access_osm":null,"publico":true,"en_cabecera":true,"comuna":"Comuna 4","municipio":"Cartago","nota":null,"componente":17,"componente_area_m2":1757.3,"componente_ge_05ha":false,"componente_ge_1ha":false}},{"type":"Feature","geometry":{"type":"Polygon","coordinates":[[[-75.91675,4.749345],[-75.916741,4.749543],[-75.916634,4.749538],[-75.916631,4.7496],[-75.916728,4.749633],[-75.916697,4.749725],[-75.916568,4.749718],[-75.916562,4.749833],[-75.916451,4.749827],[-75.916447,4.749911],[-75.916425,4.74991],[-75.91644,4.749646],[-75.916321,4.74964],[-75.916333,4.749438],[-75.916418,4.749443],[-75.91642,4.749393],[-75.916493,4.749397],[-75.916546,4.749426],[-75.916593,4.749428],[-75.916597,4.749338],[-75.91675,4.749345]]]},"properties":{"osm_id":"way/1425389263","osm_url":"https://www.openstreetmap.org/way/1425389263","nombre":null,"tipo":"leisure=garden","tipo_es":"jardín","area_m2":1640.8,"acceso":"no declarado en OSM (se asume público)","access_osm":null,"publico":true,"en_cabecera":true,"comuna":"Comuna 5","municipio":"Cartago","nota":null,"componente":25,"componente_area_m2":1640.8,"componente_ge_05ha":false,"componente_ge_1ha":false}},{"type":"Feature","geometry":{"type":"Polygon","coordinates":[[[-75.911753,4.750236],[-75.911766,4.750653],[-75.911449,4.750663],[-75.911445,4.750425],[-75.911444,4.750241],[-75.911528,4.75024],[-75.911753,4.750236]]]},"properties":{"osm_id":"relation/10817734","osm_url":"https://www.openstreetmap.org/relation/10817734","nombre":"Plazoleta de Santander","tipo":"leisure=park","tipo_es":"parque","area_m2":1615.3,"acceso":"no declarado en OSM (se asume público)","access_osm":null,"publico":true,"en_cabecera":true,"comuna":"Comuna 5","municipio":"Cartago","nota":"también etiquetada place=square: plaza, probablemente con superficie dura","componente":21,"componente_area_m2":1615.3,"componente_ge_05ha":false,"componente_ge_1ha":false}},{"type":"Feature","geometry":{"type":"Polygon","coordinates":[[[-75.916573,4.75574],[-75.916616,4.755763],[-75.916663,4.755775],[-75.916707,4.755775],[-75.916751,4.755764],[-75.91679,4.755744],[-75.916824,4.755715],[-75.91685,4.755679],[-75.916867,4.755638],[-75.916873,4.755595],[-75.91687,4.755551],[-75.916857,4.75551],[-75.916839,4.755479],[-75.916816,4.755452],[-75.916788,4.75543],[-75.916757,4.755414],[-75.916722,4.755403],[-75.916685,4.755399],[-75.916649,4.755403],[-75.916623,4.75541],[-75.916598,4.75542],[-75.916575,4.755434],[-75.916554,4.755451],[-75.916525,4.755487],[-75.916505,4.755529],[-75.916496,4.755575],[-75.916499,4.755621],[-75.916507,4.755649],[-75.916513,4.755666],[-75.916538,4.755706],[-75.916573,4.75574]]]},"properties":{"osm_id":"relation/10817805","osm_url":"https://www.openstreetmap.org/relation/10817805","nombre":null,"tipo":"leisure=garden","tipo_es":"jardín","area_m2":1358.8,"acceso":"no declarado en OSM (se asume público)","access_osm":null,"publico":true,"en_cabecera":true,"comuna":"Comuna 6","municipio":"Cartago","nota":null,"componente":24,"componente_area_m2":9741.9,"componente_ge_05ha":true,"componente_ge_1ha":false}},{"type":"Feature","geometry":{"type":"Polygon","coordinates":[[[-75.90082,4.761243],[-75.900826,4.760835],[-75.900561,4.76081],[-75.900561,4.761231],[-75.90082,4.761243]]]},"properties":{"osm_id":"way/1273139580","osm_url":"https://www.openstreetmap.org/way/1273139580","nombre":"Parqure los Almendros","tipo":"leisure=park","tipo_es":"parque","area_m2":1331.7,"acceso":"no declarado en OSM (se asume público)","access_osm":null,"publico":true,"en_cabecera":false,"comuna":null,"municipio":"otro municipio","nota":null,"componente":5,"componente_area_m2":1331.7,"componente_ge_05ha":false,"componente_ge_1ha":false}},{"type":"Feature","geometry":{"type":"Polygon","coordinates":[[[-75.921838,4.756921],[-75.921576,4.756738],[-75.921452,4.757103],[-75.921688,4.757242],[-75.921838,4.756921]]]},"properties":{"osm_id":"way/108230745","osm_url":"https://www.openstreetmap.org/way/108230745","nombre":null,"tipo":"leisure=recreation_ground","tipo_es":"zona recreativa","area_m2":1318.7,"acceso":"no declarado en OSM (se asume público)","access_osm":null,"publico":true,"en_cabecera":true,"comuna":"Comuna 6","municipio":"Cartago","nota":null,"componente":31,"componente_area_m2":1318.7,"componente_ge_05ha":false,"componente_ge_1ha":false}},{"type":"Feature","geometry":{"type":"Polygon","coordinates":[[[-75.899485,4.753412],[-75.899496,4.753403],[-75.899527,4.753429],[-75.899554,4.753443],[-75.899612,4.753465],[-75.899659,4.753474],[-75.899669,4.75348],[-75.899626,4.753514],[-75.899574,4.753563],[-75.899529,4.753635],[-75.89948,4.753763],[-75.899256,4.754236],[-75.89921,4.754334],[-75.899063,4.75465],[-75.898933,4.754929],[-75.898841,4.755134],[-75.898735,4.75536],[-75.898652,4.75554],[-75.898593,4.755681],[-75.898557,4.755781],[-75.898501,4.75598],[-75.898481,4.756077],[-75.898459,4.756272],[-75.898451,4.756488],[-75.898455,4.756636],[-75.898481,4.756792],[-75.898521,4.756958],[-75.898574,4.757132],[-75.898608,4.757205],[-75.898625,4.75724],[-75.898621,4.757265],[-75.898597,4.757282],[-75.898568,4.757275],[-75.898555,4.757211],[-75.898535,4.757133],[-75.89849,4.757013],[-75.898479,4.756966],[-75.898463,4.756887],[-75.898448,4.756788],[-75.898432,4.756633],[-75.898424,4.756479],[-75.898435,4.75627],[-75.898466,4.756063],[-75.898486,4.755968],[-75.898544,4.755771],[-75.898581,4.755669],[-75.89864,4.755532],[-75.898724,4.75535],[-75.898831,4.755119],[-75.898925,4.754918],[-75.899055,4.75464],[-75.899202,4.754326],[-75.899246,4.754229],[-75.899456,4.753752],[-75.899478,4.753621],[-75.899493,4.753534],[-75.899494,4.753453],[-75.899485,4.753412]]]},"properties":{"osm_id":"way/575720060","osm_url":"https://www.openstreetmap.org/way/575720060","nombre":null,"tipo":"leisure=garden","tipo_es":"jardín","area_m2":1262.8,"acceso":"separador o franja vial (ancho medio ≈ 2.7 m; 100 % del borde a ≤ 10 m de vías principales); no es espacio recreativo","access_osm":null,"publico":false,"en_cabecera":true,"comuna":"Comuna 1","municipio":"Cartago","nota":"vías contiguas: 25, Variante Cartago","componente":null,"componente_area_m2":null,"componente_ge_05ha":false,"componente_ge_1ha":false}},{"type":"Feature","geometry":{"type":"Polygon","coordinates":[[[-75.910479,4.741382],[-75.910179,4.741412],[-75.91017,4.740972],[-75.910354,4.740983],[-75.910479,4.741382]]]},"properties":{"osm_id":"way/677335408","osm_url":"https://www.openstreetmap.org/way/677335408","nombre":null,"tipo":"leisure=park","tipo_es":"parque","area_m2":1254.8,"acceso":"no declarado en OSM (se asume público)","access_osm":null,"publico":true,"en_cabecera":true,"comuna":"Comuna 4","municipio":"Cartago","nota":null,"componente":19,"componente_area_m2":1254.8,"componente_ge_05ha":false,"componente_ge_1ha":false}},{"type":"Feature","geometry":{"type":"Polygon","coordinates":[[[-75.920384,4.752036],[-75.920033,4.752038],[-75.920025,4.751748],[-75.920379,4.751831],[-75.920384,4.752036]]]},"properties":{"osm_id":"relation/10817769","osm_url":"https://www.openstreetmap.org/relation/10817769","nombre":null,"tipo":"leisure=garden","tipo_es":"jardín","area_m2":1068.0,"acceso":"no declarado en OSM (se asume público)","access_osm":null,"publico":true,"en_cabecera":true,"comuna":"Comuna 6","municipio":"Cartago","nota":null,"componente":28,"componente_area_m2":14173.4,"componente_ge_05ha":true,"componente_ge_1ha":true}},{"type":"Feature","geometry":{"type":"Polygon","coordinates":[[[-75.893437,4.766459],[-75.893144,4.766583],[-75.892995,4.766652],[-75.892991,4.76669],[-75.893007,4.766721],[-75.893027,4.766737],[-75.893058,4.766744],[-75.893675,4.766476],[-75.893655,4.76645],[-75.893639,4.766407],[-75.893631,4.766367],[-75.893437,4.766459]]]},"properties":{"osm_id":"way/575720058","osm_url":"https://www.openstreetmap.org/way/575720058","nombre":null,"tipo":"leisure=garden","tipo_es":"jardín","area_m2":961.5,"acceso":"no declarado en OSM (se asume público)","access_osm":null,"publico":true,"en_cabecera":false,"comuna":null,"municipio":"otro municipio","nota":null,"componente":3,"componente_area_m2":961.5,"componente_ge_05ha":false,"componente_ge_1ha":false}},{"type":"Feature","geometry":{"type":"Polygon","coordinates":[[[-75.909298,4.747991],[-75.909448,4.747985],[-75.909453,4.748123],[-75.909577,4.748119],[-75.909584,4.74831],[-75.90931,4.74832],[-75.909298,4.747991]]]},"properties":{"osm_id":"way/576105422","osm_url":"https://www.openstreetmap.org/way/576105422","nombre":null,"tipo":"leisure=garden","tipo_es":"jardín","area_m2":895.5,"acceso":"no declarado en OSM (se asume público)","access_osm":null,"publico":true,"en_cabecera":true,"comuna":"Comuna 4","municipio":"Cartago","nota":null,"componente":15,"componente_area_m2":895.5,"componente_ge_05ha":false,"componente_ge_1ha":false}},{"type":"Feature","geometry":{"type":"Polygon","coordinates":[[[-75.910278,4.749943],[-75.910278,4.749759],[-75.910192,4.749759],[-75.910192,4.749718],[-75.909977,4.749718],[-75.909977,4.749754],[-75.909851,4.749754],[-75.909851,4.74979],[-75.909968,4.74979],[-75.909968,4.74991],[-75.91004,4.74991],[-75.910083,4.749935],[-75.910083,4.75],[-75.910187,4.75],[-75.910187,4.749943],[-75.910278,4.749943]]]},"properties":{"osm_id":"way/1425389261","osm_url":"https://www.openstreetmap.org/way/1425389261","nombre":null,"tipo":"leisure=garden","tipo_es":"jardín","area_m2":892.3,"acceso":"no declarado en OSM (se asume público)","access_osm":null,"publico":true,"en_cabecera":true,"comuna":"Comuna 5","municipio":"Cartago","nota":null,"componente":18,"componente_area_m2":892.3,"componente_ge_05ha":false,"componente_ge_1ha":false}},{"type":"Feature","geometry":{"type":"Polygon","coordinates":[[[-75.905587,4.750876],[-75.905775,4.750578],[-75.905884,4.750577],[-75.905865,4.750443],[-75.905564,4.750437],[-75.905587,4.750876]]]},"properties":{"osm_id":"way/1271289547","osm_url":"https://www.openstreetmap.org/way/1271289547","nombre":"Parque Lucas Arana Yusti","tipo":"leisure=park","tipo_es":"parque","area_m2":890.6,"acceso":"no declarado en OSM (se asume público)","access_osm":null,"publico":true,"en_cabecera":true,"comuna":"Comuna 1","municipio":"Cartago","nota":null,"componente":9,"componente_area_m2":890.6,"componente_ge_05ha":false,"componente_ge_1ha":false}},{"type":"Feature","geometry":{"type":"Polygon","coordinates":[[[-75.909283,4.747566],[-75.909342,4.747564],[-75.90934,4.747503],[-75.909677,4.747491],[-75.909685,4.74769],[-75.909732,4.747688],[-75.909736,4.747778],[-75.909903,4.747772],[-75.909892,4.747467],[-75.90928,4.74749],[-75.909283,4.747566]]]},"properties":{"osm_id":"way/576105423","osm_url":"https://www.openstreetmap.org/way/576105423","nombre":null,"tipo":"leisure=garden","tipo_es":"jardín","area_m2":872.2,"acceso":"no declarado en OSM (se asume público)","access_osm":null,"publico":true,"en_cabecera":true,"comuna":"Comuna 4","municipio":"Cartago","nota":null,"componente":14,"componente_area_m2":872.2,"componente_ge_05ha":false,"componente_ge_1ha":false}},{"type":"Feature","geometry":{"type":"Polygon","coordinates":[[[-75.911473,4.751666],[-75.911458,4.751421],[-75.911176,4.751396],[-75.911029,4.751387],[-75.910969,4.75138],[-75.910915,4.751373],[-75.910823,4.751358],[-75.910544,4.751305],[-75.910544,4.751413],[-75.910783,4.75156],[-75.910775,4.751537],[-75.910771,4.751513],[-75.91077,4.751488],[-75.910774,4.751464],[-75.910781,4.75144],[-75.910792,4.751418],[-75.910806,4.751398],[-75.910826,4.75138],[-75.910839,4.751378],[-75.910858,4.751376],[-75.910933,4.751386],[-75.911147,4.751408],[-75.911176,4.751412],[-75.911243,4.751432],[-75.911306,4.751467],[-75.911361,4.751513],[-75.911408,4.751568],[-75.911473,4.751666]]]},"properties":{"osm_id":"relation/17868037","osm_url":"https://www.openstreetmap.org/relation/17868037","nombre":null,"tipo":"leisure=garden","tipo_es":"jardín","area_m2":843.7,"acceso":"separador o franja vial (ancho medio ≈ 6.1 m; 100 % del borde a ≤ 10 m de vías principales); no es espacio recreativo","access_osm":null,"publico":false,"en_cabecera":true,"comuna":"Comuna 5","municipio":"Cartago","nota":"vías contiguas: Avenida del Río, Calle 10, Calle 9, Carrera 3","componente":null,"componente_area_m2":null,"componente_ge_05ha":false,"componente_ge_1ha":false}},{"type":"Feature","geometry":{"type":"Polygon","coordinates":[[[-75.933714,4.761412],[-75.933563,4.76153],[-75.933351,4.76125],[-75.933496,4.761132],[-75.933714,4.761412]]]},"properties":{"osm_id":"way/654745392","osm_url":"https://www.openstreetmap.org/way/654745392","nombre":null,"tipo":"leisure=park","tipo_es":"parque","area_m2":817.0,"acceso":"no declarado en OSM (se asume público)","access_osm":null,"publico":true,"en_cabecera":true,"comuna":"Comuna 7","municipio":"Cartago","nota":null,"componente":39,"componente_area_m2":817.0,"componente_ge_05ha":false,"componente_ge_1ha":false}},{"type":"Feature","geometry":{"type":"Polygon","coordinates":[[[-75.925849,4.755137],[-75.925992,4.754927],[-75.925797,4.754798],[-75.925653,4.755021],[-75.925749,4.755081],[-75.925794,4.755106],[-75.925849,4.755137]]]},"properties":{"osm_id":"way/866794924","osm_url":"https://www.openstreetmap.org/way/866794924","nombre":"Parque Milán","tipo":"leisure=park","tipo_es":"parque","area_m2":737.8,"acceso":"no declarado en OSM (se asume público)","access_osm":null,"publico":true,"en_cabecera":true,"comuna":"Comuna 6","municipio":"Cartago","nota":null,"componente":38,"componente_area_m2":737.8,"componente_ge_05ha":false,"componente_ge_1ha":false}},{"type":"Feature","geometry":{"type":"Polygon","coordinates":[[[-75.931195,4.751937],[-75.931259,4.751834],[-75.930873,4.751604],[-75.930809,4.751703],[-75.931195,4.751937]]]},"properties":{"osm_id":"way/1425921963","osm_url":"https://www.openstreetmap.org/way/1425921963","nombre":null,"tipo":"leisure=garden","tipo_es":"jardín","area_m2":660.3,"acceso":"institucional (dentro de Hermanitas de los pobre \"Mi casa\", way/1425868658)","access_osm":null,"publico":false,"en_cabecera":true,"comuna":"Comuna 7","municipio":"Cartago","nota":null,"componente":null,"componente_area_m2":null,"componente_ge_05ha":false,"componente_ge_1ha":false}},{"type":"Feature","geometry":{"type":"Polygon","coordinates":[[[-75.910853,4.750839],[-75.910846,4.750546],[-75.910814,4.750518],[-75.910682,4.750478],[-75.91068,4.750765],[-75.910843,4.750873],[-75.910853,4.750839]]]},"properties":{"osm_id":"way/1425389262","osm_url":"https://www.openstreetmap.org/way/1425389262","nombre":null,"tipo":"leisure=garden","tipo_es":"jardín","area_m2":653.4,"acceso":"institucional (dentro de Corporación de estudios Tecnológicos del Norte del Valle, relation/10817733)","access_osm":null,"publico":false,"en_cabecera":true,"comuna":"Comuna 5","municipio":"Cartago","nota":null,"componente":null,"componente_area_m2":null,"componente_ge_05ha":false,"componente_ge_1ha":false}},{"type":"Feature","geometry":{"type":"Polygon","coordinates":[[[-75.909685,4.748306],[-75.909682,4.748216],[-75.90985,4.74821],[-75.909847,4.74814],[-75.909644,4.748148],[-75.909643,4.748118],[-75.909729,4.748114],[-75.909727,4.74805],[-75.909913,4.748043],[-75.909922,4.748297],[-75.909685,4.748306]]]},"properties":{"osm_id":"way/576105421","osm_url":"https://www.openstreetmap.org/way/576105421","nombre":null,"tipo":"leisure=garden","tipo_es":"jardín","area_m2":569.5,"acceso":"no declarado en OSM (se asume público)","access_osm":null,"publico":true,"en_cabecera":true,"comuna":"Comuna 4","municipio":"Cartago","nota":null,"componente":16,"componente_area_m2":569.5,"componente_ge_05ha":false,"componente_ge_1ha":false}},{"type":"Feature","geometry":{"type":"Polygon","coordinates":[[[-75.930919,4.751264],[-75.930876,4.751106],[-75.930667,4.751155],[-75.930699,4.751307],[-75.930919,4.751264]]]},"properties":{"osm_id":"way/1425925930","osm_url":"https://www.openstreetmap.org/way/1425925930","nombre":null,"tipo":"leisure=garden","tipo_es":"jardín","area_m2":428.8,"acceso":"institucional (dentro de Hermanitas de los pobre \"Mi casa\", way/1425868658)","access_osm":null,"publico":false,"en_cabecera":true,"comuna":"Comuna 7","municipio":"Cartago","nota":null,"componente":null,"componente_area_m2":null,"componente_ge_05ha":false,"componente_ge_1ha":false}},{"type":"Feature","geometry":{"type":"Polygon","coordinates":[[[-75.86525,4.791479],[-75.865236,4.791545],[-75.865195,4.791592],[-75.865142,4.791622],[-75.865079,4.791646],[-75.865009,4.791654],[-75.864958,4.791653],[-75.864883,4.791645],[-75.864821,4.791633],[-75.864803,4.791626],[-75.864997,4.791575],[-75.86525,4.791479]]]},"properties":{"osm_id":"way/1442470378","osm_url":"https://www.openstreetmap.org/way/1442470378","nombre":null,"tipo":"leisure=garden","tipo_es":"jardín","area_m2":384.4,"acceso":"no declarado en OSM (se asume público)","access_osm":null,"publico":true,"en_cabecera":false,"comuna":null,"municipio":"otro municipio","nota":"huerta comunitaria (garden:type=community)","componente":1,"componente_area_m2":384.4,"componente_ge_05ha":false,"componente_ge_1ha":false}},{"type":"Feature","geometry":{"type":"Polygon","coordinates":[[[-75.922853,4.754871],[-75.923099,4.754871],[-75.922932,4.754667],[-75.922926,4.754692],[-75.922906,4.754712],[-75.922871,4.754717],[-75.922848,4.754695],[-75.922853,4.754871]]]},"properties":{"osm_id":"way/108231081","osm_url":"https://www.openstreetmap.org/way/108231081","nombre":null,"tipo":"leisure=garden","tipo_es":"jardín","area_m2":372.6,"acceso":"no declarado en OSM (se asume público)","access_osm":null,"publico":true,"en_cabecera":true,"comuna":"Comuna 6","municipio":"Cartago","nota":null,"componente":32,"componente_area_m2":416.9,"componente_ge_05ha":false,"componente_ge_1ha":false}},{"type":"Feature","geometry":{"type":"Polygon","coordinates":[[[-75.933945,4.752746],[-75.933983,4.752648],[-75.933733,4.752551],[-75.933695,4.752649],[-75.933945,4.752746]]]},"properties":{"osm_id":"way/1425927731","osm_url":"https://www.openstreetmap.org/way/1425927731","nombre":null,"tipo":"leisure=garden","tipo_es":"jardín","area_m2":345.8,"acceso":"no declarado en OSM (se asume público)","access_osm":null,"publico":true,"en_cabecera":true,"comuna":"Comuna 7","municipio":"Cartago","nota":null,"componente":41,"componente_area_m2":345.8,"componente_ge_05ha":false,"componente_ge_1ha":false}},{"type":"Feature","geometry":{"type":"Polygon","coordinates":[[[-75.930893,4.75204],[-75.930946,4.751948],[-75.930736,4.751826],[-75.930682,4.751919],[-75.930893,4.75204]]]},"properties":{"osm_id":"way/1425921964","osm_url":"https://www.openstreetmap.org/way/1425921964","nombre":null,"tipo":"leisure=garden","tipo_es":"jardín","area_m2":317.6,"acceso":"institucional (dentro de Hermanitas de los pobre \"Mi casa\", way/1425868658)","access_osm":null,"publico":false,"en_cabecera":true,"comuna":"Comuna 7","municipio":"Cartago","nota":null,"componente":null,"componente_area_m2":null,"componente_ge_05ha":false,"componente_ge_1ha":false}},{"type":"Feature","geometry":{"type":"Polygon","coordinates":[[[-75.925286,4.761158],[-75.925243,4.761122],[-75.925562,4.760763],[-75.925597,4.760787],[-75.925286,4.761158]]]},"properties":{"osm_id":"way/866790355","osm_url":"https://www.openstreetmap.org/way/866790355","nombre":"Villa Juliana","tipo":"leisure=park","tipo_es":"parque","area_m2":290.2,"acceso":"no declarado en OSM (se asume público)","access_osm":null,"publico":true,"en_cabecera":true,"comuna":"Comuna 6","municipio":"Cartago","nota":null,"componente":36,"componente_area_m2":290.2,"componente_ge_05ha":false,"componente_ge_1ha":false}},{"type":"Feature","geometry":{"type":"Polygon","coordinates":[[[-75.92475,4.760875],[-75.924819,4.760795],[-75.92464,4.760658],[-75.924581,4.760739],[-75.92475,4.760875]]]},"properties":{"osm_id":"way/866781288","osm_url":"https://www.openstreetmap.org/way/866781288","nombre":null,"tipo":"leisure=park","tipo_es":"parque","area_m2":278.3,"acceso":"no declarado en OSM (se asume público)","access_osm":null,"publico":true,"en_cabecera":true,"comuna":"Comuna 6","municipio":"Cartago","nota":null,"componente":34,"componente_area_m2":278.3,"componente_ge_05ha":false,"componente_ge_1ha":false}},{"type":"Feature","geometry":{"type":"Polygon","coordinates":[[[-75.917098,4.754406],[-75.916816,4.755196],[-75.916803,4.755277],[-75.916802,4.755349],[-75.916805,4.755394],[-75.916805,4.755409],[-75.9168,4.755412],[-75.916794,4.755407],[-75.916763,4.75539],[-75.916719,4.75538],[-75.916707,4.755378],[-75.91673,4.755357],[-75.916759,4.75532],[-75.916781,4.755267],[-75.916803,4.755191],[-75.917087,4.754402],[-75.917093,4.754404],[-75.917098,4.754406]]]},"properties":{"osm_id":"way/576495584","osm_url":"https://www.openstreetmap.org/way/576495584","nombre":null,"tipo":"leisure=garden","tipo_es":"jardín","area_m2":235.5,"acceso":"separador o franja vial (ancho medio ≈ 1.9 m; 100 % del borde a ≤ 10 m de vías principales); no es espacio recreativo","access_osm":null,"publico":false,"en_cabecera":true,"comuna":"Comuna 6","municipio":"Cartago","nota":"vías contiguas: Calle 16","componente":null,"componente_area_m2":null,"componente_ge_05ha":false,"componente_ge_1ha":false}},{"type":"Feature","geometry":{"type":"Polygon","coordinates":[[[-75.934033,4.752506],[-75.934053,4.752458],[-75.933811,4.752358],[-75.933791,4.752406],[-75.934033,4.752506]]]},"properties":{"osm_id":"way/1425927730","osm_url":"https://www.openstreetmap.org/way/1425927730","nombre":null,"tipo":"leisure=garden","tipo_es":"jardín","area_m2":168.2,"acceso":"no declarado en OSM (se asume público)","access_osm":null,"publico":true,"en_cabecera":true,"comuna":"Comuna 7","municipio":"Cartago","nota":null,"componente":42,"componente_area_m2":168.2,"componente_ge_05ha":false,"componente_ge_1ha":false}},{"type":"Feature","geometry":{"type":"Polygon","coordinates":[[[-75.910589,4.751736],[-75.910582,4.751721],[-75.910568,4.751711],[-75.910551,4.751708],[-75.910535,4.751712],[-75.910522,4.751724],[-75.910516,4.75174],[-75.910517,4.751754],[-75.910523,4.751767],[-75.910534,4.751776],[-75.910548,4.751781],[-75.910566,4.751779],[-75.91058,4.75177],[-75.910589,4.751754],[-75.910589,4.751736]]]},"properties":{"osm_id":"way/575720079","osm_url":"https://www.openstreetmap.org/way/575720079","nombre":null,"tipo":"leisure=garden","tipo_es":"jardín","area_m2":51.2,"acceso":"no declarado en OSM (se asume público)","access_osm":null,"publico":true,"en_cabecera":true,"comuna":"Comuna 5","municipio":"Cartago","nota":null,"componente":12,"componente_area_m2":60051.4,"componente_ge_05ha":true,"componente_ge_1ha":true}},{"type":"Feature","geometry":{"type":"Polygon","coordinates":[[[-75.901816,4.751876],[-75.901802,4.75188],[-75.901789,4.751821],[-75.901814,4.75176],[-75.901853,4.751744],[-75.901815,4.75187],[-75.901816,4.751876]]]},"properties":{"osm_id":"way/575720064","osm_url":"https://www.openstreetmap.org/way/575720064","nombre":null,"tipo":"leisure=garden","tipo_es":"jardín","area_m2":50.2,"acceso":"no declarado en OSM (se asume público)","access_osm":null,"publico":true,"en_cabecera":true,"comuna":"Comuna 1","municipio":"Cartago","nota":null,"componente":7,"componente_area_m2":50.2,"componente_ge_05ha":false,"componente_ge_1ha":false}},{"type":"Feature","geometry":{"type":"Polygon","coordinates":[[[-75.865352,4.79168],[-75.865384,4.791777],[-75.865285,4.791717],[-75.865352,4.79168]]]},"properties":{"osm_id":"way/1443274869","osm_url":"https://www.openstreetmap.org/way/1443274869","nombre":null,"tipo":"leisure=garden","tipo_es":"jardín","area_m2":47.0,"acceso":"no declarado en OSM (se asume público)","access_osm":null,"publico":true,"en_cabecera":false,"comuna":null,"municipio":"otro municipio","nota":"huerta comunitaria (garden:type=community)","componente":2,"componente_area_m2":47.0,"componente_ge_05ha":false,"componente_ge_1ha":false}},{"type":"Feature","geometry":{"type":"Polygon","coordinates":[[[-75.901901,4.75176],[-75.901911,4.751797],[-75.901904,4.7518],[-75.901915,4.751844],[-75.90183,4.751871],[-75.901901,4.75176]]]},"properties":{"osm_id":"way/575720065","osm_url":"https://www.openstreetmap.org/way/575720065","nombre":null,"tipo":"leisure=garden","tipo_es":"jardín","area_m2":45.8,"acceso":"no declarado en OSM (se asume público)","access_osm":null,"publico":true,"en_cabecera":true,"comuna":"Comuna 1","municipio":"Cartago","nota":null,"componente":6,"componente_area_m2":45.8,"componente_ge_05ha":false,"componente_ge_1ha":false}},{"type":"Feature","geometry":{"type":"Polygon","coordinates":[[[-75.922918,4.754663],[-75.922917,4.754681],[-75.922907,4.754695],[-75.922891,4.754703],[-75.922872,4.754702],[-75.922857,4.754691],[-75.92285,4.754675],[-75.922852,4.754657],[-75.922862,4.754643],[-75.922878,4.754635],[-75.922896,4.754637],[-75.92291,4.754647],[-75.922918,4.754663]]]},"properties":{"osm_id":"way/577319901","osm_url":"https://www.openstreetmap.org/way/577319901","nombre":null,"tipo":"leisure=garden","tipo_es":"jardín","area_m2":44.2,"acceso":"no declarado en OSM (se asume público)","access_osm":null,"publico":true,"en_cabecera":true,"comuna":"Comuna 6","municipio":"Cartago","nota":null,"componente":32,"componente_area_m2":416.9,"componente_ge_05ha":false,"componente_ge_1ha":false}},{"type":"Feature","geometry":{"type":"Polygon","coordinates":[[[-75.910558,4.751578],[-75.91056,4.751579],[-75.910563,4.751584],[-75.910565,4.75159],[-75.910563,4.751595],[-75.91056,4.7516],[-75.910558,4.751601],[-75.91056,4.751671],[-75.910543,4.751672],[-75.910541,4.751601],[-75.910539,4.7516],[-75.910536,4.751595],[-75.910535,4.751589],[-75.910536,4.751583],[-75.910539,4.751579],[-75.910541,4.751578],[-75.910539,4.751501],[-75.910556,4.751501],[-75.910558,4.751578]]]},"properties":{"osm_id":"way/575720077","osm_url":"https://www.openstreetmap.org/way/575720077","nombre":null,"tipo":"leisure=garden","tipo_es":"jardín","area_m2":38.8,"acceso":"no declarado en OSM (se asume público)","access_osm":null,"publico":true,"en_cabecera":true,"comuna":"Comuna 5","municipio":"Cartago","nota":null,"componente":12,"componente_area_m2":60051.4,"componente_ge_05ha":true,"componente_ge_1ha":true}},{"type":"Feature","geometry":{"type":"Polygon","coordinates":[[[-75.910563,4.751817],[-75.910578,4.751816],[-75.910609,4.751796],[-75.910627,4.751764],[-75.910627,4.751728],[-75.910612,4.751697],[-75.910584,4.751675],[-75.910578,4.751674],[-75.910578,4.751664],[-75.910588,4.751666],[-75.91062,4.75169],[-75.910637,4.751726],[-75.910636,4.751767],[-75.910616,4.751803],[-75.910582,4.751825],[-75.910563,4.751827],[-75.910563,4.751817]]]},"properties":{"osm_id":"way/575720076","osm_url":"https://www.openstreetmap.org/way/575720076","nombre":null,"tipo":"leisure=garden","tipo_es":"jardín","area_m2":25.8,"acceso":"no declarado en OSM (se asume público)","access_osm":null,"publico":true,"en_cabecera":true,"comuna":"Comuna 5","municipio":"Cartago","nota":null,"componente":12,"componente_area_m2":60051.4,"componente_ge_05ha":true,"componente_ge_1ha":true}},{"type":"Feature","geometry":{"type":"Polygon","coordinates":[[[-75.910527,4.751666],[-75.910511,4.75167],[-75.910482,4.751697],[-75.910468,4.751733],[-75.910471,4.751766],[-75.910485,4.751796],[-75.91051,4.751818],[-75.910542,4.751829],[-75.910545,4.751829],[-75.910545,4.751819],[-75.910543,4.751819],[-75.910515,4.751809],[-75.910493,4.75179],[-75.91048,4.751764],[-75.910478,4.751734],[-75.91049,4.751702],[-75.910516,4.751678],[-75.910527,4.751676],[-75.910527,4.751666]]]},"properties":{"osm_id":"way/575720078","osm_url":"https://www.openstreetmap.org/way/575720078","nombre":null,"tipo":"leisure=garden","tipo_es":"jardín","area_m2":25.8,"acceso":"no declarado en OSM (se asume público)","access_osm":null,"publico":true,"en_cabecera":true,"comuna":"Comuna 5","municipio":"Cartago","nota":null,"componente":12,"componente_area_m2":60051.4,"componente_ge_05ha":true,"componente_ge_1ha":true}},{"type":"Feature","geometry":{"type":"Polygon","coordinates":[[[-75.918868,4.748418],[-75.918879,4.748419],[-75.918888,4.748427],[-75.91889,4.748439],[-75.918885,4.748449],[-75.918875,4.748455],[-75.918864,4.748454],[-75.918855,4.748446],[-75.918853,4.748435],[-75.918858,4.748424],[-75.918868,4.748418]]]},"properties":{"osm_id":"way/576495600","osm_url":"https://www.openstreetmap.org/way/576495600","nombre":null,"tipo":"leisure=garden","tipo_es":"jardín","area_m2":12.9,"acceso":"no declarado en OSM (se asume público)","access_osm":null,"publico":true,"en_cabecera":true,"comuna":"Comuna 6","municipio":"Cartago","nota":null,"componente":27,"componente_area_m2":12.9,"componente_ge_05ha":false,"componente_ge_1ha":false}}]}