{"type":"FeatureCollection","name":"inundacion_drenaje","metadatos":{"descripcion":"Red de drenaje usada como referencia del HAND: ejes OSM de los ríos, arroyos y canales de drenaje OSM y cauces derivados por acumulación de flujo D8 donde OSM no mapea nada. Los trayectos sobre depresiones rellenadas y los canales OSM que no pasan la prueba de drenaje se publican aparte y no se usan.","licencia":"Derivado de Copernicus WorldDEM-30, de OpenStreetMap (ODbL 1.0) y de Meta/WRI High Resolution Canopy Height Maps v1 (CC BY 4.0)","aviso":"produced using Copernicus WorldDEM-30 © DLR e.V. 2010-2014 and © Airbus Defence and Space GmbH 2014-2018 provided under COPERNICUS by the European Union and ESA; all rights reserved","exencion_responsabilidad":"The organisations in charge of the Copernicus programme by law or by delegation do not incur any liability for any use of the Copernicus WorldDEM-30","avisos_legales":["produced using Copernicus WorldDEM-30 © DLR e.V. 2010-2014 and © Airbus Defence and Space GmbH 2014-2018 provided under COPERNICUS by the European Union and ESA; all rights reserved","The organisations in charge of the Copernicus programme by law or by delegation do not incur any liability for any use of the Copernicus WorldDEM-30","Ríos, arroyos y canales: © colaboradores de OpenStreetMap, ODbL 1.0","Meta and World Resources Institute (WRI) - 2024. High Resolution Canopy Height Maps (CHM). Source imagery © 2016 Maxar. Licencia CC BY 4.0 (https://registry.opendata.aws/dataforgood-fb-forests/)"]},"features":[{"type":"Feature","properties":{"tipo":"rio_mayor_osm","usado_como_referencia_hand":true,"umbral_km2":5.0,"umbral_relleno_m":0.5,"fuente":"Ejes OSM de los ríos La Vieja y Cauca (© colaboradores de OpenStreetMap, ODbL 1.0)"},"geometry":{"type":"MultiLineString","coordinates":[[[-75.855,4.708198],[-75.85614,4.70818],[-75.85673,4.70837],[-75.85711,4.7089],[-75.85739,4.71089],[-75.85724,4.71183],[-75.85676,4.71245],[-75.85604,4.71478],[-75.85586,4.71724],[-75.8559,4.71907],[-75.85657,4.72215],[-75.85601,4.7232],[-75.85593,4.72381],[-75.856,4.72431],[-75.85656,4.72578],[-75.85662,4.72659],[-75.85607,4.72844],[-75.85606,4.7292],[-75.85643,4.73048],[-75.85646,4.73144],[-75.85571,4.73285],[-75.855,4.733599]],[[-75.855,4.778268],[-75.85568,4.77805],[-75.85654,4.7776],[-75.85703,4.77692],[-75.85761,4.77645],[-75.8588,4.77579],[-75.8593,4.77535],[-75.85976,4.77462],[-75.86018,4.77434],[-75.86059,4.7742],[-75.86093,4.77441],[-75.86144,4.77445],[-75.86195,4.77423],[-75.86225,4.7737],[-75.86339,4.77358],[-75.86383,4.77406],[-75.86449,4.77408],[-75.86633,4.7731],[-75.86781,4.77268],[-75.86954,4.77263],[-75.86987,4.77278],[-75.87007,4.77308],[-75.87013,4.77355],[-75.86984,4.77515],[-75.86989,4.77568],[-75.87051,4.77631],[-75.87129,4.77626],[-75.87169,4.776],[-75.87254,4.775],[-75.8735,4.77347],[-75.87402,4.77226],[-75.87415,4.77129],[-75.87407,4.77048],[-75.87285,4.76779],[-75.87279,4.76716],[-75.87304,4.76679],[-75.87337,4.76643],[-75.87377,4.76637],[-75.87414,4.7666],[-75.87525,4.76822],[-75.87612,4.76899],[-75.87697,4.76918],[-75.87773,4.76891],[-75.8781,4.76853],[-75.87858,4.76827],[-75.87873,4.76757],[-75.87834,4.76494],[-75.87835,4.76438],[-75.8785,4.76375],[-75.8789,4.76299],[-75.88076,4.7607],[-75.88163,4.76001],[-75.88241,4.75952],[-75.88489,4.75885],[-75.88531,4.75862],[-75.889,4.75466],[-75.89058,4.75493],[-75.89177,4.75543],[-75.89286,4.75621],[-75.89358,4.75692],[-75.89456,4.75816],[-75.89531,4.75815],[-75.89764,4.7588],[-75.89873,4.75838],[-75.90356,4.75488],[-75.90424,4.7542],[-75.90477,4.75351],[-75.90526,4.75259],[-75.90549,4.75242],[-75.90766,4.75205],[-75.90859,4.75222],[-75.91609,4.75578],[-75.91655,4.75613],[-75.91686,4.75655],[-75.91688,4.75723],[-75.91668,4.75758],[-75.91566,4.7583],[-75.91469,4.75945],[-75.91338,4.76034],[-75.91303,4.76093],[-75.91313,4.76161],[-75.91423,4.76293],[-75.91493,4.76351],[-75.9153,4.76366],[-75.91569,4.76365],[-75.91624,4.76344],[-75.9178,4.76188],[-75.91852,4.76132],[-75.92022,4.76028],[-75.92149,4.7598],[-75.92207,4.75973],[-75.92266,4.75988],[-75.92342,4.76045],[-75.92363,4.76082],[-75.92429,4.76294],[-75.92436,4.76362],[-75.92383,4.76419],[-75.92327,4.76544],[-75.92239,4.7665],[-75.92193,4.76688],[-75.92033,4.76767],[-75.91999,4.76797],[-75.91986,4.76825],[-75.92007,4.76884],[-75.92131,4.77025],[-75.92184,4.77055],[-75.92326,4.77074],[-75.92464,4.77047],[-75.92524,4.77013],[-75.92571,4.76966],[-75.92597,4.7692],[-75.92635,4.76718],[-75.9271,4.76659],[-75.92772,4.7664],[-75.92836,4.76646],[-75.92865,4.76637],[-75.92951,4.76657],[-75.93003,4.76692],[-75.93028,4.76728],[-75.93042,4.76806],[-75.93027,4.76843],[-75.92945,4.76948],[-75.92927,4.77159],[-75.92877,4.77253],[-75.92745,4.77418],[-75.92716,4.77534],[-75.92736,4.77719],[-75.92776,4.77833],[-75.92842,4.77945],[-75.92858,4.77999],[-75.92856,4.78031],[-75.9284,4.78053],[-75.9281,4.78066],[-75.92779,4.78061],[-75.9259,4.77964],[-75.92369,4.77895],[-75.92244,4.778],[-75.92207,4.77785],[-75.9217,4.77797],[-75.92159,4.77827],[-75.9218,4.77888],[-75.92199,4.78072],[-75.92241,4.78128],[-75.92308,4.78165],[-75.92443,4.78273],[-75.92525,4.78315],[-75.92781,4.78357],[-75.92848,4.78389],[-75.92877,4.78446],[-75.92875,4.78481],[-75.92836,4.78589],[-75.92816,4.78739],[-75.92796,4.78791],[-75.92706,4.78893],[-75.92661,4.78913],[-75.92537,4.78927],[-75.92395,4.78923],[-75.92122,4.7888],[-75.92003,4.78929],[-75.91908,4.79006],[-75.91853,4.79077],[-75.91817,4.79146],[-75.91787,4.79261],[-75.91774,4.79417],[-75.91795,4.79474],[-75.918218,4.795]],[[-75.97855,4.74308],[-75.97862,4.7466],[-75.97945,4.74857],[-75.98391,4.75381],[-75.985,4.756433]],[[-75.985,4.757925],[-75.98449,4.75987],[-75.97971,4.76147],[-75.97296,4.76234],[-75.97017,4.76294],[-75.96883,4.76423],[-75.96721,4.76761],[-75.96699,4.77255],[-75.96723,4.77439],[-75.96779,4.7754],[-75.97072,4.777],[-75.97329,4.7805],[-75.97341,4.78287],[-75.97243,4.78501],[-75.97149,4.78541],[-75.96977,4.7852],[-75.96551,4.78337],[-75.96123,4.78225],[-75.95731,4.78149],[-75.95505,4.78163],[-75.95414,4.78281],[-75.95425,4.78468],[-75.95609,4.78932],[-75.9593,4.79373],[-75.960905,4.795]]]}},{"type":"Feature","properties":{"tipo":"otro_rio_osm","usado_como_referencia_hand":true,"umbral_km2":5.0,"umbral_relleno_m":0.5,"fuente":"Otros ríos de OSM (© colaboradores de OpenStreetMap, ODbL 1.0)"},"geometry":{"type":"MultiLineString","coordinates":[[[-75.855,4.728607],[-75.855706,4.727738],[-75.855924,4.72767],[-75.856315,4.727745]],[[-75.855,4.792319],[-75.856106,4.791926],[-75.856493,4.791492],[-75.856594,4.791084],[-75.85672,4.790901],[-75.857554,4.790693],[-75.858308,4.790678],[-75.858715,4.790303],[-75.858951,4.789584],[-75.859194,4.789407],[-75.860161,4.7894],[-75.860896,4.789058],[-75.861109,4.788907],[-75.861172,4.788315],[-75.861369,4.788123],[-75.861976,4.787967],[-75.862103,4.787813],[-75.862133,4.787459],[-75.861753,4.786955],[-75.861807,4.786361],[-75.86195,4.785889],[-75.862394,4.785585],[-75.862544,4.785283],[-75.862758,4.784544],[-75.86269,4.784095],[-75.862822,4.783615],[-75.862938,4.783484],[-75.863408,4.783328],[-75.863557,4.783113],[-75.863153,4.782687],[-75.862987,4.78234],[-75.86213,4.782062],[-75.861968,4.781882],[-75.861571,4.780779],[-75.861856,4.780116],[-75.862096,4.779921],[-75.862047,4.778563],[-75.862198,4.778346],[-75.863049,4.777962],[-75.863173,4.777664],[-75.863044,4.777091],[-75.863288,4.776775],[-75.863491,4.77617],[-75.863319,4.775472],[-75.862833,4.774534],[-75.86285,4.774232],[-75.86311,4.773607]]]}},{"type":"Feature","properties":{"tipo":"arroyo_o_canal_de_drenaje_osm","usado_como_referencia_hand":true,"umbral_km2":5.0,"umbral_relleno_m":0.5,"fuente":"Arroyos (con sus alcantarillas) y canales de OSM que pasan la prueba topográfica de drenaje (© colaboradores de OpenStreetMap, ODbL 1.0)"},"geometry":{"type":"MultiLineString","coordinates":[[[-75.955688,4.693369],[-75.95561,4.694703],[-75.95508,4.69664]],[[-75.95508,4.69664],[-75.95516,4.69998],[-75.955095,4.702867],[-75.954945,4.704792],[-75.955374,4.70584],[-75.955911,4.706267],[-75.956919,4.707893],[-75.956908,4.708951],[-75.957005,4.709251],[-75.95722,4.709518],[-75.957853,4.711197],[-75.958303,4.71202],[-75.958539,4.712651],[-75.958861,4.713677],[-75.959258,4.715976],[-75.959312,4.718115],[-75.959558,4.719066],[-75.960438,4.720595],[-75.96091,4.721237],[-75.967026,4.726562],[-75.967948,4.727225],[-75.969461,4.728647],[-75.973452,4.732004],[-75.973645,4.732357],[-75.973753,4.733052],[-75.973721,4.733843],[-75.97386,4.735853],[-75.973789,4.737741]],[[-75.973789,4.737741],[-75.973645,4.738655],[-75.973538,4.738858],[-75.973045,4.739264],[-75.972776,4.739713],[-75.972122,4.73997],[-75.971854,4.740226],[-75.971103,4.741392],[-75.970931,4.741745],[-75.970867,4.742119],[-75.970871,4.743354],[-75.971178,4.745145],[-75.971344,4.746813],[-75.971795,4.748016],[-75.971564,4.749272],[-75.972336,4.751191],[-75.972326,4.752014],[-75.972835,4.754393],[-75.97283,4.755067],[-75.973061,4.755404],[-75.973447,4.755388],[-75.973737,4.755254],[-75.973828,4.755291],[-75.974032,4.755692],[-75.974434,4.755847],[-75.974702,4.756259],[-75.975024,4.756211],[-75.975357,4.755879],[-75.976199,4.755414],[-75.97644,4.755174],[-75.976639,4.75512],[-75.976773,4.755286],[-75.976837,4.755559],[-75.976987,4.755682],[-75.977647,4.755869],[-75.977797,4.755938],[-75.977835,4.756045],[-75.97776,4.756313],[-75.977824,4.75697],[-75.977443,4.757783],[-75.977229,4.758103],[-75.97651,4.75867],[-75.976092,4.758895],[-75.975931,4.75882],[-75.975641,4.758852],[-75.975416,4.75898],[-75.974933,4.759087],[-75.97445,4.758873],[-75.973774,4.759173],[-75.973753,4.759386],[-75.974203,4.760124],[-75.974386,4.760776],[-75.974472,4.761429],[-75.974255,4.762172]],[[-75.913815,4.689441],[-75.914695,4.689317],[-75.915178,4.689429],[-75.915693,4.689306],[-75.916503,4.689322],[-75.91757,4.689648],[-75.919099,4.6896],[-75.919496,4.689905],[-75.919813,4.689937],[-75.920875,4.68952],[-75.922586,4.689483],[-75.922908,4.689338],[-75.923042,4.689108],[-75.923343,4.688932],[-75.924074,4.688915],[-75.924576,4.688775],[-75.924884,4.688429],[-75.925188,4.688289],[-75.925657,4.688263],[-75.925949,4.688396],[-75.926341,4.688433],[-75.927007,4.688114],[-75.927511,4.68811],[-75.927553,4.688]],[[-75.933282,4.688],[-75.933672,4.688184],[-75.935064,4.68824],[-75.935723,4.688371],[-75.935973,4.688534],[-75.936217,4.689173],[-75.936413,4.689342],[-75.93674,4.689393],[-75.945092,4.689091],[-75.9463,4.691142],[-75.947138,4.692137],[-75.948235,4.693108],[-75.948863,4.693464],[-75.950675,4.693525],[-75.950219,4.696154],[-75.950412,4.696167]],[[-75.933116,4.766502],[-75.932589,4.767721],[-75.9322,4.768095],[-75.931953,4.768613],[-75.931596,4.768803],[-75.931444,4.769028],[-75.931264,4.769375],[-75.931178,4.769819],[-75.931301,4.771348],[-75.932071,4.774911],[-75.931331,4.775873],[-75.930778,4.777028],[-75.930617,4.777209],[-75.930397,4.777247],[-75.929764,4.777006],[-75.92933,4.777145],[-75.929148,4.777231],[-75.928246,4.778209],[-75.928075,4.778305],[-75.927764,4.778332]],[[-75.934388,4.762978],[-75.934296,4.763668],[-75.934094,4.764113]],[[-75.934094,4.764113],[-75.934051,4.764197]],[[-75.92755,4.762484],[-75.927331,4.762782],[-75.926828,4.763186],[-75.926184,4.763521],[-75.925875,4.763356],[-75.925716,4.763425],[-75.925372,4.763874],[-75.925168,4.763815],[-75.925144,4.76368],[-75.925005,4.763566],[-75.924363,4.76358]],[[-75.902084,4.731531],[-75.902324,4.731862],[-75.902704,4.731942],[-75.902906,4.732285],[-75.903987,4.732985],[-75.904192,4.732887],[-75.904877,4.73287],[-75.905468,4.733168],[-75.905637,4.733597],[-75.906299,4.733561],[-75.906789,4.733212],[-75.907081,4.733284],[-75.907309,4.734046],[-75.907195,4.734309],[-75.907207,4.734982],[-75.907524,4.735133],[-75.907765,4.735627],[-75.907671,4.736171],[-75.907246,4.736323],[-75.906882,4.736637],[-75.906759,4.737178],[-75.906751,4.737329],[-75.907077,4.737997],[-75.907253,4.738763],[-75.907495,4.739248],[-75.907759,4.739409],[-75.908376,4.739599],[-75.90873,4.740137],[-75.90894,4.740212],[-75.909757,4.739975]],[[-75.924036,4.744146],[-75.925571,4.744872],[-75.925694,4.745195],[-75.926644,4.745598],[-75.927593,4.745793],[-75.929599,4.746012],[-75.930727,4.745438],[-75.93211,4.745089],[-75.933023,4.745148],[-75.933104,4.745208],[-75.935265,4.745153],[-75.93671,4.744608],[-75.937172,4.74431],[-75.937984,4.743407],[-75.938382,4.743299],[-75.939191,4.743545],[-75.940075,4.743495],[-75.941331,4.743176],[-75.942049,4.742858],[-75.94238,4.742851],[-75.943536,4.743298],[-75.944556,4.7434],[-75.945036,4.743374],[-75.945626,4.74323],[-75.94669,4.743162],[-75.947641,4.742627],[-75.948881,4.742287],[-75.949387,4.742369],[-75.950679,4.743008],[-75.951309,4.743183],[-75.95259,4.743358],[-75.95339,4.743105],[-75.954862,4.742907],[-75.955959,4.743041],[-75.95678,4.74283],[-75.957535,4.742849],[-75.957687,4.742946]],[[-75.910024,4.739974],[-75.910171,4.739999]],[[-75.95783,4.742974],[-75.958304,4.74307],[-75.959007,4.743687],[-75.961745,4.74446],[-75.963636,4.745088],[-75.964297,4.745139],[-75.964907,4.745531],[-75.965444,4.745613],[-75.965661,4.745561],[-75.966085,4.74515],[-75.966777,4.745016],[-75.969846,4.745675],[-75.970538,4.746035],[-75.970704,4.746025],[-75.970745,4.745901],[-75.970301,4.742565],[-75.970321,4.741988],[-75.97059,4.741422],[-75.971727,4.739785],[-75.972595,4.739074],[-75.973362,4.737515],[-75.973789,4.737741]],[[-75.957736,4.742954],[-75.95783,4.742974]],[[-75.927664,4.762354],[-75.92755,4.762484]],[[-75.923785,4.755165],[-75.924085,4.755405],[-75.924754,4.755526],[-75.926052,4.756413],[-75.92699,4.757236],[-75.927768,4.758107],[-75.927986,4.758478],[-75.928167,4.759169],[-75.928194,4.760544],[-75.927858,4.762015],[-75.927664,4.762354]],[[-75.92395,4.744038],[-75.924036,4.744146]],[[-75.910171,4.739999],[-75.912034,4.739733],[-75.912607,4.739731],[-75.914615,4.741178],[-75.915347,4.741372],[-75.916042,4.741324],[-75.916888,4.741073],[-75.919169,4.73989],[-75.921299,4.739655],[-75.92184,4.739622],[-75.92245,4.739902],[-75.922931,4.740603]],[[-75.950537,4.696179],[-75.95508,4.69664]],[[-75.950412,4.696167],[-75.950537,4.696179]],[[-75.913729,4.689501],[-75.913815,4.689441]],[[-75.902667,4.688],[-75.90332,4.688778],[-75.903605,4.688867],[-75.904401,4.688745],[-75.905654,4.689126],[-75.905979,4.68915],[-75.90693,4.689118],[-75.907142,4.689029],[-75.907532,4.688697],[-75.907784,4.688291],[-75.908352,4.688]],[[-75.909089,4.688],[-75.909768,4.688778],[-75.910205,4.689991],[-75.910709,4.690536],[-75.911112,4.690771],[-75.911315,4.690835],[-75.912152,4.690771],[-75.912973,4.690285],[-75.913729,4.689501]],[[-75.886202,4.764391],[-75.886462,4.764383],[-75.886665,4.764221],[-75.887844,4.76203],[-75.887874,4.761776]],[[-75.88791,4.761659],[-75.887278,4.760859],[-75.887066,4.760385],[-75.887257,4.759942],[-75.8878,4.759186],[-75.887634,4.758576],[-75.88726,4.758324],[-75.886768,4.758378],[-75.886372,4.758573],[-75.885523,4.758416]],[[-75.887874,4.761776],[-75.88791,4.761659]],[[-75.934051,4.764197],[-75.933645,4.764834]],[[-75.933645,4.764834],[-75.93356,4.764908]],[[-75.923004,4.740709],[-75.923057,4.740785],[-75.923012,4.741127],[-75.923192,4.741468],[-75.923196,4.741732],[-75.923461,4.742037],[-75.922952,4.742635],[-75.923041,4.742877],[-75.92354,4.743474],[-75.923558,4.743758],[-75.923777,4.74377],[-75.92395,4.744038]],[[-75.922931,4.740603],[-75.923004,4.740709]],[[-75.897123,4.758655],[-75.896648,4.759844],[-75.896495,4.761328],[-75.895983,4.762343],[-75.895514,4.762638],[-75.89512,4.764296],[-75.894775,4.764787],[-75.893358,4.765352],[-75.892852,4.764861],[-75.89247,4.76478],[-75.892321,4.765013]],[[-75.933199,4.766304],[-75.933116,4.766502]],[[-75.93356,4.764908],[-75.933383,4.765141],[-75.933337,4.765959],[-75.933199,4.766304]],[[-75.955699,4.69319],[-75.955688,4.693369]],[[-75.955671,4.688],[-75.955699,4.69319]],[[-75.855,4.712473],[-75.855357,4.712557],[-75.855414,4.71267],[-75.855191,4.713097],[-75.855178,4.713348],[-75.855309,4.713413],[-75.856234,4.713386],[-75.85644,4.713479]]]}},{"type":"Feature","properties":{"tipo":"canal_osm_no_usado","usado_como_referencia_hand":false,"umbral_km2":5.0,"umbral_relleno_m":0.5,"fuente":"Canales de OSM que NO pasan la prueba de drenaje (corren a media ladera o en terraplén, como un canal de riego); no se usan (© colaboradores de OpenStreetMap, ODbL 1.0)"},"geometry":{"type":"MultiLineString","coordinates":[[[-75.909905,4.739948],[-75.910024,4.739974]],[[-75.909757,4.739975],[-75.909905,4.739948]],[[-75.957687,4.742946],[-75.957736,4.742954]]]}},{"type":"Feature","properties":{"tipo":"cauce_derivado","usado_como_referencia_hand":true,"umbral_km2":5.0,"umbral_relleno_m":0.5,"fuente":"Derivado del Copernicus DEM GLO-30 (corregido del dosel con Meta/WRI CHM v1): D8 con área drenada ≥ 5 km², fuera de depresiones rellenadas y a más de 90 m de los cauces OSM"},"geometry":{"type":"MultiLineString","coordinates":[[[-75.985,4.774957],[-75.984745,4.775214],[-75.983393,4.775216]],[[-75.985,4.780346],[-75.984752,4.780098],[-75.984482,4.780099],[-75.984211,4.779828],[-75.983669,4.779286],[-75.983669,4.779015],[-75.983128,4.779015],[-75.982857,4.779287]],[[-75.985,4.695976],[-75.984363,4.695977]],[[-75.985,4.754305],[-75.984715,4.754319]],[[-75.982048,4.780374],[-75.982048,4.780916],[-75.981508,4.78146]],[[-75.98204,4.775218],[-75.98177,4.775218]],[[-75.980967,4.781732],[-75.980156,4.781733],[-75.979886,4.782005],[-75.979887,4.782548],[-75.979616,4.782819],[-75.979346,4.78282],[-75.979076,4.783092],[-75.979077,4.783634],[-75.978807,4.783906],[-75.978536,4.783906]],[[-75.980417,4.77522],[-75.980146,4.774949],[-75.979876,4.77495],[-75.979063,4.774137],[-75.978252,4.774138]],[[-75.978266,4.784178],[-75.978267,4.784721]],[[-75.977726,4.784722],[-75.977455,4.784722],[-75.977184,4.784451],[-75.976643,4.784452],[-75.976372,4.784181],[-75.976102,4.784181],[-75.975831,4.78391],[-75.975561,4.783911],[-75.97529,4.784182],[-75.974749,4.784183],[-75.974479,4.783912],[-75.973667,4.783913]],[[-75.977061,4.696801],[-75.976521,4.697345],[-75.976251,4.697345],[-75.97571,4.697889],[-75.974899,4.69789],[-75.974629,4.698162],[-75.972195,4.698165]],[[-75.975276,4.774142],[-75.975005,4.773871],[-75.974464,4.773872],[-75.974193,4.773601],[-75.973923,4.773601],[-75.973652,4.77333],[-75.972841,4.773331],[-75.972299,4.772789],[-75.972029,4.773061],[-75.971488,4.773062],[-75.970946,4.77252],[-75.967971,4.772524],[-75.9677,4.772796],[-75.967159,4.772797]],[[-75.971477,4.795],[-75.970706,4.794229],[-75.969354,4.794231],[-75.969083,4.79396],[-75.968812,4.793961],[-75.968813,4.794232],[-75.968542,4.794504],[-75.968543,4.794775],[-75.968319,4.795]],[[-75.970842,4.698167],[-75.970572,4.698167]],[[-75.966521,4.702786],[-75.967063,4.703328],[-75.967604,4.703327],[-75.968958,4.704682],[-75.97031,4.70468],[-75.971123,4.705493],[-75.971124,4.706036],[-75.970584,4.706579],[-75.970584,4.706851],[-75.970044,4.707394],[-75.969773,4.707395],[-75.969774,4.707937],[-75.969504,4.707938]],[[-75.96949,4.698169],[-75.96922,4.698441]],[[-75.968422,4.708211],[-75.968152,4.708482],[-75.968153,4.709025],[-75.967883,4.709297],[-75.967883,4.70984],[-75.967073,4.710655],[-75.966532,4.710656],[-75.966262,4.710927],[-75.966262,4.711199],[-75.965722,4.711742],[-75.965452,4.711743],[-75.965182,4.712014],[-75.964911,4.712015],[-75.964101,4.71283],[-75.96383,4.712559],[-75.96356,4.712559],[-75.963289,4.712288],[-75.962748,4.712289],[-75.961394,4.710934],[-75.960041,4.710936],[-75.959499,4.710394],[-75.958959,4.710395],[-75.958688,4.710666]],[[-75.966791,4.702243],[-75.966521,4.702515],[-75.966521,4.702786]],[[-75.965438,4.701702],[-75.966521,4.702786]],[[-75.95816,4.719622],[-75.95843,4.71935],[-75.958429,4.719079]],[[-75.955459,4.72234],[-75.957079,4.720709]],[[-75.952466,4.709861],[-75.953547,4.708774],[-75.954358,4.708773],[-75.954628,4.708501],[-75.955169,4.7085],[-75.95544,4.708771],[-75.955441,4.709314],[-75.955983,4.709856],[-75.955983,4.710127],[-75.956254,4.710398],[-75.956524,4.710398]],[[-75.950575,4.710949],[-75.951925,4.70959]],[[-75.948953,4.711765],[-75.949223,4.711494],[-75.950034,4.711492]],[[-75.944902,4.716384],[-75.945172,4.716112]],[[-75.944904,4.718012],[-75.945174,4.71774],[-75.944903,4.717469],[-75.944902,4.716384]],[[-75.943819,4.715843],[-75.944361,4.716385],[-75.944902,4.716384]],[[-75.943545,4.713129],[-75.943816,4.713129],[-75.943817,4.714215],[-75.943547,4.714486]],[[-75.941109,4.711505],[-75.941379,4.711233],[-75.94219,4.711232],[-75.942732,4.711774],[-75.942732,4.712045],[-75.942462,4.712317]],[[-75.938415,4.719649],[-75.938685,4.719649],[-75.938685,4.719377],[-75.938955,4.719106],[-75.939226,4.719105]],[[-75.934886,4.709885],[-75.934886,4.710427],[-75.934616,4.710699],[-75.935158,4.711241],[-75.935699,4.71124],[-75.936511,4.712053],[-75.937323,4.712052],[-75.937863,4.711509]],[[-75.935712,4.720738],[-75.935982,4.720738]],[[-75.930027,4.717218],[-75.930298,4.717489],[-75.930298,4.717761],[-75.931111,4.718574],[-75.931652,4.718573],[-75.932464,4.719386],[-75.932465,4.7202],[-75.933278,4.721013],[-75.933548,4.721013],[-75.933818,4.720741],[-75.9349,4.720739]],[[-75.929736,4.702022],[-75.930549,4.702835],[-75.93055,4.703649],[-75.931092,4.704191],[-75.931092,4.704463],[-75.931363,4.704734],[-75.931633,4.704733],[-75.931904,4.705004],[-75.932445,4.705003],[-75.933257,4.705816],[-75.932987,4.706088],[-75.932988,4.706902],[-75.933259,4.706902],[-75.933259,4.707173],[-75.932989,4.707445],[-75.93299,4.707716],[-75.932719,4.707988],[-75.933261,4.70853],[-75.933802,4.708529],[-75.934615,4.709342]],[[-75.928675,4.717491],[-75.928945,4.71722],[-75.929215,4.717219]],[[-75.923508,4.696603],[-75.92405,4.697145],[-75.92432,4.697145],[-75.925133,4.697958],[-75.925944,4.697957],[-75.925945,4.698228],[-75.926215,4.698499],[-75.926216,4.69877],[-75.926487,4.699041],[-75.926487,4.699313],[-75.926758,4.699584],[-75.927028,4.699312],[-75.927299,4.699583],[-75.927839,4.69904],[-75.928109,4.699039],[-75.928922,4.699852],[-75.928922,4.700124],[-75.928652,4.700395],[-75.928923,4.700666]],[[-75.922427,4.696876],[-75.922968,4.696875]],[[-75.918911,4.69688],[-75.919451,4.696337],[-75.920262,4.696336],[-75.920533,4.696607],[-75.920804,4.696607],[-75.921074,4.696335],[-75.921615,4.696334],[-75.921885,4.696605]],[[-75.91756,4.69851],[-75.918101,4.697967],[-75.9181,4.697153],[-75.91837,4.696881]],[[-75.916874,4.79349],[-75.917145,4.793761],[-75.917146,4.794303],[-75.917417,4.794574],[-75.917687,4.794574]],[[-75.916061,4.792134],[-75.916061,4.792405],[-75.916603,4.792947]],[[-75.916214,4.702854],[-75.915943,4.702583]],[[-75.915402,4.702312],[-75.915401,4.701498],[-75.916211,4.700683]],[[-75.91621,4.699869],[-75.915668,4.699327]],[[-75.915938,4.698513],[-75.916208,4.698241]],[[-75.914437,4.791593],[-75.914708,4.791593],[-75.914978,4.791321],[-75.915519,4.79132],[-75.91579,4.791591]],[[-75.912432,4.706658],[-75.912702,4.706386],[-75.912702,4.706115],[-75.912972,4.705843],[-75.913783,4.705842]],[[-75.911351,4.707202],[-75.911622,4.707473],[-75.911892,4.707473],[-75.912162,4.707201]],[[-75.91054,4.707475],[-75.91081,4.707203]],[[-75.909836,4.7897],[-75.910107,4.789699],[-75.910647,4.789156]],[[-75.910541,4.708289],[-75.91027,4.708018]],[[-75.909732,4.710189],[-75.910002,4.710189]],[[-75.909563,4.788072],[-75.909293,4.788344]],[[-75.908748,4.785088],[-75.908748,4.785359],[-75.90929,4.785901],[-75.90902,4.786173],[-75.90902,4.786444]],[[-75.90876,4.793772],[-75.908759,4.793229],[-75.908488,4.792958],[-75.907947,4.792959],[-75.907946,4.792416]],[[-75.90838,4.710734],[-75.90865,4.710462]],[[-75.90795,4.795],[-75.907949,4.794587]],[[-75.90685,4.781563],[-75.90685,4.781834]],[[-75.906487,4.710736],[-75.906757,4.710736]],[[-75.903618,4.79215],[-75.903889,4.792421],[-75.904159,4.79215]],[[-75.902972,4.711555],[-75.903242,4.711283]],[[-75.897938,4.792972],[-75.898208,4.7927]],[[-75.896586,4.793516],[-75.897127,4.793516]],[[-75.89307,4.793792],[-75.89334,4.793521],[-75.894422,4.793519],[-75.894692,4.793248],[-75.894963,4.793247],[-75.895234,4.793518]],[[-75.88815,4.754179],[-75.888692,4.754721]],[[-75.886254,4.752282],[-75.886525,4.752553],[-75.886795,4.752553]],[[-75.886522,4.750382],[-75.886523,4.750925]],[[-75.884627,4.749028],[-75.884897,4.749027]],[[-75.883003,4.748216],[-75.883273,4.748215],[-75.883815,4.748757]],[[-75.881648,4.746318],[-75.881378,4.746589]],[[-75.878936,4.740894],[-75.878666,4.741166],[-75.878666,4.741437]],[[-75.866429,4.689078],[-75.866159,4.68935]],[[-75.865351,4.691793],[-75.865352,4.692607],[-75.865081,4.692607]],[[-75.864815,4.695593],[-75.864815,4.695864],[-75.864545,4.696136],[-75.864545,4.696407],[-75.864275,4.696679]],[[-75.864812,4.693422],[-75.864542,4.693694],[-75.864542,4.693965],[-75.864813,4.694236],[-75.864813,4.694507]],[[-75.863734,4.696951],[-75.863464,4.697223]],[[-75.863466,4.69858],[-75.862656,4.699395]],[[-75.862115,4.699667],[-75.861304,4.700482],[-75.861305,4.701025],[-75.861035,4.701296]],[[-75.861036,4.70211],[-75.860766,4.702111],[-75.860225,4.702654],[-75.860226,4.702925],[-75.859685,4.703469],[-75.859414,4.703198]],[[-75.858874,4.703199],[-75.858603,4.703199],[-75.858333,4.703471],[-75.858062,4.703471]],[[-75.857522,4.704286],[-75.857252,4.704557],[-75.856982,4.704558]],[[-75.85617,4.704559],[-75.8559,4.704559],[-75.85536,4.705102],[-75.855,4.705103]]]}},{"type":"Feature","properties":{"tipo":"trayecto_sobre_relleno","usado_como_referencia_hand":false,"umbral_km2":5.0,"umbral_relleno_m":0.5,"fuente":"Trayecto D8 con área drenada ≥ 5 km² sobre celdas elevadas > 0,5 m por el relleno de depresiones: NO es un cauce observado y NO se usa como referencia del HAND"},"geometry":{"type":"MultiLineString","coordinates":[[[-75.984092,4.695977],[-75.983281,4.695979]],[[-75.983122,4.775216],[-75.982581,4.775217]],[[-75.98301,4.695979],[-75.977871,4.695986],[-75.977061,4.696801]],[[-75.982587,4.779559],[-75.982588,4.77983]],[[-75.982318,4.780102],[-75.982048,4.780374]],[[-75.982311,4.775217],[-75.98204,4.775218]],[[-75.981499,4.775219],[-75.981229,4.775219],[-75.980959,4.775491],[-75.980688,4.775491],[-75.980417,4.77522]],[[-75.981238,4.78146],[-75.980967,4.781732]],[[-75.978266,4.783907],[-75.978266,4.784178]],[[-75.977997,4.784993],[-75.977726,4.784722]],[[-75.977981,4.774138],[-75.975276,4.774142]],[[-75.971924,4.698165],[-75.970842,4.698167]],[[-75.970301,4.698168],[-75.96949,4.698169]],[[-75.969233,4.707938],[-75.968692,4.707939],[-75.968422,4.708211]],[[-75.96895,4.698712],[-75.968952,4.700069],[-75.966791,4.702243]],[[-75.964625,4.700889],[-75.965438,4.701702]],[[-75.957349,4.720437],[-75.95816,4.719622]],[[-75.952196,4.70959],[-75.952466,4.709861]],[[-75.950305,4.711221],[-75.950575,4.710949]],[[-75.945982,4.714754],[-75.948953,4.711765]],[[-75.945172,4.715841],[-75.945712,4.715297],[-75.945712,4.715026]],[[-75.941121,4.720731],[-75.941392,4.721002],[-75.942474,4.721],[-75.944905,4.718555],[-75.944904,4.718012]],[[-75.943547,4.714758],[-75.943549,4.715572],[-75.943819,4.715843]],[[-75.943274,4.712858],[-75.943545,4.713129]],[[-75.942733,4.712588],[-75.943004,4.712587]],[[-75.938134,4.711509],[-75.938945,4.711507],[-75.939216,4.711778],[-75.939486,4.711778],[-75.940839,4.711776],[-75.941109,4.711505]],[[-75.939496,4.719105],[-75.94085,4.72046]],[[-75.938145,4.719921],[-75.938415,4.719649]],[[-75.936253,4.720738],[-75.937335,4.720736],[-75.937875,4.720193]],[[-75.935171,4.720739],[-75.935712,4.720738]],[[-75.934615,4.709614],[-75.934886,4.709885]],[[-75.929486,4.717219],[-75.930027,4.717218]],[[-75.930006,4.70175],[-75.929736,4.702022]],[[-75.928923,4.700938],[-75.929194,4.700937],[-75.929736,4.701479]],[[-75.928135,4.718035],[-75.928675,4.717491]],[[-75.927594,4.718307],[-75.927865,4.718306]],[[-75.926784,4.719122],[-75.927324,4.718579]],[[-75.923238,4.696875],[-75.923508,4.696603]],[[-75.921886,4.696877],[-75.922427,4.696876]],[[-75.91864,4.696881],[-75.918911,4.69688]],[[-75.91729,4.698239],[-75.91756,4.69851]],[[-75.917289,4.697697],[-75.917289,4.697968]],[[-75.916478,4.69824],[-75.916478,4.697969],[-75.917018,4.697426]],[[-75.916874,4.793218],[-75.916874,4.79349]],[[-75.916481,4.700411],[-75.916481,4.70014],[-75.91621,4.699869]],[[-75.915944,4.703397],[-75.916214,4.703125],[-75.916214,4.702854]],[[-75.916061,4.791862],[-75.916061,4.792134]],[[-75.915668,4.699056],[-75.915668,4.698784],[-75.915938,4.698513]],[[-75.914054,4.705571],[-75.915674,4.70394],[-75.915674,4.703669]],[[-75.915672,4.702583],[-75.915402,4.702312]],[[-75.914167,4.791865],[-75.914437,4.791593]],[[-75.910917,4.789156],[-75.911458,4.789155],[-75.913896,4.791594]],[[-75.912432,4.70693],[-75.912432,4.706658]],[[-75.91108,4.706931],[-75.911351,4.707202]],[[-75.910542,4.709103],[-75.910812,4.708831],[-75.910812,4.70856],[-75.910541,4.708289]],[[-75.91054,4.707746],[-75.91054,4.707475]],[[-75.910273,4.710189],[-75.910272,4.709375]],[[-75.909836,4.789428],[-75.910107,4.789699]],[[-75.907944,4.790788],[-75.908754,4.789973],[-75.909296,4.789972],[-75.909566,4.7897],[-75.909836,4.7897]],[[-75.909294,4.788615],[-75.909835,4.789157]],[[-75.908921,4.710462],[-75.909461,4.709918],[-75.909732,4.710189]],[[-75.90875,4.786716],[-75.908751,4.787259],[-75.909563,4.788072]],[[-75.908489,4.794043],[-75.90876,4.793772]],[[-75.908747,4.784545],[-75.908748,4.785088]],[[-75.907121,4.781834],[-75.907933,4.782647],[-75.908204,4.782646],[-75.908746,4.783188],[-75.908746,4.783731],[-75.909017,4.784002],[-75.908747,4.784274]],[[-75.907569,4.710735],[-75.90838,4.710734]],[[-75.907949,4.794316],[-75.908219,4.794315]],[[-75.907946,4.792145],[-75.907944,4.790788]],[[-75.906052,4.792147],[-75.906322,4.791875],[-75.906322,4.791604],[-75.907133,4.790789],[-75.907944,4.790788]],[[-75.907028,4.710736],[-75.907298,4.710735]],[[-75.906308,4.781021],[-75.90685,4.781563]],[[-75.905675,4.710466],[-75.905946,4.710737],[-75.906487,4.710736]],[[-75.90497,4.791877],[-75.905241,4.792148],[-75.905782,4.792147]],[[-75.905134,4.710467],[-75.905405,4.710466]],[[-75.903512,4.711283],[-75.904324,4.711282],[-75.904864,4.710739]],[[-75.904429,4.791878],[-75.9047,4.792149]],[[-75.902806,4.79188],[-75.903347,4.791879],[-75.903618,4.79215]],[[-75.902431,4.711556],[-75.902972,4.711555]],[[-75.901995,4.792152],[-75.902266,4.792423],[-75.902536,4.792423],[-75.902806,4.792151]],[[-75.900809,4.712372],[-75.901891,4.712371],[-75.902161,4.712099],[-75.902161,4.711828]],[[-75.89956,4.792156],[-75.899831,4.792155],[-75.900371,4.791612],[-75.901182,4.791611],[-75.901724,4.792153]],[[-75.899019,4.792428],[-75.89929,4.792427]],[[-75.898479,4.7927],[-75.898749,4.792428]],[[-75.897397,4.793244],[-75.897668,4.793244],[-75.897938,4.792972]],[[-75.895504,4.793246],[-75.896315,4.793245],[-75.896586,4.793516]],[[-75.892259,4.794336],[-75.892799,4.793793],[-75.89307,4.793792]],[[-75.887066,4.752824],[-75.887608,4.753366],[-75.887608,4.753637],[-75.88815,4.754179]],[[-75.886524,4.751739],[-75.886524,4.75201],[-75.886254,4.752282]],[[-75.886251,4.750111],[-75.886522,4.750382]],[[-75.885983,4.75174],[-75.886253,4.751739]],[[-75.886253,4.751196],[-75.885982,4.751468]],[[-75.885979,4.749026],[-75.88625,4.749297],[-75.886251,4.74984]],[[-75.885168,4.749027],[-75.885709,4.749026]],[[-75.884086,4.749028],[-75.884357,4.749299],[-75.884627,4.749028]],[[-75.881649,4.74686],[-75.88165,4.747675],[-75.881921,4.747946],[-75.882191,4.748217],[-75.883003,4.748216]],[[-75.881375,4.744418],[-75.881377,4.745775],[-75.881648,4.746046],[-75.881648,4.746318]],[[-75.880562,4.743334],[-75.881104,4.743876],[-75.881104,4.744147]],[[-75.879479,4.74225],[-75.880291,4.743063]],[[-75.878396,4.741709],[-75.878397,4.74198],[-75.878667,4.742251],[-75.878938,4.742251],[-75.879209,4.742522]],[[-75.87704,4.738725],[-75.87704,4.738997],[-75.878936,4.740894]],[[-75.87731,4.738182],[-75.87731,4.738454]],[[-75.877309,4.737639],[-75.87731,4.737911]],[[-75.866699,4.688263],[-75.86697,4.688534],[-75.866429,4.689078]],[[-75.86616,4.689621],[-75.865619,4.690164]],[[-75.86562,4.690436],[-75.86562,4.690978],[-75.86508,4.691522],[-75.865351,4.691793]],[[-75.865082,4.692879],[-75.864812,4.69315],[-75.864812,4.693422]],[[-75.864814,4.694779],[-75.864815,4.695593]],[[-75.864005,4.696679],[-75.863734,4.696951]],[[-75.863465,4.697494],[-75.863466,4.69858]],[[-75.862385,4.699666],[-75.862115,4.699667]],[[-75.861306,4.701567],[-75.861306,4.701839],[-75.861036,4.70211]],[[-75.859144,4.703198],[-75.858874,4.703199]],[[-75.858063,4.703742],[-75.857522,4.704286]],[[-75.856711,4.704558],[-75.856441,4.704287],[-75.85617,4.704559]]]}}]}